wmCode,iso6391,iso6392,iso6393,iso6396,native,label
aa,,,aar,,Qafar af,Afar
aa,,,aar,,Qafar,Afar
aa,,,aar,,Afaraf,Afar
aa,,,aar,,Afar-af,Afar
aa,,,aar,,â€™Afar Af,Afar
aa,,aar,,,Qafar af,Afar
aa,,aar,,,Qafar,Afar
aa,,aar,,,Afaraf,Afar
aa,,aar,,,Afar-af,Afar
aa,,aar,,,â€™Afar Af,Afar
aa,aa,,,,Qafar af,Afar
aa,aa,,,,Qafar,Afar
aa,aa,,,,Afaraf,Afar
aa,aa,,,,Afar-af,Afar
aa,aa,,,,â€™Afar Af,Afar
aa,,,aar,,Qafar af,Afar
aa,,aar,,,Qafar af,Afar
aa,,,aar,,Qafar,Afar
aa,,aar,,,Qafar,Afar
aa,,,aar,,Afaraf,Afar
aa,,aar,,,Afaraf,Afar
aa,,,aar,,Afar-af,Afar
aa,,aar,,,Afar-af,Afar
aa,,,aar,,â€™Afar Af,Afar
aa,,aar,,,â€™Afar Af,Afar
aa,aa,,,,Qafar af,Afar
aa,aa,,,,Qafar,Afar
aa,aa,,,,Afaraf,Afar
aa,aa,,,,Afar-af,Afar
aa,aa,,,,â€™Afar Af,Afar
ab,,,abk,,ĞÔ¥ÑÑˆÓ™Ğ°,Abkhaz
ab,ab,,,,ĞÔ¥ÑÑˆÓ™Ğ°,Abkhaz
ab,,abk,,,ĞÔ¥ÑÑˆÓ™Ğ°,Abkhaz
ab,,,abk,,ĞÔ¥ÑÑƒĞ° Ğ±Ñ‹Ğ·ÑˆÓ™Ğ°,Abkhaz
ab,ab,,,,ĞÔ¥ÑÑƒĞ° Ğ±Ñ‹Ğ·ÑˆÓ™Ğ°,Abkhaz
ab,,abk,,,ĞÔ¥ÑÑƒĞ° Ğ±Ñ‹Ğ·ÑˆÓ™Ğ°,Abkhaz
ab,,,abk,,ĞÔ¥ÑÑˆÓ™Ğ°,Abkhaz
ab,ab,,,,ĞÔ¥ÑÑˆÓ™Ğ°,Abkhaz
ab,,abk,,,ĞÔ¥ÑÑˆÓ™Ğ°,Abkhaz
ab,,,abk,,ĞÔ¥ÑÑƒĞ° Ğ±Ñ‹Ğ·ÑˆÓ™Ğ°,Abkhaz
ab,ab,,,,ĞÔ¥ÑÑƒĞ° Ğ±Ñ‹Ğ·ÑˆÓ™Ğ°,Abkhaz
ab,,abk,,,ĞÔ¥ÑÑƒĞ° Ğ±Ñ‹Ğ·ÑˆÓ™Ğ°,Abkhaz
abq,,,abq,,"Abaza, Ğ°Ğ±Ğ°Ğ·Ğ° (Abaza), Ğ°Ğ±Ğ°Ğ·Ğ° Ğ±Ñ‹Ğ·ÑˆĞ²Ğ° (Abaza byzÅ¡va)",Abaza
abq,,,abq,,"Abaza, Ğ°Ğ±Ğ°Ğ·Ğ° (Abaza), Ğ°Ğ±Ğ°Ğ·Ğ° Ğ±Ñ‹Ğ·ÑˆĞ²Ğ° (Abaza byzÅ¡va)",Abaza
abs,,,abs,,,Ambonese
abs,,,abs,,,Ambonese
ace,,,ace,,bahasa Aceh,Acehnese
ace,,ace,,,bahasa Aceh,Acehnese
ace,,,ace,,bahasa Aceh,Acehnese
ace,,ace,,,bahasa Aceh,Acehnese
adx,,,adx,,à½¨à¼‹à½˜à½‘à½¼à½ à½²à¼‹à½¦à¾à½‘à¼,Amdo Tibetan
adx,,,adx,,A-mdoâ€™i skad,Amdo Tibetan
adx,,,adx,,à½¨à¼‹à½˜à½‘à½¼à½ à½²à¼‹à½¦à¾à½‘à¼,Amdo Tibetan
adx,,,adx,,A-mdoâ€™i skad,Amdo Tibetan
ady,,,ady,,ĞšÓĞ°Ñ… ĞĞ´Ñ‹Ğ³Ğ°Ğ±Ğ·Ñ (Kiakh AdÉ™gÄƒbzÄƒ),Adyghe
ady,,ady,,,ĞšÓĞ°Ñ… ĞĞ´Ñ‹Ğ³Ğ°Ğ±Ğ·Ñ (Kiakh AdÉ™gÄƒbzÄƒ),Adyghe
ady,,,ady,,ĞĞ´Ñ‹Ğ³Ğ°Ğ±Ğ·Ñ,Adyghe
ady,,ady,,,ĞĞ´Ñ‹Ğ³Ğ°Ğ±Ğ·Ñ,Adyghe
ady,,ady,,,ĞšÓĞ°Ñ… ĞĞ´Ñ‹Ğ³Ğ°Ğ±Ğ·Ñ (Kiakh AdÉ™gÄƒbzÄƒ),Adyghe
ady,,ady,,,ĞĞ´Ñ‹Ğ³Ğ°Ğ±Ğ·Ñ,Adyghe
ady,,,ady,,ĞšÓĞ°Ñ… ĞĞ´Ñ‹Ğ³Ğ°Ğ±Ğ·Ñ (Kiakh AdÉ™gÄƒbzÄƒ),Adyghe
ady,,,ady,,ĞĞ´Ñ‹Ğ³Ğ°Ğ±Ğ·Ñ,Adyghe
aeb,,,aeb,,ØªÙˆÙ†Ø³ÙŠ,Tunisian Arabic
aeb,,,aeb,,Tounsi,Tunisian Arabic
aeb,,,aeb,,DÃ¨rja Tounsiyya,Tunisian Arabic
aeb,,,aeb,,Ø¯Ø§Ø±Ø¬Ø© ØªÙˆÙ†Ø³ÙŠØ©,Tunisian Arabic
aeb,,,aeb,,ØªÙˆÙ†Ø³ÙŠ,Tunisian Arabic
aeb,,,aeb,,Tounsi,Tunisian Arabic
aeb,,,aeb,,DÃ¨rja Tounsiyya,Tunisian Arabic
aeb,,,aeb,,Ø¯Ø§Ø±Ø¬Ø© ØªÙˆÙ†Ø³ÙŠØ©,Tunisian Arabic
af,,,afr,,Afrikaans,Afrikaans
af,af,,,,Afrikaans,Afrikaans
af,,afr,,,Afrikaans,Afrikaans
af,af,,,,Afrikaans,Afrikaans
af,,afr,,,Afrikaans,Afrikaans
af,,,afr,,Afrikaans,Afrikaans
agq,,,agq,,Aghem,Aghem
agq,,,agq,,Aghem,Aghem
ak,,,aka,,Akan,Akan
ak,ak,,,,Akan,Akan
ak,,aka,,,Akan,Akan
ak,,,aka,,akan,Akan
ak,ak,,,,akan,Akan
ak,,aka,,,akan,Akan
ak,,,aka,,Akan,Akan
ak,ak,,,,Akan,Akan
ak,,aka,,,Akan,Akan
ak,,,aka,,akan,Akan
ak,ak,,,,akan,Akan
ak,,aka,,,akan,Akan
ak,ak,,,,Akan,Akan
ak,,aka,,,Akan,Akan
ak,ak,,,,akan,Akan
ak,,aka,,,akan,Akan
ak,,,aka,,Akan,Akan
ak,,,aka,,akan,Akan
ak,,,aka,,Akan,Akan
ak,,,aka,,akan,Akan
ak,ak,,,,Akan,Akan
ak,,aka,,,Akan,Akan
ak,ak,,,,akan,Akan
ak,,aka,,,akan,Akan
akl,,,akl,,,Aklan
akl,,,akl,,,Aklan
akz,,,akz,,,Alabama
akz,,,akz,,,Alabama
aln,,,aln,,,Gheg Albanian
aln,,,aln,,,Gheg Albanian
alt,,,alt,,"Ğ°Ğ»Ñ‚Ğ°Ğ¹Ğ´Ñ‹Ò¥ Ñ‚Ğ¸Ğ», Ğ°Ğ»Ñ‚Ğ°Ğ¹ Ñ‚Ğ¸Ğ»",Altai
alt,,alt,,,"Ğ°Ğ»Ñ‚Ğ°Ğ¹Ğ´Ñ‹Ò¥ Ñ‚Ğ¸Ğ», Ğ°Ğ»Ñ‚Ğ°Ğ¹ Ñ‚Ğ¸Ğ»",Altai
alt,,alt,,,"Ğ°Ğ»Ñ‚Ğ°Ğ¹Ğ´Ñ‹Ò¥ Ñ‚Ğ¸Ğ», Ğ°Ğ»Ñ‚Ğ°Ğ¹ Ñ‚Ğ¸Ğ»",Altai
alt,,,alt,,"Ğ°Ğ»Ñ‚Ğ°Ğ¹Ğ´Ñ‹Ò¥ Ñ‚Ğ¸Ğ», Ğ°Ğ»Ñ‚Ğ°Ğ¹ Ñ‚Ğ¸Ğ»",Altai
am,,,amh,,áŠ£áˆ›áˆ­áŠ› (AmarÉ™Ã±Ã±a),Amharic
am,am,,,,áŠ£áˆ›áˆ­áŠ› (AmarÉ™Ã±Ã±a),Amharic
am,,amh,,,áŠ£áˆ›áˆ­áŠ› (AmarÉ™Ã±Ã±a),Amharic
am,,,amh,,áŠ áˆ›áˆ­áŠ›,Amharic
am,am,,,,áŠ áˆ›áˆ­áŠ›,Amharic
am,,amh,,,áŠ áˆ›áˆ­áŠ›,Amharic
am,am,,,,áŠ£áˆ›áˆ­áŠ› (AmarÉ™Ã±Ã±a),Amharic
am,,amh,,,áŠ£áˆ›áˆ­áŠ› (AmarÉ™Ã±Ã±a),Amharic
am,am,,,,áŠ áˆ›áˆ­áŠ›,Amharic
am,,amh,,,áŠ áˆ›áˆ­áŠ›,Amharic
am,,,amh,,áŠ£áˆ›áˆ­áŠ› (AmarÉ™Ã±Ã±a),Amharic
am,,,amh,,áŠ áˆ›áˆ­áŠ›,Amharic
am,,,amh,,áŠ£áˆ›áˆ­áŠ› (AmarÉ™Ã±Ã±a),Amharic
am,am,,,,áŠ£áˆ›áˆ­áŠ› (AmarÉ™Ã±Ã±a),Amharic
am,,amh,,,áŠ£áˆ›áˆ­áŠ› (AmarÉ™Ã±Ã±a),Amharic
am,,,amh,,áŠ áˆ›áˆ­áŠ›,Amharic
am,am,,,,áŠ áˆ›áˆ­áŠ›,Amharic
am,,amh,,,áŠ áˆ›áˆ­áŠ›,Amharic
ami,,,ami,,Amis,Amis
ami,,,ami,,Amis,Amis
an,,,arg,,Idioma aragonÃ©s,Aragonese
an,an,,,,Idioma aragonÃ©s,Aragonese
an,,arg,,,Idioma aragonÃ©s,Aragonese
an,,,arg,,AragonÃ©s,Aragonese
an,an,,,,AragonÃ©s,Aragonese
an,,arg,,,AragonÃ©s,Aragonese
an,,,arg,,Idioma aragonÃ©s,Aragonese
an,an,,,,Idioma aragonÃ©s,Aragonese
an,,arg,,,Idioma aragonÃ©s,Aragonese
an,,,arg,,AragonÃ©s,Aragonese
an,an,,,,AragonÃ©s,Aragonese
an,,arg,,,AragonÃ©s,Aragonese
ang,,,,ango,Ã†nglisc sprÇ£c,Old English
ang,,,ang,,Ã†nglisc sprÇ£c,Old English
ang,,ang,,,Ã†nglisc sprÇ£c,Old English
ang,,,,ango,Ã†nglisc sprÇ£c,Old English
ang,,,ang,,Ã†nglisc sprÇ£c,Old English
ang,,ang,,,Ã†nglisc sprÇ£c,Old English
ang,,,,ango,Ã†nglisc sprÇ£c,Old English
ang,,,ang,,Ã†nglisc sprÇ£c,Old English
ang,,ang,,,Ã†nglisc sprÇ£c,Old English
ang,,ang,,,Ã†nglisc sprÇ£c,Old English
ang,,,,ango,Ã†nglisc sprÇ£c,Old English
ang,,,ang,,Ã†nglisc sprÇ£c,Old English
anp,,,anp,,à¤…à¤‚à¤—à¤¿à¤•à¤¾ (Angika),Angika
anp,,anp,,,à¤…à¤‚à¤—à¤¿à¤•à¤¾ (Angika),Angika
anp,,,anp,,à¤…à¤‚à¤—à¤¿à¤•à¤¾ (Angika),Angika
anp,,anp,,,à¤…à¤‚à¤—à¤¿à¤•à¤¾ (Angika),Angika
aoc,,,aoc,,,Pemon
aoc,,,aoc,,,Pemon
ar,,,ara,,Ø§Ù„Ù„ÙÙ‘ØºÙØ© Ø§Ù„Ø¹ÙØ±ÙØ¨ÙÙŠÙ‘Ø©,Arabic
ar,ar,,,,Ø§Ù„Ù„ÙÙ‘ØºÙØ© Ø§Ù„Ø¹ÙØ±ÙØ¨ÙÙŠÙ‘Ø©,Arabic
ar,,ara,,,Ø§Ù„Ù„ÙÙ‘ØºÙØ© Ø§Ù„Ø¹ÙØ±ÙØ¨ÙÙŠÙ‘Ø©,Arabic
ar,ar,,,,Ø§Ù„Ù„ÙÙ‘ØºÙØ© Ø§Ù„Ø¹ÙØ±ÙØ¨ÙÙŠÙ‘Ø©,Arabic
ar,,ara,,,Ø§Ù„Ù„ÙÙ‘ØºÙØ© Ø§Ù„Ø¹ÙØ±ÙØ¨ÙÙŠÙ‘Ø©,Arabic
ar,,,ara,,Ø§Ù„Ù„ÙÙ‘ØºÙØ© Ø§Ù„Ø¹ÙØ±ÙØ¨ÙÙŠÙ‘Ø©,Arabic
ar,,,ara,,Ø§Ù„Ù„ÙÙ‘ØºÙØ© Ø§Ù„Ø¹ÙØ±ÙØ¨ÙÙŠÙ‘Ø©,Arabic
ar,ar,,,,Ø§Ù„Ù„ÙÙ‘ØºÙØ© Ø§Ù„Ø¹ÙØ±ÙØ¨ÙÙŠÙ‘Ø©,Arabic
ar,,ara,,,Ø§Ù„Ù„ÙÙ‘ØºÙØ© Ø§Ù„Ø¹ÙØ±ÙØ¨ÙÙŠÙ‘Ø©,Arabic
arc,,,arc,,Ü Ü«Ü¢Ü ÜÜªÜ¡ÜÜ,Aramaic
arc,,arc,,,Ü Ü«Ü¢Ü ÜÜªÜ¡ÜÜ,Aramaic
arn,,arn,,,Mapudungun,Mapudungun
arn,,,arn,,Mapudungun,Mapudungun
arn,,,arn,,Mapudungun,Mapudungun
arn,,arn,,,Mapudungun,Mapudungun
arq,,,arq,,Ø¯Ø²ÙŠØ±ÙŠØ©,Algerian Arabic
arq,,,arq,,Ø¯Ø²ÙŠØ±ÙŠØ©,Algerian Arabic
ary,,,ary,,Ø§Ù„Ø¯Ø§Ø±Ø¬Ø©,Moroccan Arabic
ary,,,ary,,Ø§Ù„Ø¯Ø§Ø±Ø¬Ø©,Moroccan Arabic
arz,,,arz,,Ø§Ù„Ù„ØºÙ‡ Ø§Ù„Ù…ØµØ±ÙŠØ©,Egyptian Arabic
as,as,,,,à¦…à¦¸à¦®à§€à¦¯à¦¼à¦¾ à¦­à¦¾à¦·à¦¾,Assamese
as,as,,,,à¦…à¦¸à¦®à§€à¦¯à¦¼à¦¾,Assamese
as,,,asm,,à¦…à¦¸à¦®à§€à¦¯à¦¼à¦¾ à¦­à¦¾à¦·à¦¾,Assamese
as,,asm,,,à¦…à¦¸à¦®à§€à¦¯à¦¼à¦¾ à¦­à¦¾à¦·à¦¾,Assamese
as,,,asm,,à¦…à¦¸à¦®à§€à¦¯à¦¼à¦¾,Assamese
as,,asm,,,à¦…à¦¸à¦®à§€à¦¯à¦¼à¦¾,Assamese
as,as,,,,à¦…à¦¸à¦®à§€à¦¯à¦¼à¦¾ à¦­à¦¾à¦·à¦¾,Assamese
as,as,,,,à¦…à¦¸à¦®à§€à¦¯à¦¼à¦¾,Assamese
as,,,asm,,à¦…à¦¸à¦®à§€à¦¯à¦¼à¦¾ à¦­à¦¾à¦·à¦¾,Assamese
as,,asm,,,à¦…à¦¸à¦®à§€à¦¯à¦¼à¦¾ à¦­à¦¾à¦·à¦¾,Assamese
as,,,asm,,à¦…à¦¸à¦®à§€à¦¯à¦¼à¦¾,Assamese
as,,asm,,,à¦…à¦¸à¦®à§€à¦¯à¦¼à¦¾,Assamese
ase,,,ase,,,American Sign Language
ase,,,ase,,,American Sign Language
ase,,,ase,,,American Sign Language
ast,,,ast,,Asturianu,Asturian
ast,,ast,,,Asturianu,Asturian
ast,,,ast,,asturianu,Asturian
ast,,ast,,,asturianu,Asturian
ast,,,ast,,Asturianu,Asturian
ast,,ast,,,Asturianu,Asturian
ast,,,ast,,asturianu,Asturian
ast,,ast,,,asturianu,Asturian
ast,,,ast,,Asturianu,Asturian
ast,,ast,,,Asturianu,Asturian
ast,,,ast,,asturianu,Asturian
ast,,ast,,,asturianu,Asturian
atj,,,atj,,Atikamekw Nehiromowin,Atikamekw
atj,,,atj,,Atikamekw,Atikamekw
atj,,,atj,,Atikamekw Nehiromowin,Atikamekw
atj,,,atj,,Atikamekw,Atikamekw
av,av,,,,Ğ¼Ğ°Ğ³IĞ°Ñ€ÑƒĞ» Ğ¼Ğ°Ñ†I,Avaric
av,av,,,,ĞĞ²Ğ°Ñ€ Ğ¼Ğ°Ñ†I,Avaric
av,,,ava,,Ğ¼Ğ°Ğ³IĞ°Ñ€ÑƒĞ» Ğ¼Ğ°Ñ†I,Avaric
av,,ava,,,Ğ¼Ğ°Ğ³IĞ°Ñ€ÑƒĞ» Ğ¼Ğ°Ñ†I,Avaric
av,,,ava,,ĞĞ²Ğ°Ñ€ Ğ¼Ğ°Ñ†I,Avaric
av,,ava,,,ĞĞ²Ğ°Ñ€ Ğ¼Ğ°Ñ†I,Avaric
av,av,,,,Ğ¼Ğ°Ğ³IĞ°Ñ€ÑƒĞ» Ğ¼Ğ°Ñ†I,Avaric
av,av,,,,ĞĞ²Ğ°Ñ€ Ğ¼Ğ°Ñ†I,Avaric
av,,,ava,,Ğ¼Ğ°Ğ³IĞ°Ñ€ÑƒĞ» Ğ¼Ğ°Ñ†I,Avaric
av,,ava,,,Ğ¼Ğ°Ğ³IĞ°Ñ€ÑƒĞ» Ğ¼Ğ°Ñ†I,Avaric
av,,,ava,,ĞĞ²Ğ°Ñ€ Ğ¼Ğ°Ñ†I,Avaric
av,,ava,,,ĞĞ²Ğ°Ñ€ Ğ¼Ğ°Ñ†I,Avaric
avk,,,avk,,,Kotava
avk,,,avk,,,Kotava
awa,,,awa,,à¤…à¤µà¤§à¥€,Awadhi
awa,,awa,,,à¤…à¤µà¤§à¥€,Awadhi
awa,,,awa,,à¤…à¤µà¤§à¥€,Awadhi
awa,,awa,,,à¤…à¤µà¤§à¥€,Awadhi
ay,,,aym,,Aymar aru,Aymara
ay,,aym,,,Aymar aru,Aymara
ay,ay,,,,Aymar aru,Aymara
ay,,,aym,,Aymar aru,Aymara
ay,,aym,,,Aymar aru,Aymara
ay,ay,,,,Aymar aru,Aymara
ay,,,aym,,Aymar aru,Aymara
ay,,aym,,,Aymar aru,Aymara
ay,ay,,,,Aymar aru,Aymara
az,az,,,,AzÉ™rbaycan dili,Azerbaijani
az,,,aze,,AzÉ™rbaycan dili,Azerbaijani
az,,aze,,,AzÉ™rbaycan dili,Azerbaijani
az,az,,,,AzÉ™rbaycan dili,Azerbaijani
az,,,aze,,AzÉ™rbaycan dili,Azerbaijani
az,,aze,,,AzÉ™rbaycan dili,Azerbaijani
az,,,aze,,AzÉ™rbaycan dili,Azerbaijani
az,,aze,,,AzÉ™rbaycan dili,Azerbaijani
az,az,,,,AzÉ™rbaycan dili,Azerbaijani
azb,,,azb,,ØªÛ†Ø±Ú©Ø¬Ù‡,South Azerbaijani
azb,,,azb,,Ø¢Ø°Ø±Ø¨Ø§ÛŒØ¬Ø§Ù†Ø¬Ø§ (AzÉ™rbaycanca),South Azerbaijani
azb,,,azb,,Ø¢Ø°Ø±Ø¨Ø§ÛŒØ¬Ø§Ù† Ø¯ÛŒÙ„ÛŒ (AzÉ™rbaycan dili),South Azerbaijani
azb,,,azb,,ØªÛ†Ø±Ú©Ø¬Ù‡,South Azerbaijani
azb,,,azb,,Ø¢Ø°Ø±Ø¨Ø§ÛŒØ¬Ø§Ù†Ø¬Ø§ (AzÉ™rbaycanca),South Azerbaijani
azb,,,azb,,Ø¢Ø°Ø±Ø¨Ø§ÛŒØ¬Ø§Ù† Ø¯ÛŒÙ„ÛŒ (AzÉ™rbaycan dili),South Azerbaijani
ba,ba,,,,Ğ±Ğ°ÑˆÒ¡Ğ¾Ñ€Ñ‚ÑĞ°,Bashkir
ba,ba,,,,Ğ‘Ğ°ÑˆÒ¡Ğ¾Ñ€Ñ‚ Ñ‚ĞµĞ»Ğµ ( Ğ‘Ğ°ÑˆÒ¡ÑƒÑ€Ğ´ Ñ‚ĞµĞ»Ğµ),Bashkir
ba,,,bak,,Ğ±Ğ°ÑˆÒ¡Ğ¾Ñ€Ñ‚ÑĞ°,Bashkir
ba,,bak,,,Ğ±Ğ°ÑˆÒ¡Ğ¾Ñ€Ñ‚ÑĞ°,Bashkir
ba,,,bak,,Ğ‘Ğ°ÑˆÒ¡Ğ¾Ñ€Ñ‚ Ñ‚ĞµĞ»Ğµ ( Ğ‘Ğ°ÑˆÒ¡ÑƒÑ€Ğ´ Ñ‚ĞµĞ»Ğµ),Bashkir
ba,,bak,,,Ğ‘Ğ°ÑˆÒ¡Ğ¾Ñ€Ñ‚ Ñ‚ĞµĞ»Ğµ ( Ğ‘Ğ°ÑˆÒ¡ÑƒÑ€Ğ´ Ñ‚ĞµĞ»Ğµ),Bashkir
ba,ba,,,,Ğ±Ğ°ÑˆÒ¡Ğ¾Ñ€Ñ‚ÑĞ°,Bashkir
ba,ba,,,,Ğ‘Ğ°ÑˆÒ¡Ğ¾Ñ€Ñ‚ Ñ‚ĞµĞ»Ğµ ( Ğ‘Ğ°ÑˆÒ¡ÑƒÑ€Ğ´ Ñ‚ĞµĞ»Ğµ),Bashkir
ba,,,bak,,Ğ±Ğ°ÑˆÒ¡Ğ¾Ñ€Ñ‚ÑĞ°,Bashkir
ba,,bak,,,Ğ±Ğ°ÑˆÒ¡Ğ¾Ñ€Ñ‚ÑĞ°,Bashkir
ba,,,bak,,Ğ‘Ğ°ÑˆÒ¡Ğ¾Ñ€Ñ‚ Ñ‚ĞµĞ»Ğµ ( Ğ‘Ğ°ÑˆÒ¡ÑƒÑ€Ğ´ Ñ‚ĞµĞ»Ğµ),Bashkir
ba,,bak,,,Ğ‘Ğ°ÑˆÒ¡Ğ¾Ñ€Ñ‚ Ñ‚ĞµĞ»Ğµ ( Ğ‘Ğ°ÑˆÒ¡ÑƒÑ€Ğ´ Ñ‚ĞµĞ»Ğµ),Bashkir
ban,,,ban,,Basa Bali,Balinese
ban,,ban,,,Basa Bali,Balinese
ban,,,ban,,Basa Bali,Balinese
ban,,ban,,,Basa Bali,Balinese
bar,,,bar,,Boarisch,Bavarian
bar,,,bar,,Boarisch,Bavarian
bat-smg,,,sgs,,Å½emaitiu ruoda,Samogitian
bat-smg,,,sgs,,Å½emaitiu ruoda,Samogitian
bbc,,,bbc,,bahasa Batak Toba,Toba Batak
bbc,,,bbc,,bahasa Batak Toba,Toba Batak
bcc,,,bcc,,Ø¨Ù„ÙˆÚ†ÛŒ Ø²Ø¨Ø§Ù† (BalÅÄÄ« ZubÄn),Southern Balochi
bcc,,,bcc,,Ø¨Ù„ÙˆÚ†ÛŒ (BalÅÄÄ«),Southern Balochi
bcc,,,bcc,,Ø¨Ù„ÙˆÚ†ÛŒ Ø²Ø¨Ø§Ù† (BalÅÄÄ« ZubÄn),Southern Balochi
bcc,,,bcc,,Ø¨Ù„ÙˆÚ†ÛŒ (BalÅÄÄ«),Southern Balochi
bdr,,,bdr,,ling Sama,West Coast Bajau
bdr,,,bdr,,ling Sama,West Coast Bajau
be,,,bel,,Ğ±ĞµĞ»Ğ°Ñ€ÑƒÑĞºĞ°Ñ Ğ¼Ğ¾Ğ²Ğ°,Belarusian
be,be,,,,Ğ±ĞµĞ»Ğ°Ñ€ÑƒÑĞºĞ°Ñ Ğ¼Ğ¾Ğ²Ğ°,Belarusian
be,,bel,,,Ğ±ĞµĞ»Ğ°Ñ€ÑƒÑĞºĞ°Ñ Ğ¼Ğ¾Ğ²Ğ°,Belarusian
be,be,,,,Ğ±ĞµĞ»Ğ°Ñ€ÑƒÑĞºĞ°Ñ Ğ¼Ğ¾Ğ²Ğ°,Belarusian
be,,bel,,,Ğ±ĞµĞ»Ğ°Ñ€ÑƒÑĞºĞ°Ñ Ğ¼Ğ¾Ğ²Ğ°,Belarusian
be,,,bel,,Ğ±ĞµĞ»Ğ°Ñ€ÑƒÑĞºĞ°Ñ Ğ¼Ğ¾Ğ²Ğ°,Belarusian
bej,,,bej,,,Beja
bej,,bej,,,,Beja
bej,,bej,,,,Beja
bej,,,bej,,,Beja
bfi,,,bfi,,,British Sign Language
bfi,,,bfi,,,British Sign Language
bfq,,,bfq,,,Badaga
bfq,,,bfq,,,Badaga
bg,,bul,,,Ğ±ÑŠĞ»Ğ³Ğ°Ñ€ÑĞºĞ¸ ĞµĞ·Ğ¸Ğº,Bulgarian
bg,bg,,,,Ğ±ÑŠĞ»Ğ³Ğ°Ñ€ÑĞºĞ¸ ĞµĞ·Ğ¸Ğº,Bulgarian
bg,,,bul,,Ğ±ÑŠĞ»Ğ³Ğ°Ñ€ÑĞºĞ¸ ĞµĞ·Ğ¸Ğº,Bulgarian
bg,,bul,,,Ğ±ÑŠĞ»Ğ³Ğ°Ñ€ÑĞºĞ¸ ĞµĞ·Ğ¸Ğº,Bulgarian
bg,bg,,,,Ğ±ÑŠĞ»Ğ³Ğ°Ñ€ÑĞºĞ¸ ĞµĞ·Ğ¸Ğº,Bulgarian
bg,,,bul,,Ğ±ÑŠĞ»Ğ³Ğ°Ñ€ÑĞºĞ¸ ĞµĞ·Ğ¸Ğº,Bulgarian
bgn,,,bgn,,Ø¨Ù„ÙˆÚ†ÛŒ Ø²Ø¨Ø§Ù† (BalÅÄÄ« ZubÄn),Western Balochi
bgn,,,bgn,,Ø¨Ù„ÙˆÚ†ÛŒ (BalÅÄÄ«),Western Balochi
bh,,bho,,,à¤­à¥‹à¤œà¤ªà¥à¤°à¥€ (BhÅjpurÄ«),Bhojpuri
bh,,bho,,,à¤­à¥‹à¤œà¤ªà¥à¤°à¥€ à¤­à¤¾à¤·à¤¾,Bhojpuri
bh,,,bho,,à¤­à¥‹à¤œà¤ªà¥à¤°à¥€ (BhÅjpurÄ«),Bhojpuri
bh,,,bho,,à¤­à¥‹à¤œà¤ªà¥à¤°à¥€ à¤­à¤¾à¤·à¤¾,Bhojpuri
bh,,bho,,,à¤­à¥‹à¤œà¤ªà¥à¤°à¥€ (BhÅjpurÄ«),Bhojpuri
bh,,,bho,,à¤­à¥‹à¤œà¤ªà¥à¤°à¥€ (BhÅjpurÄ«),Bhojpuri
bh,,bho,,,à¤­à¥‹à¤œà¤ªà¥à¤°à¥€ à¤­à¤¾à¤·à¤¾,Bhojpuri
bh,,,bho,,à¤­à¥‹à¤œà¤ªà¥à¤°à¥€ à¤­à¤¾à¤·à¤¾,Bhojpuri
bi,,,bis,,Bislama,Bislama
bi,bi,,,,Bislama,Bislama
bi,,bis,,,Bislama,Bislama
bi,bi,,,,Bislama,Bislama
bi,,bis,,,Bislama,Bislama
bi,,,bis,,Bislama,Bislama
bi,,bis,,,Bislama,Bislama
bi,,,bis,,Bislama,Bislama
bi,bi,,,,Bislama,Bislama
bjn,,,bjn,,Ø¨Ù†Ø¬Ø± (Banjar),Banjar
bjn,,,bjn,,Bahasa Banjar,Banjar
bjn,,,bjn,,Ø¨Ù†Ø¬Ø± (Banjar),Banjar
bjn,,,bjn,,Bahasa Banjar,Banjar
bla,,bla,,,,Blackfoot
bla,,,bla,,,Blackfoot
bla,,bla,,,,Blackfoot
bla,,,bla,,,Blackfoot
bm,,,bam,,Bamanankan,Bambara
bm,bm,,,,Bamanankan,Bambara
bm,,bam,,,Bamanankan,Bambara
bm,bm,,,,Bamanankan,Bambara
bm,,bam,,,Bamanankan,Bambara
bm,,,bam,,Bamanankan,Bambara
bm,,bam,,,Bamanankan,Bambara
bm,,,bam,,Bamanankan,Bambara
bm,bm,,,,Bamanankan,Bambara
bn,,,ben,,à¦¬à¦¾à¦‚à¦²à¦¾,Bengali
bn,bn,,,,à¦¬à¦¾à¦‚à¦²à¦¾,Bengali
bn,,ben,,,à¦¬à¦¾à¦‚à¦²à¦¾,Bengali
bn,bn,,,,à¦¬à¦¾à¦‚à¦²à¦¾,Bengali
bn,,ben,,,à¦¬à¦¾à¦‚à¦²à¦¾,Bengali
bn,,,ben,,à¦¬à¦¾à¦‚à¦²à¦¾,Bengali
bnn,,,bnn,,Bunun,Bunun
bnn,,,bnn,,Bunun,Bunun
bo,,,bod,,à½£à¾·à¼‹à½¦à½ à½²à¼‹à½¦à¾à½‘,Tibetan
bo,bo,,,,à½£à¾·à¼‹à½¦à½ à½²à¼‹à½¦à¾à½‘,Tibetan
bo,,bod,,,à½£à¾·à¼‹à½¦à½ à½²à¼‹à½¦à¾à½‘,Tibetan
bo,,tib,,,à½£à¾·à¼‹à½¦à½ à½²à¼‹à½¦à¾à½‘,Tibetan
bo,bo,,,,à½£à¾·à¼‹à½¦à½ à½²à¼‹à½¦à¾à½‘,Tibetan
bo,,bod,,,à½£à¾·à¼‹à½¦à½ à½²à¼‹à½¦à¾à½‘,Tibetan
bo,,tib,,,à½£à¾·à¼‹à½¦à½ à½²à¼‹à½¦à¾à½‘,Tibetan
bo,,,bod,,à½£à¾·à¼‹à½¦à½ à½²à¼‹à½¦à¾à½‘,Tibetan
bpy,,,bpy,,à¦¬à¦¿à¦·à§à¦£à§à¦ªà§à¦°à¦¿à¦¯à¦¼à¦¾ à¦®à¦£à¦¿à¦ªà§à¦°à§€,Bishnupriya Manipuri
bpy,,,bpy,,à¦‡à¦®à¦¾à¦° à¦ à¦¾à¦°,Bishnupriya Manipuri
bpy,,,bpy,,à¦¬à¦¿à¦·à§à¦£à§à¦ªà§à¦°à¦¿à¦¯à¦¼à¦¾ à¦®à¦£à¦¿à¦ªà§à¦°à§€,Bishnupriya Manipuri
bpy,,,bpy,,à¦‡à¦®à¦¾à¦° à¦ à¦¾à¦°,Bishnupriya Manipuri
bpy,,,bpy,,à¦¬à¦¿à¦·à§à¦£à§à¦ªà§à¦°à¦¿à¦¯à¦¼à¦¾ à¦®à¦£à¦¿à¦ªà§à¦°à§€,Bishnupriya Manipuri
bpy,,,bpy,,à¦‡à¦®à¦¾à¦° à¦ à¦¾à¦°,Bishnupriya Manipuri
bqi,,,bqi,,Ø²ÙˆÙ† Ø¨ÙØ®ØªÛŒØ§Ø±ÛŒ,Bakhtiari
bqi,,,bqi,,Ø¨Ø®ØªÛŒØ§Ø±ÛŒ (BakhtiÃ¢ri),Bakhtiari
br,br,,,,Brezhoneg,Breton
br,,,bre,,Brezhoneg,Breton
br,br,,,,brezhoneg,Breton
br,,,bre,,brezhoneg,Breton
br,,bre,,,Brezhoneg,Breton
br,,bre,,,brezhoneg,Breton
br,,bre,,,Brezhoneg,Breton
br,,bre,,,brezhoneg,Breton
br,br,,,,Brezhoneg,Breton
br,br,,,,brezhoneg,Breton
br,,,bre,,Brezhoneg,Breton
br,,,bre,,brezhoneg,Breton
brh,,,brh,,Ø¨Ø±Ø§ÛÙˆØ¦ÛŒ (brÄhÅ«Ê¾Ä«),Brahui
brh,,,brh,,Ø¨Ø±Ø§ÛÙˆØ¦ÛŒ (brÄhÅ«Ê¾Ä«),Brahui
brx,,,brx,,à¤¬à¥‹à¤¡à¥‹ à¤­à¤¾à¤·à¤¾ (boá¸o bÊ°Äá¹£Ä),Bodo
brx,,,brx,,à¤¬à¥‹à¤¡à¥‹ (boá¸o),Bodo
brx,,,brx,,à¤¬à¥‹à¤¡à¥‹ à¤­à¤¾à¤·à¤¾ (boá¸o bÊ°Äá¹£Ä),Bodo
brx,,,brx,,à¤¬à¥‹à¤¡à¥‹ (boá¸o),Bodo
bs,bs,,,,Bosanski jezik,Bosnian
bs,,,bos,,Bosanski jezik,Bosnian
bs,,bos,,,Bosanski jezik,Bosnian
bs,,bos,,,Bosanski jezik,Bosnian
bs,bs,,,,Bosanski jezik,Bosnian
bs,,,bos,,Bosanski jezik,Bosnian
bsk,,,bsk,,,Burushaski
bsk,,,bsk,,,Burushaski
bsk,,,bsk,,,Burushaski
bss,,,bss,,,Kose
bss,,,bss,,,Kose
btm,,,btm,,,Mandailing
btm,,,btm,,,Mandailing
bto,,,bto,,,Rinconada Bikol
bto,,,bto,,,Rinconada Bikol
bug,,,bug,,á¨…á¨—á¨Œá¨‘ á¨•á¨˜á¨á¨—,Buginese
bug,,,bug,,Basa Ugi,Buginese
bug,,bug,,,á¨…á¨—á¨Œá¨‘ á¨•á¨˜á¨á¨—,Buginese
bug,,bug,,,Basa Ugi,Buginese
bug,,bug,,,á¨…á¨—á¨Œá¨‘ á¨•á¨˜á¨á¨—,Buginese
bug,,bug,,,Basa Ugi,Buginese
bug,,,bug,,á¨…á¨—á¨Œá¨‘ á¨•á¨˜á¨á¨—,Buginese
bug,,,bug,,Basa Ugi,Buginese
bxr,,,bua,,Ğ‘ÑƒÑ€ÑĞ°Ğ´ Ñ…ÑĞ»ÑĞ½,Buryat
bxr,,bua,,,Ğ‘ÑƒÑ€ÑĞ°Ğ´ Ñ…ÑĞ»ÑĞ½,Buryat
bxr,,bua,,,Ğ‘ÑƒÑ€ÑĞ°Ğ´ Ñ…ÑĞ»ÑĞ½,Buryat
bxr,,,bua,,Ğ‘ÑƒÑ€ÑĞ°Ğ´ Ñ…ÑĞ»ÑĞ½,Buryat
bxr,,,bua,,Ğ‘ÑƒÑ€ÑĞ°Ğ´ Ñ…ÑĞ»ÑĞ½,Buryat
bxr,,bua,,,Ğ‘ÑƒÑ€ÑĞ°Ğ´ Ñ…ÑĞ»ÑĞ½,Buryat
bxr,,,bxr,,,Russia Buriat
bxr,,,bxr,,,Russia Buriat
byq,,,byq,,,Basay
byq,,,byq,,,Basay
byq,,,byq,,,Basay
bzg,,,bzg,,,Babuza
bzg,,,bzg,,,Babuza
bzg,,,bzg,,,Babuza
bzg,,,bzg,,,Babuza
bzs,,,bzs,,,Brazilian Sign Language
bzs,,,bzs,,,Brazilian Sign Language
bzs,,,bzs,,,Brazilian Sign Language
ca,ca,,,,catalÃ ,Catalan
ca,,,cat,,catalÃ ,Catalan
ca,,,,iren,catalÃ ,Catalan
ca,,cat,,,catalÃ ,Catalan
ca,,cat,,,catalÃ ,Catalan
ca,ca,,,,catalÃ ,Catalan
ca,,,cat,,catalÃ ,Catalan
ca,,,,iren,catalÃ ,Catalan
cak,,,cak,,,Kaqchikel
cak,,,cak,,,Kaqchikel
cal,,,cal,,Refaluwasch,Carolinian
cal,,,cal,,Refaluwasch,Carolinian
cbk-zam,,,cbk,,Chavacano,Chavacano
cbk-zam,,,cbk,,Chabacano,Chavacano
cbk-zam,,,cbk,,Chavacano,Chavacano
cbk-zam,,,cbk,,Chabacano,Chavacano
cbk-zam,,,cbk,,Chavacano,Chavacano
cbk-zam,,,cbk,,Chabacano,Chavacano
ccp,,,ccp,,Changmha Bhach,Chakma
ccp,,,ccp,,ğ‘„Œğ‘„‹ğ‘„´ğ‘„Ÿğ‘„³ğ‘„¦ ğ‘„ğ‘„Œğ‘„´,Chakma
ccp,,,ccp,,Changmha Bhach,Chakma
ccp,,,ccp,,ğ‘„Œğ‘„‹ğ‘„´ğ‘„Ÿğ‘„³ğ‘„¦ ğ‘„ğ‘„Œğ‘„´,Chakma
cdo,,,cdo,,é—½ä¸œè¯,Min Dong
cdo,,,cdo,,é–©æ±èª,Min Dong
cdo,,,cdo,,é–©æ±è©±,Min Dong
cdo,,,cdo,,å¹³è©±,Min Dong
cdo,,,cdo,,MÃ¬ng-dÄ•Ì¤ng-uÃ¢,Min Dong
cdo,,,cdo,,MÃ¬ng-dÄ•Ì¤ng-ngá¹³Ì„,Min Dong
cdo,,,cdo,,BÃ ng-uÃ¢,Min Dong
cdo,,,cdo,,é—½ä¸œè¯,Min Dong
cdo,,,cdo,,é–©æ±èª,Min Dong
cdo,,,cdo,,é–©æ±è©±,Min Dong
cdo,,,cdo,,å¹³è©±,Min Dong
cdo,,,cdo,,MÃ¬ng-dÄ•Ì¤ng-uÃ¢,Min Dong
cdo,,,cdo,,MÃ¬ng-dÄ•Ì¤ng-ngá¹³Ì„,Min Dong
cdo,,,cdo,,BÃ ng-uÃ¢,Min Dong
ce,ce,,,,ĞĞ¾Ñ…Ñ‡Ğ¸Ğ¹Ğ½ Ğ¼Ğ¾Ñ‚Ñ‚,Chechen
ce,,,che,,ĞĞ¾Ñ…Ñ‡Ğ¸Ğ¹Ğ½ Ğ¼Ğ¾Ñ‚Ñ‚,Chechen
ce,ce,,,,NoxÃ§iyn mott,Chechen
ce,,,che,,NoxÃ§iyn mott,Chechen
ce,,che,,,ĞĞ¾Ñ…Ñ‡Ğ¸Ğ¹Ğ½ Ğ¼Ğ¾Ñ‚Ñ‚,Chechen
ce,,che,,,NoxÃ§iyn mott,Chechen
ce,,che,,,ĞĞ¾Ñ…Ñ‡Ğ¸Ğ¹Ğ½ Ğ¼Ğ¾Ñ‚Ñ‚,Chechen
ce,,che,,,NoxÃ§iyn mott,Chechen
ce,ce,,,,ĞĞ¾Ñ…Ñ‡Ğ¸Ğ¹Ğ½ Ğ¼Ğ¾Ñ‚Ñ‚,Chechen
ce,ce,,,,NoxÃ§iyn mott,Chechen
ce,,,che,,ĞĞ¾Ñ…Ñ‡Ğ¸Ğ¹Ğ½ Ğ¼Ğ¾Ñ‚Ñ‚,Chechen
ce,,,che,,NoxÃ§iyn mott,Chechen
ce,ce,,,,ĞĞ¾Ñ…Ñ‡Ğ¸Ğ¹Ğ½ Ğ¼Ğ¾Ñ‚Ñ‚,Chechen
ce,,,che,,ĞĞ¾Ñ…Ñ‡Ğ¸Ğ¹Ğ½ Ğ¼Ğ¾Ñ‚Ñ‚,Chechen
ce,,che,,,ĞĞ¾Ñ…Ñ‡Ğ¸Ğ¹Ğ½ Ğ¼Ğ¾Ñ‚Ñ‚,Chechen
ce,ce,,,,NoxÃ§iyn mott,Chechen
ce,,,che,,NoxÃ§iyn mott,Chechen
ce,,che,,,NoxÃ§iyn mott,Chechen
ceb,,,ceb,,Sinugboanon,Cebuano
ceb,,,ceb,,Binisaya,Cebuano
ceb,,ceb,,,Sinugboanon,Cebuano
ceb,,ceb,,,Binisaya,Cebuano
ceb,,ceb,,,Sinugboanon,Cebuano
ceb,,ceb,,,Binisaya,Cebuano
ceb,,,ceb,,Sinugboanon,Cebuano
ceb,,,ceb,,Binisaya,Cebuano
ch,ch,,,,Chamorru,Chamorro
ch,,,cha,,Chamorru,Chamorro
ch,ch,,,,Chamorro,Chamorro
ch,,,cha,,Chamorro,Chamorro
ch,,cha,,,Chamorru,Chamorro
ch,,cha,,,Chamorro,Chamorro
ch,,cha,,,Chamorru,Chamorro
ch,,cha,,,Chamorro,Chamorro
ch,ch,,,,Chamorru,Chamorro
ch,ch,,,,Chamorro,Chamorro
ch,,,cha,,Chamorru,Chamorro
ch,,,cha,,Chamorro,Chamorro
chn,,,chn,,Chinuk Wawa,Chinook Jargon
chn,,chn,,,Chinuk Wawa,Chinook Jargon
chn,,,chn,,Chinuk Wawa,Chinook Jargon
chn,,chn,,,Chinuk Wawa,Chinook Jargon
chn,,,chn,,Chinuk Wawa,Chinook Jargon
chn,,chn,,,Chinuk Wawa,Chinook Jargon
cho,,,cho,,"Chahta, Chahta Anumpa",Choctaw
cho,,,cho,,Chahta Anumpa,Choctaw
cho,,cho,,,"Chahta, Chahta Anumpa",Choctaw
cho,,cho,,,Chahta Anumpa,Choctaw
cho,,,cho,,"Chahta, Chahta Anumpa",Choctaw
cho,,cho,,,"Chahta, Chahta Anumpa",Choctaw
cho,,,cho,,Chahta Anumpa,Choctaw
cho,,cho,,,Chahta Anumpa,Choctaw
chr,,,chr,,á£á³á© á§á¬á‚á¯áá—,Cherokee
chr,,,chr,,Tsalagi,Cherokee
chr,,chr,,,á£á³á© á§á¬á‚á¯áá—,Cherokee
chr,,chr,,,Tsalagi,Cherokee
chr,,chr,,,á£á³á© á§á¬á‚á¯áá—,Cherokee
chr,,chr,,,Tsalagi,Cherokee
chr,,,chr,,á£á³á© á§á¬á‚á¯áá—,Cherokee
chr,,,chr,,Tsalagi,Cherokee
chr,,,chr,,á£á³á© á§á¬á‚á¯áá—,Cherokee
chr,,chr,,,á£á³á© á§á¬á‚á¯áá—,Cherokee
chr,,,chr,,á£á³á© á§á¬á‚á¯áá—,Cherokee
chr,,chr,,,á£á³á© á§á¬á‚á¯áá—,Cherokee
chr,,,chr,,Tsalagi,Cherokee
chr,,chr,,,Tsalagi,Cherokee
chr,,,chr,,Tsalagi,Cherokee
chr,,chr,,,Tsalagi,Cherokee
chy,,,chy,,TsÃªhesenÃªstsestÃ´tse,Cheyenne
chy,,chy,,,TsÃªhesenÃªstsestÃ´tse,Cheyenne
chy,,chy,,,TsÃªhesenÃªstsestÃ´tse,Cheyenne
chy,,,chy,,TsÃªhesenÃªstsestÃ´tse,Cheyenne
ckb,,,ckb,,Ú©ÙˆØ±Ø¯ÛŒÛŒ Ù†Ø§ÙˆÛ•Ù†Ø¯ÛŒ,Sorani
ckb,,,ckb,,Ø³Û†Ø±Ø§Ù†ÛŒ,Sorani
ckb,,,ckb,,Ú©ÙˆØ±Ø¯ÛŒ,Sorani
ckb,,,ckb,,Ú©ÙˆØ±Ø¯ÛŒÛŒ Ù†Ø§ÙˆÛ•Ù†Ø¯ÛŒ,Sorani
ckb,,,ckb,,Ø³Û†Ø±Ø§Ù†ÛŒ,Sorani
ckb,,,ckb,,Ú©ÙˆØ±Ø¯ÛŒ,Sorani
ckt,,,ckt,,Ô’Ñ‹Ğ³ÑŠĞ¾Ñ€Ğ°Ğ²ÑÑ‚Ô“ÑŒÑĞ½ Ğ¹Ğ¸Ô“Ñ‹Ğ¹Ğ¸Ô“,Chukchi
ckt,,,ckt,,Ô’Ñ‹Ğ³ÑŠĞ¾Ñ€Ğ°Ğ²ÑÑ‚Ô“ÑŒÑĞ½ Ğ¹Ğ¸Ô“Ñ‹Ğ¹Ğ¸Ô“,Chukchi
ckv,,,ckv,,,Kavalan
ckv,,,ckv,,,Kavalan
clc,,,clc,,TÅinlhqutâ€™in,Chilcotin
clc,,,clc,,TÅinlhqutâ€™in,Chilcotin
cnh,,,cnh,,,Hakha-Chin
cnh,,,cnh,,,Hakha-Chin
cnr,,,cnr,,crnogorski,Montenegrin
cnr,,cnr,,,crnogorski,Montenegrin
cnr,,,cnr,,crnogorski,Montenegrin
cnr,,cnr,,,crnogorski,Montenegrin
co,,cos,,,Lingua corsa,Corsican
co,,,cos,,Lingua corsa,Corsican
co,,cos,,,Corsu,Corsican
co,,,cos,,Corsu,Corsican
co,,,cos,,Lingua corsa,Corsican
co,,,cos,,Corsu,Corsican
co,co,,,,Lingua corsa,Corsican
co,co,,,,Corsu,Corsican
co,,cos,,,Lingua corsa,Corsican
co,,cos,,,Corsu,Corsican
co,co,,,,Lingua corsa,Corsican
co,co,,,,Corsu,Corsican
cop,,,cop,,Ï¯â²™â²‰â²§â²£â²‰â²™â²›Ì€â²­â²â²™â²“,Coptic
cop,,cop,,,Ï¯â²™â²‰â²§â²£â²‰â²™â²›Ì€â²­â²â²™â²“,Coptic
cop,,,cop,,â²§â²™â²›Ì„â²§â²£â²™Ì„â²›Ì„â²•â²â²™â²‰,Coptic
cop,,cop,,,â²§â²™â²›Ì„â²§â²£â²™Ì„â²›Ì„â²•â²â²™â²‰,Coptic
cop,,,cop,,Ï¯â²™â²‰â²§â²£â²‰â²™â²›Ì€â²­â²â²™â²“,Coptic
cop,,,cop,,â²§â²™â²›Ì„â²§â²£â²™Ì„â²›Ì„â²•â²â²™â²‰,Coptic
cop,,cop,,,Ï¯â²™â²‰â²§â²£â²‰â²™â²›Ì€â²­â²â²™â²“,Coptic
cop,,cop,,,â²§â²™â²›Ì„â²§â²£â²™Ì„â²›Ì„â²•â²â²™â²‰,Coptic
cop,,,cop,,Ï¯â²™â²‰â²§â²£â²‰â²™â²›Ì€â²­â²â²™â²“,Coptic
cop,,cop,,,Ï¯â²™â²‰â²§â²£â²‰â²™â²›Ì€â²­â²â²™â²“,Coptic
cop,,,cop,,â²§â²™â²›Ì„â²§â²£â²™Ì„â²›Ì„â²•â²â²™â²‰,Coptic
cop,,cop,,,â²§â²™â²›Ì„â²§â²£â²™Ì„â²›Ì„â²•â²â²™â²‰,Coptic
cop,,,cop,,Ï¯â²™â²‰â²§â²£â²‰â²™â²›Ì€â²­â²â²™â²“,Coptic
cop,,cop,,,Ï¯â²™â²‰â²§â²£â²‰â²™â²›Ì€â²­â²â²™â²“,Coptic
cop,,,cop,,â²§â²™â²›Ì„â²§â²£â²™Ì„â²›Ì„â²•â²â²™â²‰,Coptic
cop,,cop,,,â²§â²™â²›Ì„â²§â²£â²™Ì„â²›Ì„â²•â²â²™â²‰,Coptic
cps,,,cps,,BinisayÃ¢,Capiznon
cps,,,cps,,Kinapisenyo,Capiznon
cps,,,cps,,Kinapisano,Capiznon
cps,,,cps,,Kinapisnon,Capiznon
cps,,,cps,,BinisayÃ¢,Capiznon
cps,,,cps,,Kinapisenyo,Capiznon
cps,,,cps,,Kinapisano,Capiznon
cps,,,cps,,Kinapisnon,Capiznon
cpx,,,cpx,,,Pu-Xian Min
cpx,,,cpx,,,Pu-Xian Min
cr,,cre,,,áƒá”¨á”¨á¤ áŠá”¨á’§áá“',Cree
cr,,,cre,,áƒá”¨á”¨á¤ áŠá”¨á’§áá“',Cree
cr,cr,,,,áƒá”¨á”¨á¤ áŠá”¨á’§áá“',Cree
cr,,,cre,,áƒá”¨á”¨á¤ áŠá”¨á’§áá“',Cree
cr,,cre,,,áƒá”¨á”¨á¤ áŠá”¨á’§áá“',Cree
cr,cr,,,,áƒá”¨á”¨á¤ áŠá”¨á’§áá“',Cree
cr,,cre,,,áƒá”¨á”¨á¤ áŠá”¨á’§áá“',Cree
cr,,,cre,,áƒá”¨á”¨á¤ áŠá”¨á’§áá“',Cree
cr,cr,,,,áƒá”¨á”¨á¤ áŠá”¨á’§áá“',Cree
crh,,crh,,,QÄ±rÄ±mtatar tili,Crimean Tatar
crh,,crh,,,QÄ±rÄ±m tili,Crimean Tatar
crh,,crh,,,ĞšÑŠÑ‹Ñ€Ñ‹Ğ¼Ñ‚Ğ°Ñ‚Ğ°Ñ€ Ñ‚Ğ¸Ğ»Ğ¸,Crimean Tatar
crh,,crh,,,ĞšÑŠÑ‹Ñ€Ñ‹Ğ¼ Ñ‚Ğ¸Ğ»Ğ¸,Crimean Tatar
crh,,crh,,,Qirimtatar,Crimean Tatar
crh,,crh,,,Qirim,Crimean Tatar
crh,,,crh,,QÄ±rÄ±mtatar tili,Crimean Tatar
crh,,,crh,,QÄ±rÄ±m tili,Crimean Tatar
crh,,,crh,,ĞšÑŠÑ‹Ñ€Ñ‹Ğ¼Ñ‚Ğ°Ñ‚Ğ°Ñ€ Ñ‚Ğ¸Ğ»Ğ¸,Crimean Tatar
crh,,,crh,,ĞšÑŠÑ‹Ñ€Ñ‹Ğ¼ Ñ‚Ğ¸Ğ»Ğ¸,Crimean Tatar
crh,,,crh,,Qirimtatar,Crimean Tatar
crh,,,crh,,Qirim,Crimean Tatar
crh,,crh,,,QÄ±rÄ±mtatar tili,Crimean Tatar
crh,,,crh,,QÄ±rÄ±mtatar tili,Crimean Tatar
crh,,crh,,,QÄ±rÄ±m tili,Crimean Tatar
crh,,,crh,,QÄ±rÄ±m tili,Crimean Tatar
crh,,crh,,,ĞšÑŠÑ‹Ñ€Ñ‹Ğ¼Ñ‚Ğ°Ñ‚Ğ°Ñ€ Ñ‚Ğ¸Ğ»Ğ¸,Crimean Tatar
crh,,,crh,,ĞšÑŠÑ‹Ñ€Ñ‹Ğ¼Ñ‚Ğ°Ñ‚Ğ°Ñ€ Ñ‚Ğ¸Ğ»Ğ¸,Crimean Tatar
crh,,crh,,,ĞšÑŠÑ‹Ñ€Ñ‹Ğ¼ Ñ‚Ğ¸Ğ»Ğ¸,Crimean Tatar
crh,,,crh,,ĞšÑŠÑ‹Ñ€Ñ‹Ğ¼ Ñ‚Ğ¸Ğ»Ğ¸,Crimean Tatar
crh,,crh,,,Qirimtatar,Crimean Tatar
crh,,,crh,,Qirimtatar,Crimean Tatar
crh,,crh,,,Qirim,Crimean Tatar
crh,,,crh,,Qirim,Crimean Tatar
crl,,,crl,,,Northern East Cree
crl,,,crl,,,Northern East Cree
crs,,,crs,,,Seychellois Creole
crs,,,crs,,,Seychellois Creole
crs,,,crs,,,Seychellois Creole
cs,,,ces,,ÄeÅ¡tina,Czech
cs,,,ces,,ÄeskÃ½ jazyk,Czech
cs,,ces,,,ÄeÅ¡tina,Czech
cs,,cze,,,ÄeÅ¡tina,Czech
cs,,ces,,,ÄeskÃ½ jazyk,Czech
cs,,cze,,,ÄeskÃ½ jazyk,Czech
cs,,,ces,,ÄeÅ¡tina,Czech
cs,,,ces,,ÄeskÃ½ jazyk,Czech
cs,cs,,,,ÄeÅ¡tina,Czech
cs,cs,,,,ÄeskÃ½ jazyk,Czech
cs,,ces,,,ÄeÅ¡tina,Czech
cs,,cze,,,ÄeÅ¡tina,Czech
cs,,ces,,,ÄeskÃ½ jazyk,Czech
cs,,cze,,,ÄeskÃ½ jazyk,Czech
cs,cs,,,,ÄeÅ¡tina,Czech
cs,cs,,,,ÄeskÃ½ jazyk,Czech
csb,,csb,,,KaszÃ«bskÃ´ mÃ²wa,Kashubian
csb,,,csb,,KaszÃ«bskÃ´ mÃ²wa,Kashubian
csb,,csb,,,KaszÃ«bsczi jÃ£zÃ«k,Kashubian
csb,,,csb,,KaszÃ«bsczi jÃ£zÃ«k,Kashubian
csb,,,csb,,KaszÃ«bskÃ´ mÃ²wa,Kashubian
csb,,,csb,,KaszÃ«bsczi jÃ£zÃ«k,Kashubian
csb,,csb,,,KaszÃ«bskÃ´ mÃ²wa,Kashubian
csb,,csb,,,KaszÃ«bsczi jÃ£zÃ«k,Kashubian
ctg,,,ctg,,,Chittagonian
ctg,,,ctg,,,Chittagonian
cu,,chu,,,Ğ¡Ğ»Ğ¾Ğ²Ñ£Ğ½ÑŒÑĞºÑŠ,Church Slavonic
cu,,,chu,,Ğ¡Ğ»Ğ¾Ğ²Ñ£Ğ½ÑŒÑĞºÑŠ,Church Slavonic
cu,cu,,,,Ğ¡Ğ»Ğ¾Ğ²Ñ£Ğ½ÑŒÑĞºÑŠ,Church Slavonic
cu,,chu,,,Ğ¡Ğ»Ğ¾Ğ²Ñ£Ğ½ÑŒÑĞºÑŠ,Church Slavonic
cu,,,chu,,Ğ¡Ğ»Ğ¾Ğ²Ñ£Ğ½ÑŒÑĞºÑŠ,Church Slavonic
cu,cu,,,,Ğ¡Ğ»Ğ¾Ğ²Ñ£Ğ½ÑŒÑĞºÑŠ,Church Slavonic
cu,,chu,,,ÑĞ»Ğ¾Ğ²ĞµĞ½ÑĞºÑ—Ğ¹ Ñ§Ò†Ğ·Ñ‹ĞºÑŠ,Church Slavonic
cu,,,chu,,ÑĞ»Ğ¾Ğ²ĞµĞ½ÑĞºÑ—Ğ¹ Ñ§Ò†Ğ·Ñ‹ĞºÑŠ,Church Slavonic
cu,cu,,,,ÑĞ»Ğ¾Ğ²ĞµĞ½ÑĞºÑ—Ğ¹ Ñ§Ò†Ğ·Ñ‹ĞºÑŠ,Church Slavonic
cu,,chu,,,ÑĞ»Ğ¾Ğ²ĞµĞ½ÑĞºÑ—Ğ¹ Ñ§Ò†Ğ·Ñ‹ĞºÑŠ,Church Slavonic
cu,,,chu,,ÑĞ»Ğ¾Ğ²ĞµĞ½ÑĞºÑ—Ğ¹ Ñ§Ò†Ğ·Ñ‹ĞºÑŠ,Church Slavonic
cu,cu,,,,ÑĞ»Ğ¾Ğ²ĞµĞ½ÑĞºÑ—Ğ¹ Ñ§Ò†Ğ·Ñ‹ĞºÑŠ,Church Slavonic
cu,,chu,,,Ğ¡Ğ»Ğ¾Ğ²Ñ£Ğ½ÑŒÑĞºÑŠ,Church Slavonic
cu,,,chu,,Ğ¡Ğ»Ğ¾Ğ²Ñ£Ğ½ÑŒÑĞºÑŠ,Church Slavonic
cu,cu,,,,Ğ¡Ğ»Ğ¾Ğ²Ñ£Ğ½ÑŒÑĞºÑŠ,Church Slavonic
cu,,chu,,,ÑĞ»Ğ¾Ğ²ĞµĞ½ÑĞºÑ—Ğ¹ Ñ§Ò†Ğ·Ñ‹ĞºÑŠ,Church Slavonic
cu,,,chu,,ÑĞ»Ğ¾Ğ²ĞµĞ½ÑĞºÑ—Ğ¹ Ñ§Ò†Ğ·Ñ‹ĞºÑŠ,Church Slavonic
cu,cu,,,,ÑĞ»Ğ¾Ğ²ĞµĞ½ÑĞºÑ—Ğ¹ Ñ§Ò†Ğ·Ñ‹ĞºÑŠ,Church Slavonic
cu,,chu,,,Ğ¡Ğ»Ğ¾Ğ²Ñ£Ğ½ÑŒÑĞºÑŠ,Church Slavonic
cu,,,chu,,Ğ¡Ğ»Ğ¾Ğ²Ñ£Ğ½ÑŒÑĞºÑŠ,Church Slavonic
cu,cu,,,,Ğ¡Ğ»Ğ¾Ğ²Ñ£Ğ½ÑŒÑĞºÑŠ,Church Slavonic
cu,,chu,,,ÑĞ»Ğ¾Ğ²ĞµĞ½ÑĞºÑ—Ğ¹ Ñ§Ò†Ğ·Ñ‹ĞºÑŠ,Church Slavonic
cu,,,chu,,ÑĞ»Ğ¾Ğ²ĞµĞ½ÑĞºÑ—Ğ¹ Ñ§Ò†Ğ·Ñ‹ĞºÑŠ,Church Slavonic
cu,cu,,,,ÑĞ»Ğ¾Ğ²ĞµĞ½ÑĞºÑ—Ğ¹ Ñ§Ò†Ğ·Ñ‹ĞºÑŠ,Church Slavonic
cu,,chu,,,Ğ¡Ğ»Ğ¾Ğ²Ñ£Ğ½ÑŒÑĞºÑŠ Ñ©ê™ê™‘ĞºÑŠ,Old Church Slavonic
cu,,,chu,,Ğ¡Ğ»Ğ¾Ğ²Ñ£Ğ½ÑŒÑĞºÑŠ Ñ©ê™ê™‘ĞºÑŠ,Old Church Slavonic
cu,cu,,,,Ğ¡Ğ»Ğ¾Ğ²Ñ£Ğ½ÑŒÑĞºÑŠ Ñ©ê™ê™‘ĞºÑŠ,Old Church Slavonic
cu,,chu,,,Ğ¡Ğ»Ğ¾Ğ²Ñ£Ğ½ÑŒÑĞºÑŠ,Old Church Slavonic
cu,,,chu,,Ğ¡Ğ»Ğ¾Ğ²Ñ£Ğ½ÑŒÑĞºÑŠ,Old Church Slavonic
cu,cu,,,,Ğ¡Ğ»Ğ¾Ğ²Ñ£Ğ½ÑŒÑĞºÑŠ,Old Church Slavonic
cu,,chu,,,Ğ¡Ğ»Ğ¾Ğ²Ñ£Ğ½ÑŒÑĞºÑŠ Ñ©ê™ê™‘ĞºÑŠ,Old Church Slavonic
cu,,,chu,,Ğ¡Ğ»Ğ¾Ğ²Ñ£Ğ½ÑŒÑĞºÑŠ Ñ©ê™ê™‘ĞºÑŠ,Old Church Slavonic
cu,cu,,,,Ğ¡Ğ»Ğ¾Ğ²Ñ£Ğ½ÑŒÑĞºÑŠ Ñ©ê™ê™‘ĞºÑŠ,Old Church Slavonic
cu,,chu,,,Ğ¡Ğ»Ğ¾Ğ²Ñ£Ğ½ÑŒÑĞºÑŠ,Old Church Slavonic
cu,,,chu,,Ğ¡Ğ»Ğ¾Ğ²Ñ£Ğ½ÑŒÑĞºÑŠ,Old Church Slavonic
cu,cu,,,,Ğ¡Ğ»Ğ¾Ğ²Ñ£Ğ½ÑŒÑĞºÑŠ,Old Church Slavonic
cu,,chu,,,Ğ¡Ğ»Ğ¾Ğ²Ñ£Ğ½ÑŒÑĞºÑŠ Ñ©ê™ê™‘ĞºÑŠ,Old Church Slavonic
cu,,,chu,,Ğ¡Ğ»Ğ¾Ğ²Ñ£Ğ½ÑŒÑĞºÑŠ Ñ©ê™ê™‘ĞºÑŠ,Old Church Slavonic
cu,cu,,,,Ğ¡Ğ»Ğ¾Ğ²Ñ£Ğ½ÑŒÑĞºÑŠ Ñ©ê™ê™‘ĞºÑŠ,Old Church Slavonic
cu,,chu,,,Ğ¡Ğ»Ğ¾Ğ²Ñ£Ğ½ÑŒÑĞºÑŠ,Old Church Slavonic
cu,,,chu,,Ğ¡Ğ»Ğ¾Ğ²Ñ£Ğ½ÑŒÑĞºÑŠ,Old Church Slavonic
cu,cu,,,,Ğ¡Ğ»Ğ¾Ğ²Ñ£Ğ½ÑŒÑĞºÑŠ,Old Church Slavonic
cv,,chv,,,Ğ§ÄƒĞ²Ğ°Ñˆ Ñ‡Ä•Ğ»Ñ…Ğ¸,Chuvash
cv,,,chv,,Ğ§ÄƒĞ²Ğ°Ñˆ Ñ‡Ä•Ğ»Ñ…Ğ¸,Chuvash
cv,cv,,,,Ğ§ÄƒĞ²Ğ°Ñˆ Ñ‡Ä•Ğ»Ñ…Ğ¸,Chuvash
cv,,,chv,,Ğ§ÄƒĞ²Ğ°Ñˆ Ñ‡Ä•Ğ»Ñ…Ğ¸,Chuvash
cv,,chv,,,Ğ§ÄƒĞ²Ğ°Ñˆ Ñ‡Ä•Ğ»Ñ…Ğ¸,Chuvash
cv,cv,,,,Ğ§ÄƒĞ²Ğ°Ñˆ Ñ‡Ä•Ğ»Ñ…Ğ¸,Chuvash
cy,,wel,,,Cymraeg,Welsh
cy,,,cym,,Cymraeg,Welsh
cy,,cym,,,Cymraeg,Welsh
cy,,,cym,,Cymraeg,Welsh
cy,cy,,,,Cymraeg,Welsh
cy,,cym,,,Cymraeg,Welsh
cy,,wel,,,Cymraeg,Welsh
cy,cy,,,,Cymraeg,Welsh
da,,,dan,,Dansk,Danish
da,,dan,,,Dansk,Danish
da,,,dan,,Dansk,Danish
da,da,,,,Dansk,Danish
da,,dan,,,Dansk,Danish
da,da,,,,Dansk,Danish
dag,,,dag,,Dagbanli,Dagbani
dag,,,dag,,Dagbanli,Dagbani
dag,,,dag,,Dagbanli,Dagbani
dar,,,dar,,Ğ´Ğ°Ñ€Ğ³Ğ°Ğ½ Ğ¼ĞµĞ·,Dargwa
dar,,dar,,,Ğ´Ğ°Ñ€Ğ³Ğ°Ğ½ Ğ¼ĞµĞ·,Dargwa
dar,,,dar,,Ğ´Ğ°Ñ€Ğ³Ğ°Ğ½ Ğ¼ĞµĞ·,Dargwa
dar,,dar,,,Ğ´Ğ°Ñ€Ğ³Ğ°Ğ½ Ğ¼ĞµĞ·,Dargwa
de,,deu,,,Deutsch,German
de,,ger,,,Deutsch,German
de,,,deu,,Deutsch,German
de,de,,,,Deutsch,German
de,,,deu,,Deutsch,German
de,,deu,,,Deutsch,German
de,,ger,,,Deutsch,German
de,de,,,,Deutsch,German
din,,din,,,ThuÉ”Å‹jÃ¤Å‹,Dinka
din,,din,,,Jieng,Dinka
din,,,din,,ThuÉ”Å‹jÃ¤Å‹,Dinka
din,,,din,,Jieng,Dinka
din,,,din,,ThuÉ”Å‹jÃ¤Å‹,Dinka
din,,,din,,Jieng,Dinka
din,,din,,,ThuÉ”Å‹jÃ¤Å‹,Dinka
din,,din,,,Jieng,Dinka
din,,din,,,ThuÉ”Å‹jÃ¤Å‹,Dinka
din,,,din,,ThuÉ”Å‹jÃ¤Å‹,Dinka
din,,,din,,Jieng,Dinka
din,,din,,,Jieng,Dinka
diq,,zza,,,Zazaki,Zazaki
diq,,,zza,,Zazaki,Zazaki
diq,,,zza,,Zazaki,Zazaki
diq,,zza,,,Zazaki,Zazaki
diq,,zza,,,Zazaki,Zazaki
diq,,,zza,,Zazaki,Zazaki
dlm,,,dlm,,,Dalmatian
dlm,,,dlm,,,Dalmatian
dru,,,dru,,,Rukai
dru,,,dru,,,Rukai
dsb,,dsb,,,Dolnoserbski,Lower Sorbian
dsb,,dsb,,,DolnoserbÅ¡Ä‡ina,Lower Sorbian
dsb,,,dsb,,Dolnoserbski,Lower Sorbian
dsb,,,dsb,,DolnoserbÅ¡Ä‡ina,Lower Sorbian
dsb,,,dsb,,Dolnoserbski,Lower Sorbian
dsb,,,dsb,,DolnoserbÅ¡Ä‡ina,Lower Sorbian
dsb,,dsb,,,Dolnoserbski,Lower Sorbian
dsb,,dsb,,,DolnoserbÅ¡Ä‡ina,Lower Sorbian
dtp,,,dtp,,boros Kadazandusun,Kadazandusun
dtp,,,dtp,,boros Kadazandusun,Kadazandusun
dty,,,dty,,à¤¡à¥‹à¤Ÿà¥‡à¤²à¥€,Doteli
dty,,,dty,,à¤¡à¥‹à¤Ÿà¥‡à¤²à¥€,Doteli
dua,,,dua,,,Duala
dua,,dua,,,,Duala
dua,,,dua,,,Duala
dua,,dua,,,,Duala
dv,,div,,,Ş‹Ş¨ŞˆŞ¬Ş€Ş¨Ş„Ş¦ŞŞ°,Dhivehi
dv,,div,,,Ş‹Ş¨ŞˆŞ¬Ş€Ş¨,Dhivehi
dv,dv,,,,Ş‹Ş¨ŞˆŞ¬Ş€Ş¨Ş„Ş¦ŞŞ°,Dhivehi
dv,dv,,,,Ş‹Ş¨ŞˆŞ¬Ş€Ş¨,Dhivehi
dv,,,div,,Ş‹Ş¨ŞˆŞ¬Ş€Ş¨Ş„Ş¦ŞŞ°,Dhivehi
dv,,,div,,Ş‹Ş¨ŞˆŞ¬Ş€Ş¨,Dhivehi
dv,,,div,,Ş‹Ş¨ŞˆŞ¬Ş€Ş¨Ş„Ş¦ŞŞ°,Dhivehi
dv,,,div,,Ş‹Ş¨ŞˆŞ¬Ş€Ş¨,Dhivehi
dv,,div,,,Ş‹Ş¨ŞˆŞ¬Ş€Ş¨Ş„Ş¦ŞŞ°,Dhivehi
dv,,div,,,Ş‹Ş¨ŞˆŞ¬Ş€Ş¨,Dhivehi
dv,dv,,,,Ş‹Ş¨ŞˆŞ¬Ş€Ş¨Ş„Ş¦ŞŞ°,Dhivehi
dv,dv,,,,Ş‹Ş¨ŞˆŞ¬Ş€Ş¨,Dhivehi
dz,,dzo,,,à½¢à¾«à½¼à½„à¼‹à½à¼‹ (rDzongkha),Dzongkha
dz,,dzo,,,à½¢à¾«à½¼à½„à¼‹à½à¼‹,Dzongkha
dz,dz,,,,à½¢à¾«à½¼à½„à¼‹à½à¼‹ (rDzongkha),Dzongkha
dz,dz,,,,à½¢à¾«à½¼à½„à¼‹à½à¼‹,Dzongkha
dz,,,dzo,,à½¢à¾«à½¼à½„à¼‹à½à¼‹ (rDzongkha),Dzongkha
dz,,,dzo,,à½¢à¾«à½¼à½„à¼‹à½à¼‹,Dzongkha
dz,,,dzo,,à½¢à¾«à½¼à½„à¼‹à½à¼‹ (rDzongkha),Dzongkha
dz,,,dzo,,à½¢à¾«à½¼à½„à¼‹à½à¼‹,Dzongkha
dz,,dzo,,,à½¢à¾«à½¼à½„à¼‹à½à¼‹ (rDzongkha),Dzongkha
dz,,dzo,,,à½¢à¾«à½¼à½„à¼‹à½à¼‹,Dzongkha
dz,dz,,,,à½¢à¾«à½¼à½„à¼‹à½à¼‹ (rDzongkha),Dzongkha
dz,dz,,,,à½¢à¾«à½¼à½„à¼‹à½à¼‹,Dzongkha
ee,,ewe,,,ÃˆÊ‹egbe (Ãˆwegbe),Ewe
ee,,ewe,,,EÊ‹egbe,Ewe
ee,,ewe,,,EÊ‹e,Ewe
ee,,,ewe,,ÃˆÊ‹egbe (Ãˆwegbe),Ewe
ee,,,ewe,,EÊ‹egbe,Ewe
ee,,,ewe,,EÊ‹e,Ewe
ee,ee,,,,ÃˆÊ‹egbe (Ãˆwegbe),Ewe
ee,ee,,,,EÊ‹egbe,Ewe
ee,ee,,,,EÊ‹e,Ewe
ee,,,ewe,,ÃˆÊ‹egbe (Ãˆwegbe),Ewe
ee,,,ewe,,EÊ‹egbe,Ewe
ee,,,ewe,,EÊ‹e,Ewe
ee,,ewe,,,ÃˆÊ‹egbe (Ãˆwegbe),Ewe
ee,,ewe,,,EÊ‹egbe,Ewe
ee,,ewe,,,EÊ‹e,Ewe
ee,ee,,,,ÃˆÊ‹egbe (Ãˆwegbe),Ewe
ee,ee,,,,EÊ‹egbe,Ewe
ee,ee,,,,EÊ‹e,Ewe
egl,,,egl,,EmigliÃ¢n,Emilian
el,el,,,,Î½Î­Î± ÎµÎ»Î»Î·Î½Î¹ÎºÎ¬,Modern Greek
el,el,,,,ÎµÎ»Î»Î·Î½Î¹ÎºÎ¬,Modern Greek
el,,ell,,,Î½Î­Î± ÎµÎ»Î»Î·Î½Î¹ÎºÎ¬,Modern Greek
el,,gre,,,Î½Î­Î± ÎµÎ»Î»Î·Î½Î¹ÎºÎ¬,Modern Greek
el,,ell,,,ÎµÎ»Î»Î·Î½Î¹ÎºÎ¬,Modern Greek
el,,gre,,,ÎµÎ»Î»Î·Î½Î¹ÎºÎ¬,Modern Greek
el,,,ell,,Î½Î­Î± ÎµÎ»Î»Î·Î½Î¹ÎºÎ¬,Modern Greek
el,,,ell,,ÎµÎ»Î»Î·Î½Î¹ÎºÎ¬,Modern Greek
el,,,ell,,Î½Î­Î± ÎµÎ»Î»Î·Î½Î¹ÎºÎ¬,Modern Greek
el,,,ell,,ÎµÎ»Î»Î·Î½Î¹ÎºÎ¬,Modern Greek
el,,ell,,,Î½Î­Î± ÎµÎ»Î»Î·Î½Î¹ÎºÎ¬,Modern Greek
el,,gre,,,Î½Î­Î± ÎµÎ»Î»Î·Î½Î¹ÎºÎ¬,Modern Greek
el,,ell,,,ÎµÎ»Î»Î·Î½Î¹ÎºÎ¬,Modern Greek
el,,gre,,,ÎµÎ»Î»Î·Î½Î¹ÎºÎ¬,Modern Greek
el,el,,,,Î½Î­Î± ÎµÎ»Î»Î·Î½Î¹ÎºÎ¬,Modern Greek
el,el,,,,ÎµÎ»Î»Î·Î½Î¹ÎºÎ¬,Modern Greek
el,,gre,,,ÎµÎ»Î»Î·Î½Î¹ÎºÎ®,Greek
el,,gre,,,Î½Î­Î± ÎµÎ»Î»Î·Î½Î¹ÎºÎ¬,Greek
el,,,ell,,ÎµÎ»Î»Î·Î½Î¹ÎºÎ®,Greek
el,,,ell,,Î½Î­Î± ÎµÎ»Î»Î·Î½Î¹ÎºÎ¬,Greek
el,el,,,,ÎµÎ»Î»Î·Î½Î¹ÎºÎ®,Greek
el,el,,,,Î½Î­Î± ÎµÎ»Î»Î·Î½Î¹ÎºÎ¬,Greek
el,,,ell,,ÎµÎ»Î»Î·Î½Î¹ÎºÎ®,Greek
el,,,ell,,Î½Î­Î± ÎµÎ»Î»Î·Î½Î¹ÎºÎ¬,Greek
el,,gre,,,ÎµÎ»Î»Î·Î½Î¹ÎºÎ®,Greek
el,,gre,,,Î½Î­Î± ÎµÎ»Î»Î·Î½Î¹ÎºÎ¬,Greek
el,el,,,,ÎµÎ»Î»Î·Î½Î¹ÎºÎ®,Greek
el,el,,,,Î½Î­Î± ÎµÎ»Î»Î·Î½Î¹ÎºÎ¬,Greek
en,,eng,,,English,English
en,,,eng,,English,English
en,,eng,,,English,English
en,en,,,,English,English
en,,,eng,,English,English
en,,eng,,,English,English
en,,,eng,,English,English
en,en,,,,English,English
en,en,,,,English,English
enm,,,,meng,Middle English,Middle English
enm,,,enm,,Middle English,Middle English
enm,,enm,,,Middle English,Middle English
enm,,,,meng,Middle English,Middle English
enm,,enm,,,Middle English,Middle English
enm,,,enm,,Middle English,Middle English
eo,,epo,,,Esperanto,Esperanto
eo,,,epo,,Esperanto,Esperanto
eo,eo,,,,Esperanto,Esperanto
eo,,epo,,,Esperanto,Esperanto
eo,,,epo,,Esperanto,Esperanto
eo,,epo,,,Esperanto,Esperanto
eo,,,epo,,Esperanto,Esperanto
eo,eo,,,,Esperanto,Esperanto
eo,,epo,,,Esperanto,Esperanto
eo,,,epo,,Esperanto,Esperanto
eo,eo,,,,Esperanto,Esperanto
eo,eo,,,,Esperanto,Esperanto
eo,,epo,,,Esperanto,Esperanto
eo,,,epo,,Esperanto,Esperanto
eo,eo,,,,Esperanto,Esperanto
eo,,epo,,,Esperanto,Esperanto
eo,,,epo,,Esperanto,Esperanto
eo,eo,,,,Esperanto,Esperanto
es,,spa,,,castellano,Spanish
es,,,spa,,castellano,Spanish
es,,spa,,,espaÃ±ol,Spanish
es,,,spa,,espaÃ±ol,Spanish
es,,spa,,,castellano,Spanish
es,,spa,,,espaÃ±ol,Spanish
es,es,,,,castellano,Spanish
es,es,,,,espaÃ±ol,Spanish
es,,,spa,,castellano,Spanish
es,,,spa,,espaÃ±ol,Spanish
es,,spa,,,castellano,Spanish
es,,,spa,,castellano,Spanish
es,es,,,,castellano,Spanish
es,,spa,,,espaÃ±ol,Spanish
es,,,spa,,espaÃ±ol,Spanish
es,es,,,,espaÃ±ol,Spanish
es,es,,,,castellano,Spanish
es,es,,,,espaÃ±ol,Spanish
esu,,,esu,,,Central Alaskan Yup'ik
esu,,,esu,,,Central Alaskan Yup'ik
et,,est,,,eesti keel,Estonian
et,,est,,,eesti keel,Estonian
et,et,,,,eesti keel,Estonian
et,,,ekk,,eesti keel,Estonian
et,,,est,,eesti keel,Estonian
et,,,ekk,,eesti keel,Estonian
et,,,est,,eesti keel,Estonian
et,et,,,,eesti keel,Estonian
et,,est,,,eesti keel,Estonian
et,,,ekk,,eesti keel,Estonian
et,,,est,,eesti keel,Estonian
et,et,,,,eesti keel,Estonian
et,,est,,,eesti keel,Estonian
et,,,ekk,,eesti keel,Estonian
et,,,est,,eesti keel,Estonian
et,et,,,,eesti keel,Estonian
ett,,,ett,,ğŒ“ğŒ€ğŒ”ğŒğŒ€,Etruscan
ett,,,ett,,ğŒ“ğŒ€ğŒ”ğŒğŒ€,Etruscan
ett,,,ett,,ğŒ“ğŒ€ğŒ”ğŒğŒ€,Etruscan
eu,,baq,,,Euskara,Basque
eu,,eus,,,Euskara,Basque
eu,,,eus,,Euskara,Basque
eu,,baq,,,Euskara,Basque
eu,,eus,,,Euskara,Basque
eu,,,eus,,Euskara,Basque
eu,eu,,,,Euskara,Basque
eu,eu,,,,Euskara,Basque
ext,,,ext,,Lengua estremeÃ±a,Extremaduran
ext,,,ext,,EhtremeÃ±u,Extremaduran
ext,,,ext,,BarranquÃªnhu,Extremaduran
ext,,,ext,,Lengua estremeÃ±a,Extremaduran
ext,,,ext,,EhtremeÃ±u,Extremaduran
ext,,,ext,,BarranquÃªnhu,Extremaduran
eya,,,eya,,I.ya.q,Eyak
eya,,,eya,,I.ya.q,Eyak
eya,,,eya,,I.ya.q,Eyak
fa,,fas,,,ÙØ§Ø±Ø³ÛŒ,Persian
fa,,per,,,ÙØ§Ø±Ø³ÛŒ,Persian
fa,fa,,,,ÙØ§Ø±Ø³ÛŒ,Persian
fa,fa,,,,ÙØ§Ø±Ø³ÛŒ,Persian
fa,,,fas,,ÙØ§Ø±Ø³ÛŒ,Persian
fa,,,fas,,ÙØ§Ø±Ø³ÛŒ,Persian
fa,,fas,,,ÙØ§Ø±Ø³ÛŒ,Persian
fa,,per,,,ÙØ§Ø±Ø³ÛŒ,Persian
fa,,fas,,,ÙØ§Ø±Ø³ÛŒ,Persian
fa,,per,,,ÙØ§Ø±Ø³ÛŒ,Persian
fa,fa,,,,ÙØ§Ø±Ø³ÛŒ,Persian
fa,,,fas,,ÙØ§Ø±Ø³ÛŒ,Persian
fa,,fas,,,ÙØ§Ø±Ø³ÛŒ,Persian
fa,,per,,,ÙØ§Ø±Ø³ÛŒ,Persian
fa,fa,,,,ÙØ§Ø±Ø³ÛŒ,Persian
fa,,,fas,,ÙØ§Ø±Ø³ÛŒ,Persian
fa-af,,,prs,,Ø¯Ø±ÛŒ,Dari
fa-af,,,prs,,Ø¯Ø±ÛŒ,Dari
ff,,ful,,,ğ¤†ğ¤µğ¤¤ğ¤¢ğ¤ª,Fula
ff,,ful,,,Fulfulde,Fula
ff,ff,,,,ğ¤†ğ¤µğ¤¤ğ¤¢ğ¤ª,Fula
ff,ff,,,,Fulfulde,Fula
ff,ff,,,,ğ¤†ğ¤µğ¤¤ğ¤¢ğ¤ª,Fula
ff,ff,,,,Fulfulde,Fula
ff,,,ful,,ğ¤†ğ¤µğ¤¤ğ¤¢ğ¤ª,Fula
ff,,,ful,,Fulfulde,Fula
ff,,,ful,,ğ¤†ğ¤µğ¤¤ğ¤¢ğ¤ª,Fula
ff,,,ful,,Fulfulde,Fula
ff,,ful,,,ğ¤†ğ¤µğ¤¤ğ¤¢ğ¤ª,Fula
ff,,ful,,,Fulfulde,Fula
ff,,ful,,,ğ¤†ğ¤µğ¤¤ğ¤¢ğ¤ª,Fula
ff,ff,,,,ğ¤†ğ¤µğ¤¤ğ¤¢ğ¤ª,Fula
ff,,,ful,,ğ¤†ğ¤µğ¤¤ğ¤¢ğ¤ª,Fula
ff,,ful,,,Fulfulde,Fula
ff,ff,,,,Fulfulde,Fula
ff,,,ful,,Fulfulde,Fula
ff,,ful,,,ğ¤†ğ¤µğ¤¤ğ¤¢ğ¤ª,Fula
ff,,ful,,,Fulfulde,Fula
ff,ff,,,,ğ¤†ğ¤µğ¤¤ğ¤¢ğ¤ª,Fula
ff,,,ful,,ğ¤†ğ¤µğ¤¤ğ¤¢ğ¤ª,Fula
ff,ff,,,,Fulfulde,Fula
ff,,,ful,,Fulfulde,Fula
fi,,fin,,,suomi,Finnish
fi,fi,,,,suomi,Finnish
fi,,,fin,,suomi,Finnish
fi,,,fin,,suomi,Finnish
fi,,fin,,,suomi,Finnish
fi,fi,,,,suomi,Finnish
fit,,,fit,,meÃ¤nkieli,MeÃ¤nkieli
fit,,,fit,,meÃ¤nkieli,MeÃ¤nkieli
fit,,,fit,,meÃ¤nkieli,MeÃ¤nkieli
fiu-vro,,,vro,,vÃµro kiil,VÃµro
fiu-vro,,,vro,,vÃµro kiil,VÃµro
fj,,fij,,,vosa Vakaviti,Fijian
fj,fj,,,,vosa Vakaviti,Fijian
fj,fj,,,,vosa Vakaviti,Fijian
fj,,,fij,,vosa Vakaviti,Fijian
fj,,,fij,,vosa Vakaviti,Fijian
fj,,fij,,,vosa Vakaviti,Fijian
fkv,,,fkv,,kvÃ¤Ã¤ni,Kven
fkv,,,fkv,,kvÃ¤Ã¤ni,Kven
fkv,,,fkv,,kvÃ¤Ã¤ni,Kven
fo,,fao,,,FÃ¸royskt mÃ¡l,Faroese
fo,fo,,,,FÃ¸royskt mÃ¡l,Faroese
fo,,fao,,,FÃ¸royskt,Faroese
fo,fo,,,,FÃ¸royskt,Faroese
fo,fo,,,,FÃ¸royskt mÃ¡l,Faroese
fo,fo,,,,FÃ¸royskt,Faroese
fo,,,fao,,FÃ¸royskt mÃ¡l,Faroese
fo,,,fao,,FÃ¸royskt,Faroese
fo,,,fao,,FÃ¸royskt mÃ¡l,Faroese
fo,,,fao,,FÃ¸royskt,Faroese
fo,,fao,,,FÃ¸royskt mÃ¡l,Faroese
fo,,fao,,,FÃ¸royskt,Faroese
fon,,fon,,,,Fon
fon,,,fon,,,Fon
fon,,fon,,,,Fon
fon,,,fon,,,Fon
fos,,,fos,,Siraya,Siraya
fos,,,fos,,Siraya,Siraya
fos,,,fos,,Siraya,Siraya
fr,,fre,,,langue franÃ§aise,French
fr,,fra,,,langue franÃ§aise,French
fr,fr,,,,langue franÃ§aise,French
fr,,fre,,,franÃ§ais,French
fr,,fra,,,franÃ§ais,French
fr,fr,,,,franÃ§ais,French
fr,,,fra,,langue franÃ§aise,French
fr,,,fra,,franÃ§ais,French
fr,,,fra,,langue franÃ§aise,French
fr,,,fra,,franÃ§ais,French
fr,,fre,,,langue franÃ§aise,French
fr,,fra,,,langue franÃ§aise,French
fr,fr,,,,langue franÃ§aise,French
fr,,fre,,,franÃ§ais,French
fr,,fra,,,franÃ§ais,French
fr,fr,,,,franÃ§ais,French
fr,,fre,,,langue franÃ§aise,French
fr,,fra,,,langue franÃ§aise,French
fr,fr,,,,langue franÃ§aise,French
fr,,,fra,,langue franÃ§aise,French
fr,,fre,,,franÃ§ais,French
fr,,fra,,,franÃ§ais,French
fr,fr,,,,franÃ§ais,French
fr,,,fra,,franÃ§ais,French
frc,,,frc,,,Louisiana French
frc,,,frc,,,Louisiana French
frm,,,frm,,,Middle French
frm,,frm,,,,Middle French
frm,,,frm,,,Middle French
frm,,frm,,,,Middle French
frm,,,frm,,,Middle French
frm,,frm,,,,Middle French
fro,,,fro,,,Old French
fro,,fro,,,,Old French
fro,,,fro,,,Old French
fro,,fro,,,,Old French
fro,,,fro,,,Old French
fro,,fro,,,,Old French
frp,,,frp,,patouÃ©,Franco-ProvenÃ§al
frp,,,frp,,arpetan,Franco-ProvenÃ§al
frp,,,frp,,patouÃ©,Franco-ProvenÃ§al
frp,,,frp,,arpetan,Franco-ProvenÃ§al
frr,,frr,,,Nuurdfresk,North Frisian
frr,,,frr,,Nuurdfresk,North Frisian
frr,,,frr,,Nuurdfresk,North Frisian
frr,,frr,,,Nuurdfresk,North Frisian
fuf,,,fuf,,Pular,Pular
fuf,,,fuf,,Pular,Pular
fur,,fur,,,lenghe furlane,Friulian
fur,,fur,,,furlan,Friulian
fur,,,fur,,lenghe furlane,Friulian
fur,,,fur,,furlan,Friulian
fur,,fur,,,lenghe furlane,Friulian
fur,,,fur,,lenghe furlane,Friulian
fur,,fur,,,furlan,Friulian
fur,,,fur,,furlan,Friulian
fy,,fry,,,Fryske taal,West Frisian
fy,,fry,,,Frysk,West Frisian
fy,,fry,,,Fryske taal,West Frisian
fy,,fry,,,Frysk,West Frisian
fy,fy,,,,Fryske taal,West Frisian
fy,fy,,,,Frysk,West Frisian
fy,,,fry,,Fryske taal,West Frisian
fy,,,fry,,Frysk,West Frisian
fy,,,fry,,Fryske taal,West Frisian
fy,,,fry,,Frysk,West Frisian
fy,fy,,,,Fryske taal,West Frisian
fy,fy,,,,Frysk,West Frisian
ga,,gle,,,Gaeilge,Irish
ga,,gle,,,An Ghaeilge,Irish
ga,,gle,,,Gaeilge,Irish
ga,,gle,,,An Ghaeilge,Irish
ga,ga,,,,Gaeilge,Irish
ga,ga,,,,An Ghaeilge,Irish
ga,,,gle,,Gaeilge,Irish
ga,,,gle,,An Ghaeilge,Irish
ga,,,gle,,Gaeilge,Irish
ga,,,gle,,An Ghaeilge,Irish
ga,ga,,,,Gaeilge,Irish
ga,ga,,,,An Ghaeilge,Irish
gaa,,gaa,,,Ga,Ga
gaa,,,gaa,,Ga,Ga
gaa,,gaa,,,Ga,Ga
gaa,,,gaa,,Ga,Ga
gag,,,gag,,Gagauz dili,Gagauz
gag,,,gag,,Gagauz dili,Gagauz
gan,,,gan,,è´›èª,Gan
gan,,,gan,,Jiangxi hua,Gan
gan,,,gan,,è´›èª,Gan
gan,,,gan,,Jiangxi hua,Gan
gcf,,,gcf,,,Guadeloupe-Martinique Creole French
gcf,,,gcf,,,Guadeloupe-Martinique Creole French
gcf,,,gcf,,,Guadeloupe-Martinique Creole French
gcr,,,gcr,,KriyÃ²l Gwiyannen,Guianan Creole
gcr,,,gcr,,KriyÃ²l Gwiyannen,Guianan Creole
gcr,,,gcr,,KriyÃ²l Gwiyannen,Guianan Creole
gd,,gla,,,GÃ idhlig na h-Alba,Scottish Gaelic
gd,,gla,,,GÃ idhlig,Scottish Gaelic
gd,,gla,,,GÃ idhlig na h-Alba,Scottish Gaelic
gd,,gla,,,GÃ idhlig,Scottish Gaelic
gd,gd,,,,GÃ idhlig na h-Alba,Scottish Gaelic
gd,gd,,,,GÃ idhlig,Scottish Gaelic
gd,,,gla,,GÃ idhlig na h-Alba,Scottish Gaelic
gd,,,gla,,GÃ idhlig,Scottish Gaelic
gd,,,gla,,GÃ idhlig na h-Alba,Scottish Gaelic
gd,,,gla,,GÃ idhlig,Scottish Gaelic
gd,gd,,,,GÃ idhlig na h-Alba,Scottish Gaelic
gd,gd,,,,GÃ idhlig,Scottish Gaelic
gez,,,gez,,áŒá‹•á‹,Ge'ez
gez,,gez,,,áŒá‹•á‹,Ge'ez
gez,,,gez,,áŒá‹•á‹,Ge'ez
gez,,gez,,,áŒá‹•á‹,Ge'ez
gez,,,gez,,áŒá‹•á‹,Ge'ez
gez,,gez,,,áŒá‹•á‹,Ge'ez
gez,,,gez,,áŒá‹•á‹,Ge'ez
gez,,gez,,,áŒá‹•á‹,Ge'ez
gez,,,gez,,áŒá‹•á‹,Ge'ez
gez,,gez,,,áŒá‹•á‹,Ge'ez
gil,,,gil,,,Gilbertese
gil,,gil,,,,Gilbertese
gil,,,gil,,,Gilbertese
gil,,gil,,,,Gilbertese
gl,,glg,,,Lingua galega,Galician
gl,,glg,,,Galego,Galician
gl,,glg,,,Lingua galega,Galician
gl,,glg,,,Galego,Galician
gl,gl,,,,Lingua galega,Galician
gl,gl,,,,Galego,Galician
gl,,,glg,,Lingua galega,Galician
gl,,,glg,,Galego,Galician
gl,,,glg,,Lingua galega,Galician
gl,,,glg,,Galego,Galician
gl,gl,,,,Lingua galega,Galician
gl,gl,,,,Galego,Galician
glk,,,glk,,Ú¯ÛŒÙ„Ú©ÛŒ (GÄ«lakÄ«),Gilaki
glk,,,glk,,Ú¯ÙŠÙ„Ú©ÙŠ,Gilaki
glk,,,glk,,Ú¯ÛŒÙ„Ú©ÛŒ (GÄ«lakÄ«),Gilaki
glk,,,glk,,Ú¯ÙŠÙ„Ú©ÙŠ,Gilaki
gmh,,gmh,,,,Middle High German
gmh,,,gmh,,,Middle High German
gmh,,,,mdgr,,Middle High German
gmh,,gmh,,,,Middle High German
gmh,,,gmh,,,Middle High German
gmh,,,,mdgr,,Middle High German
gml,,,gml,,,Middle Low German
gn,gn,,,,AvaÃ±e'áº½,Guarani
gn,,grn,,,AvaÃ±e'áº½,Guarani
gn,,,grn,,AvaÃ±e'áº½,Guarani
gn,,grn,,,AvaÃ±e'áº½,Guarani
gn,,,grn,,AvaÃ±e'áº½,Guarani
gn,gn,,,,AvaÃ±e'áº½,Guarani
gn,,grn,,,AvaÃ±e'áº½,Guarani
gn,,,grn,,AvaÃ±e'áº½,Guarani
gn,gn,,,,AvaÃ±e'áº½,Guarani
goh,,goh,,,Althochdeutsch,Old High German
goh,,,goh,,Althochdeutsch,Old High German
goh,,,goh,,Althochdeutsch,Old High German
goh,,goh,,,Althochdeutsch,Old High German
goh,,goh,,,Althochdeutsch,Old High German
goh,,,goh,,Althochdeutsch,Old High German
goh,,goh,,,Althochdeutsch,Old High German
goh,,,goh,,Althochdeutsch,Old High German
gom,,,gom,,Goan Konkani,Goan Konkani
gom,,,gom,,Goan Konkani,Goan Konkani
gor,,gor,,,Hulontalo,Gorontalo
gor,,,gor,,Hulontalo,Gorontalo
gor,,gor,,,Hulontalo,Gorontalo
gor,,,gor,,Hulontalo,Gorontalo
got,,got,,,ğŒ²ğŒ¿ğ„ğ‚ğŒ°ğŒ¶ğŒ³ğŒ°,Gothic
got,,,got,,ğŒ²ğŒ¿ğ„ğ‚ğŒ°ğŒ¶ğŒ³ğŒ°,Gothic
got,,got,,,ğŒ²ğŒ¿ğ„ğ‚ğŒ°ğŒ¶ğŒ³ğŒ°,Gothic
got,,,got,,ğŒ²ğŒ¿ğ„ğ‚ğŒ°ğŒ¶ğŒ³ğŒ°,Gothic
got,,got,,,ğŒ²ğŒ¿ğ„ğ‚ğŒ°ğŒ¶ğŒ³ğŒ°,Gothic
got,,,got,,ğŒ²ğŒ¿ğ„ğ‚ğŒ°ğŒ¶ğŒ³ğŒ°,Gothic
grc,,,grc,,á¼™Î»Î»Î·Î½Î¹ÎºÎ®,Ancient Greek
grc,,grc,,,á¼™Î»Î»Î·Î½Î¹ÎºÎ®,Ancient Greek
grc,,,grc,,á¼™Î»Î»Î·Î½Î¹ÎºÎ®,Ancient Greek
grc,,grc,,,á¼™Î»Î»Î·Î½Î¹ÎºÎ®,Ancient Greek
gsg,,,gsg,,,German Sign Language
gsg,,,gsg,,,German Sign Language
gsw,,gsw,,,Alemannisch,Alemannic
gsw,,,gsw,,Alemannisch,Alemannic
gsw,,gsw,,,SchwyzerdÃ¼tsch,Alemannic
gsw,,,gsw,,SchwyzerdÃ¼tsch,Alemannic
gu,,guj,,,àª—à«àªœàª°àª¾àª¤à«€ àª­àª¾àª·àª¾,Gujarati
gu,,guj,,,àª—à«àªœàª°àª¾àª¤ (GujarÄtÄ«),Gujarati
gu,,guj,,,àª—à«àªœàª°àª¾àª¤à«€ àª­àª¾àª·àª¾,Gujarati
gu,,guj,,,àª—à«àªœàª°àª¾àª¤ (GujarÄtÄ«),Gujarati
gu,gu,,,,àª—à«àªœàª°àª¾àª¤à«€ àª­àª¾àª·àª¾,Gujarati
gu,gu,,,,àª—à«àªœàª°àª¾àª¤ (GujarÄtÄ«),Gujarati
gu,,,guj,,àª—à«àªœàª°àª¾àª¤à«€ àª­àª¾àª·àª¾,Gujarati
gu,,,guj,,àª—à«àªœàª°àª¾àª¤ (GujarÄtÄ«),Gujarati
gu,,,guj,,àª—à«àªœàª°àª¾àª¤à«€ àª­àª¾àª·àª¾,Gujarati
gu,,,guj,,àª—à«àªœàª°àª¾àª¤ (GujarÄtÄ«),Gujarati
gu,gu,,,,àª—à«àªœàª°àª¾àª¤à«€ àª­àª¾àª·àª¾,Gujarati
gu,gu,,,,àª—à«àªœàª°àª¾àª¤ (GujarÄtÄ«),Gujarati
guc,,,guc,,,Wayuu
guc,,,guc,,,Wayuu
guw,,,guw,,GungbÃ¨,Gun
guw,,,guw,,GungbÃ¨,Gun
gv,,glv,,,Gaelg,Manx
gv,,glv,,,Gaelg,Manx
gv,gv,,,,Gaelg,Manx
gv,,,glv,,Gaelg,Manx
gv,,,glv,,Gaelg,Manx
gv,gv,,,,Gaelg,Manx
ha,ha,,,,Hausa,Hausa
ha,,hau,,,Hausa,Hausa
ha,,,hau,,Hausa,Hausa
ha,,hau,,,Hausa,Hausa
ha,,,hau,,Hausa,Hausa
ha,ha,,,,Hausa,Hausa
hai,,,hai,,XÌ±aat KÃ­l,Haida
hai,,hai,,,XÌ±aat KÃ­l,Haida
hai,,hai,,,XÌ±aat KÃ­l,Haida
hai,,,hai,,XÌ±aat KÃ­l,Haida
hai,,hai,,,XÌ±aat KÃ­l,Haida
hai,,,hai,,XÌ±aat KÃ­l,Haida
hak,,,hak,,å®¢è©±,Hakka
hak,,,hak,,å®¢å®¶è©±,Hakka
hak,,,hak,,å®¢è¯,Hakka
hak,,,hak,,å®¢å®¶è¯,Hakka
hak,,,hak,,Hak-va,Hakka
hak,,,hak,,Hak-kÃ¢-va,Hakka
hak,,,hak,,Hak-kÃ¢-fa,Hakka
hak,,,hak,,Hak-fa,Hakka
hak,,,hak,,Hak-kÃ¢-ngÃ®,Hakka
hak,,,hak,,å®¢è©±,Hakka
hak,,,hak,,å®¢å®¶è©±,Hakka
hak,,,hak,,å®¢è¯,Hakka
hak,,,hak,,å®¢å®¶è¯,Hakka
hak,,,hak,,Hak-va,Hakka
hak,,,hak,,Hak-kÃ¢-va,Hakka
hak,,,hak,,Hak-kÃ¢-fa,Hakka
hak,,,hak,,Hak-fa,Hakka
hak,,,hak,,Hak-kÃ¢-ngÃ®,Hakka
haw,,haw,,,â€™Olelo Hawaiâ€™i,Hawaiian
haw,,,haw,,â€™Olelo Hawaiâ€™i,Hawaiian
haw,,haw,,,â€˜ÅŒlelo Hawaiâ€˜i,Hawaiian
haw,,,haw,,â€˜ÅŒlelo Hawaiâ€˜i,Hawaiian
haw,,haw,,,â€™Olelo Hawaiâ€™i,Hawaiian
haw,,,haw,,â€™Olelo Hawaiâ€™i,Hawaiian
haw,,haw,,,â€˜ÅŒlelo Hawaiâ€˜i,Hawaiian
haw,,,haw,,â€˜ÅŒlelo Hawaiâ€˜i,Hawaiian
hbo,,,hbo,,×¢Ö´×‘Ö°×¨Ö´×™×ª ×Ö´×§Ö°×¨Ö¸×Ö´×™×ª,Biblical Hebrew
hbo,,,hbo,,×œÖ°×©××•Ö¹×Ÿ ×”Ö·×Ö´Ö¼×§Ö°×¨Ö¸×,Biblical Hebrew
hbo,,,hbo,,×¢Ö´×‘Ö°×¨Ö´×™×ª ×Ö´×§Ö°×¨Ö¸×Ö´×™×ª,Biblical Hebrew
hbo,,,hbo,,×¢Ö´×‘Ö°×¨Ö´×™×ª ×Ö´×§Ö°×¨Ö¸×Ö´×™×ª,Biblical Hebrew
hbo,,,hbo,,×œÖ°×©××•Ö¹×Ÿ ×”Ö·×Ö´Ö¼×§Ö°×¨Ö¸×,Biblical Hebrew
hbo,,,hbo,,×œÖ°×©××•Ö¹×Ÿ ×”Ö·×Ö´Ö¼×§Ö°×¨Ö¸×,Biblical Hebrew
he,,heb,,,×¢×‘×¨×™×ª ×—×“×©×”,Hebrew
he,,heb,,,×¢×‘×¨×™×ª,Hebrew
he,,heb,,,×¢×‘×¨×™×ª ×—×“×©×”,Hebrew
he,,heb,,,×¢×‘×¨×™×ª,Hebrew
he,he,,,,×¢×‘×¨×™×ª ×—×“×©×”,Hebrew
he,he,,,,×¢×‘×¨×™×ª,Hebrew
he,,,heb,,×¢×‘×¨×™×ª ×—×“×©×”,Hebrew
he,,,heb,,×¢×‘×¨×™×ª,Hebrew
he,,,heb,,×¢×‘×¨×™×ª ×—×“×©×”,Hebrew
he,,,heb,,×¢×‘×¨×™×ª,Hebrew
he,he,,,,×¢×‘×¨×™×ª ×—×“×©×”,Hebrew
he,he,,,,×¢×‘×¨×™×ª,Hebrew
hi,,hin,,,à¤®à¤¾à¤¨à¤• à¤¹à¤¿à¤¨à¥à¤¦à¥€,Hindi
hi,,,hin,,à¤®à¤¾à¤¨à¤• à¤¹à¤¿à¤¨à¥à¤¦à¥€,Hindi
hi,,hin,,,à¤¹à¤¿à¤¨à¥à¤¦à¥€,Hindi
hi,,,hin,,à¤¹à¤¿à¤¨à¥à¤¦à¥€,Hindi
hi,,hin,,,à¤®à¤¾à¤¨à¤• à¤¹à¤¿à¤¨à¥à¤¦à¥€,Hindi
hi,,hin,,,à¤¹à¤¿à¤¨à¥à¤¦à¥€,Hindi
hi,hi,,,,à¤®à¤¾à¤¨à¤• à¤¹à¤¿à¤¨à¥à¤¦à¥€,Hindi
hi,hi,,,,à¤¹à¤¿à¤¨à¥à¤¦à¥€,Hindi
hi,,,hin,,à¤®à¤¾à¤¨à¤• à¤¹à¤¿à¤¨à¥à¤¦à¥€,Hindi
hi,,,hin,,à¤¹à¤¿à¤¨à¥à¤¦à¥€,Hindi
hi,hi,,,,à¤®à¤¾à¤¨à¤• à¤¹à¤¿à¤¨à¥à¤¦à¥€,Hindi
hi,hi,,,,à¤¹à¤¿à¤¨à¥à¤¦à¥€,Hindi
hif,,,hif,,Fiji Hindi,Fiji Hindi
hif,,,hif,,à¤«à¤¼à¤¿à¤œà¥€ à¤¹à¤¿à¤‚à¤¦à¥€,Fiji Hindi
hif,,,hif,,Fiji Baat,Fiji Hindi
hif,,,hif,,Fiji Hindi,Fiji Hindi
hif,,,hif,,à¤«à¤¼à¤¿à¤œà¥€ à¤¹à¤¿à¤‚à¤¦à¥€,Fiji Hindi
hif,,,hif,,Fiji Baat,Fiji Hindi
hil,,,hil,,Inilonggo,Hiligaynon
hil,,,hil,,Hiligaynon,Hiligaynon
hil,,,hil,,Binisaya,Hiligaynon
hil,,hil,,,Inilonggo,Hiligaynon
hil,,hil,,,Hiligaynon,Hiligaynon
hil,,hil,,,Binisaya,Hiligaynon
hil,,hil,,,Inilonggo,Hiligaynon
hil,,,hil,,Inilonggo,Hiligaynon
hil,,hil,,,Hiligaynon,Hiligaynon
hil,,,hil,,Hiligaynon,Hiligaynon
hil,,hil,,,Binisaya,Hiligaynon
hil,,,hil,,Binisaya,Hiligaynon
ho,,,hmo,,Hiri Motu,Hiri Motu
ho,,hmo,,,Hiri Motu,Hiri Motu
ho,ho,,,,Hiri Motu,Hiri Motu
ho,,,hmo,,Hiri Motu,Hiri Motu
ho,,hmo,,,Hiri Motu,Hiri Motu
ho,ho,,,,Hiri Motu,Hiri Motu
ho,,,hmo,,Hiri Motu,Hiri Motu
ho,,hmo,,,Hiri Motu,Hiri Motu
ho,ho,,,,Hiri Motu,Hiri Motu
hoc,,,hoc,,,Ho
hoc,,,hoc,,,Ho
hr,,hrv,,,Hrvatski jezik,Croatian
hr,,hrv,,,Hrvatski,Croatian
hr,,hrv,,,Hrvatski jezik,Croatian
hr,,hrv,,,Hrvatski,Croatian
hr,hr,,,,Hrvatski jezik,Croatian
hr,hr,,,,Hrvatski,Croatian
hr,,,hrv,,Hrvatski jezik,Croatian
hr,,,hrv,,Hrvatski,Croatian
hr,,,hrv,,Hrvatski jezik,Croatian
hr,,,hrv,,Hrvatski,Croatian
hr,hr,,,,Hrvatski jezik,Croatian
hr,hr,,,,Hrvatski,Croatian
hrx,,,hrx,,,Hunsrik
hrx,,,hrx,,,Hunsrik
hsb,,hsb,,,HornjoserbÅ¡Ä‡ina,Upper Sorbian
hsb,,,hsb,,HornjoserbÅ¡Ä‡ina,Upper Sorbian
hsb,,,hsb,,HornjoserbÅ¡Ä‡ina,Upper Sorbian
hsb,,hsb,,,HornjoserbÅ¡Ä‡ina,Upper Sorbian
ht,,hat,,,KreyÃ²l ayisyen,Haitian Creole
ht,ht,,,,KreyÃ²l ayisyen,Haitian Creole
ht,,,hat,,KreyÃ²l ayisyen,Haitian Creole
ht,ht,,,,KreyÃ²l ayisyen,Haitian Creole
ht,,,hat,,KreyÃ²l ayisyen,Haitian Creole
ht,,hat,,,KreyÃ²l ayisyen,Haitian Creole
ht,,hat,,,KreyÃ²l ayisyen,Haitian Creole
ht,ht,,,,KreyÃ²l ayisyen,Haitian Creole
ht,,,hat,,KreyÃ²l ayisyen,Haitian Creole
ht,,hat,,,KreyÃ²l ayisyen,Haitian Creole
ht,ht,,,,KreyÃ²l ayisyen,Haitian Creole
ht,,,hat,,KreyÃ²l ayisyen,Haitian Creole
hu,hu,,,,magyar nyelv,Hungarian
hu,,,hun,,magyar nyelv,Hungarian
hu,hu,,,,magyar,Hungarian
hu,,,hun,,magyar,Hungarian
hu,,hun,,,magyar nyelv,Hungarian
hu,,hun,,,magyar,Hungarian
hu,,hun,,,magyar nyelv,Hungarian
hu,hu,,,,magyar nyelv,Hungarian
hu,,,hun,,magyar nyelv,Hungarian
hu,,hun,,,magyar,Hungarian
hu,hu,,,,magyar,Hungarian
hu,,,hun,,magyar,Hungarian
hy,hy,,,,Õ°Õ¡ÕµÕ¥Ö€Õ¥Õ¶,Armenian
hy,,,hye,,Õ°Õ¡ÕµÕ¥Ö€Õ¥Õ¶,Armenian
hy,,arm,,,Õ°Õ¡ÕµÕ¥Ö€Õ¥Õ¶,Armenian
hy,,hye,,,Õ°Õ¡ÕµÕ¥Ö€Õ¥Õ¶,Armenian
hy,,arm,,,Õ°Õ¡ÕµÕ¥Ö€Õ¥Õ¶,Armenian
hy,,hye,,,Õ°Õ¡ÕµÕ¥Ö€Õ¥Õ¶,Armenian
hy,hy,,,,Õ°Õ¡ÕµÕ¥Ö€Õ¥Õ¶,Armenian
hy,,,hye,,Õ°Õ¡ÕµÕ¥Ö€Õ¥Õ¶,Armenian
hyw,,,hyw,,Õ¡Ö€Õ¥Ö‚Õ´Õ¿Õ¡Õ°Õ¡ÕµÕ¥Ö€Õ§Õ¶,Western Armenian
hyw,,,hyw,,Õ¡Ö€Õ¥Ö‚Õ´Õ¿Õ¡Õ°Õ¡ÕµÕ¥Ö€Õ§Õ¶,Western Armenian
hz,,,her,,Otsiherero,Herero
hz,,her,,,Otsiherero,Herero
hz,hz,,,,Otsiherero,Herero
hz,,,her,,Otsiherero,Herero
hz,,her,,,Otsiherero,Herero
hz,hz,,,,Otsiherero,Herero
ia,,ina,,,Interlingua,Interlingua
ia,ia,,,,Interlingua,Interlingua
ia,,,ina,,Interlingua,Interlingua
ia,,ina,,,Interlingua,Interlingua
ia,ia,,,,Interlingua,Interlingua
ia,,,ina,,Interlingua,Interlingua
id,,ind,,,Bahasa Indonesia,Indonesian
id,id,,,,Bahasa Indonesia,Indonesian
id,,,ind,,Bahasa Indonesia,Indonesian
id,id,,,,Bahasa Indonesia,Indonesian
id,,,ind,,Bahasa Indonesia,Indonesian
id,,ind,,,Bahasa Indonesia,Indonesian
id,,ind,,,Bahasa Indonesia,Indonesian
id,id,,,,Bahasa Indonesia,Indonesian
id,,,ind,,Bahasa Indonesia,Indonesian
id,,ind,,,Bahasa Indonesia,Indonesian
id,id,,,,Bahasa Indonesia,Indonesian
id,,,ind,,Bahasa Indonesia,Indonesian
ie,,ile,,,Interlingue,Interlingue
ie,ie,,,,Interlingue,Interlingue
ie,,,ile,,Interlingue,Interlingue
ig,,ibo,,,Igbo,Igbo
ig,ig,,,,Igbo,Igbo
ig,,,ibo,,Igbo,Igbo
ig,,ibo,,,Asá»¥sá»¥ Igbo,Igbo
ig,ig,,,,Asá»¥sá»¥ Igbo,Igbo
ig,,,ibo,,Asá»¥sá»¥ Igbo,Igbo
ig,,ibo,,,Igbo,Igbo
ig,ig,,,,Igbo,Igbo
ig,,ibo,,,Asá»¥sá»¥ Igbo,Igbo
ig,ig,,,,Asá»¥sá»¥ Igbo,Igbo
ig,,,ibo,,Igbo,Igbo
ig,,,ibo,,Asá»¥sá»¥ Igbo,Igbo
ig,ig,,,,Igbo,Igbo
ig,,,ibo,,Igbo,Igbo
ig,ig,,,,Asá»¥sá»¥ Igbo,Igbo
ig,,,ibo,,Asá»¥sá»¥ Igbo,Igbo
ig,,ibo,,,Igbo,Igbo
ig,,ibo,,,Asá»¥sá»¥ Igbo,Igbo
ii,ii,,,,ê†ˆêŒ ê‰™,Nuosu
ii,ii,,,,Nuosu,Nuosu
ii,,iii,,,ê†ˆêŒ ê‰™,Nuosu
ii,,,iii,,ê†ˆêŒ ê‰™,Nuosu
ii,,iii,,,Nuosu,Nuosu
ii,,,iii,,Nuosu,Nuosu
ii,ii,,,,ê†ˆêŒ ê‰™,Nuosu
ii,ii,,,,Nuosu,Nuosu
ii,,iii,,,ê†ˆêŒ ê‰™,Nuosu
ii,,,iii,,ê†ˆêŒ ê‰™,Nuosu
ii,,iii,,,Nuosu,Nuosu
ii,,,iii,,Nuosu,Nuosu
ik,ik,,,,IÃ±upiatun,Inupiaq
ik,,ipk,,,IÃ±upiatun,Inupiaq
ik,,,ipk,,IÃ±upiatun,Inupiaq
ik,ik,,,,IÃ±upiatun,Inupiaq
ik,,ipk,,,IÃ±upiatun,Inupiaq
ik,,,ipk,,IÃ±upiatun,Inupiaq
ik,ik,,,,IÃ±upiatun,Inupiaq
ik,,ipk,,,IÃ±upiatun,Inupiaq
ik,,,ipk,,IÃ±upiatun,Inupiaq
ilo,,ilo,,,Pagsasao nga Ilokano,Ilocano
ilo,,ilo,,,Ilokano,Ilocano
ilo,,,ilo,,Pagsasao nga Ilokano,Ilocano
ilo,,,ilo,,Ilokano,Ilocano
ilo,,,ilo,,Pagsasao nga Ilokano,Ilocano
ilo,,ilo,,,Pagsasao nga Ilokano,Ilocano
ilo,,,ilo,,Ilokano,Ilocano
ilo,,ilo,,,Ilokano,Ilocano
inh,,inh,,,Ğ³ÓĞ°Ğ»Ğ³ÓĞ°Ğ¹ Ğ¼Ğ¾Ñ‚Ñ‚ (ÄalÄŸaj mott),Ingush
inh,,,inh,,Ğ³ÓĞ°Ğ»Ğ³ÓĞ°Ğ¹ Ğ¼Ğ¾Ñ‚Ñ‚ (ÄalÄŸaj mott),Ingush
inh,,inh,,,Ğ“Ó€Ğ°Ğ»Ğ³Ó€Ğ°Ğ¹ Ğ¼Ğ¾Ñ‚Ñ‚,Ingush
inh,,,inh,,Ğ“Ó€Ğ°Ğ»Ğ³Ó€Ğ°Ğ¹ Ğ¼Ğ¾Ñ‚Ñ‚,Ingush
inh,,inh,,,Ğ³ÓĞ°Ğ»Ğ³ÓĞ°Ğ¹ (ÄalÄŸaj),Ingush
inh,,,inh,,Ğ³ÓĞ°Ğ»Ğ³ÓĞ°Ğ¹ (ÄalÄŸaj),Ingush
inh,,inh,,,Ğ³ÓĞ°Ğ»Ğ³ÓĞ°Ğ¹ Ğ¼Ğ¾Ñ‚Ñ‚ (ÄalÄŸaj mott),Ingush
inh,,,inh,,Ğ³ÓĞ°Ğ»Ğ³ÓĞ°Ğ¹ Ğ¼Ğ¾Ñ‚Ñ‚ (ÄalÄŸaj mott),Ingush
inh,,inh,,,Ğ“Ó€Ğ°Ğ»Ğ³Ó€Ğ°Ğ¹ Ğ¼Ğ¾Ñ‚Ñ‚,Ingush
inh,,,inh,,Ğ“Ó€Ğ°Ğ»Ğ³Ó€Ğ°Ğ¹ Ğ¼Ğ¾Ñ‚Ñ‚,Ingush
inh,,inh,,,Ğ³ÓĞ°Ğ»Ğ³ÓĞ°Ğ¹ (ÄalÄŸaj),Ingush
inh,,,inh,,Ğ³ÓĞ°Ğ»Ğ³ÓĞ°Ğ¹ (ÄalÄŸaj),Ingush
ins,,,ins,,,Indian Sign Language
ins,,,ins,,,Indian Sign Language
io,io,,,,Ido,Ido
io,,,ido,,Ido,Ido
io,,ido,,,Ido,Ido
io,io,,,,Ido,Ido
io,,,ido,,Ido,Ido
io,,ido,,,Ido,Ido
io,io,,,,Ido,Ido
io,,ido,,,Ido,Ido
io,,,ido,,Ido,Ido
io,io,,,,Ido,Ido
io,,,ido,,Ido,Ido
io,,ido,,,Ido,Ido
is,is,,,,Ãslenska,Icelandic
is,,isl,,,Ãslenska,Icelandic
is,,ice,,,Ãslenska,Icelandic
is,,,isl,,Ãslenska,Icelandic
is,is,,,,Ãslenska,Icelandic
is,,isl,,,Ãslenska,Icelandic
is,,ice,,,Ãslenska,Icelandic
is,,,isl,,Ãslenska,Icelandic
it,it,,,,Italiano,Italian
it,it,,,,italiano,Italian
it,,ita,,,Italiano,Italian
it,,,ita,,Italiano,Italian
it,,ita,,,italiano,Italian
it,,,ita,,italiano,Italian
it,it,,,,Italiano,Italian
it,it,,,,italiano,Italian
it,,ita,,,Italiano,Italian
it,,,ita,,Italiano,Italian
it,,ita,,,italiano,Italian
it,,,ita,,italiano,Italian
it,it,,,,Italiano,Italian
it,,ita,,,Italiano,Italian
it,,,ita,,Italiano,Italian
it,it,,,,italiano,Italian
it,,ita,,,italiano,Italian
it,,,ita,,italiano,Italian
iu,iu,,,,áƒá“„á’ƒá‘á‘á‘¦,Inuktitut
iu,,iku,,,áƒá“„á’ƒá‘á‘á‘¦,Inuktitut
iu,,,iku,,áƒá“„á’ƒá‘á‘á‘¦,Inuktitut
iu,iu,,,,áƒá“„á’ƒá‘á‘á‘¦,Inuktitut
iu,,iku,,,áƒá“„á’ƒá‘á‘á‘¦,Inuktitut
iu,,,iku,,áƒá“„á’ƒá‘á‘á‘¦,Inuktitut
iu,iu,,,,áƒá“„á’ƒá‘á‘á‘¦,Inuktitut
iu,,iku,,,áƒá“„á’ƒá‘á‘á‘¦,Inuktitut
iu,,,iku,,áƒá“„á’ƒá‘á‘á‘¦,Inuktitut
iu,iu,,,,áƒá“„á’ƒá‘á‘á‘¦,Inuktitut
iu,,iku,,,áƒá“„á’ƒá‘á‘á‘¦,Inuktitut
iu,,,iku,,áƒá“„á’ƒá‘á‘á‘¦,Inuktitut
ja,ja,,,,æ—¥æœ¬èª,Japanese
ja,,jpn,,,æ—¥æœ¬èª,Japanese
ja,,,jpn,,æ—¥æœ¬èª,Japanese
ja,ja,,,,æ—¥æœ¬èª,Japanese
ja,,jpn,,,æ—¥æœ¬èª,Japanese
ja,,,jpn,,æ—¥æœ¬èª,Japanese
jam,,,jam,,Patwa,Jamaican Creole
jam,,,jam,,Patwa,Jamaican Creole
jam,,,jam,,Patwa,Jamaican Creole
jax,,,jax,,bahaso Melayu Jambi,Jambi Malay
jax,,,jax,,bahaso Melayu Jambi,Jambi Malay
jbo,,jbo,,,la .lojban.,Lojban
jbo,,,jbo,,la .lojban.,Lojban
jbo,,jbo,,,la .lojban.,Lojban
jbo,,,jbo,,la .lojban.,Lojban
jut,,,jut,,Jysk,Jutlandic
jv,,jav,,,Basa Jawa,Javanese
jv,,jav,,,Jawa,Javanese
jv,jv,,,,Basa Jawa,Javanese
jv,,,jav,,Basa Jawa,Javanese
jv,jv,,,,Jawa,Javanese
jv,,,jav,,Jawa,Javanese
jv,,jav,,,Basa Jawa,Javanese
jv,jv,,,,Basa Jawa,Javanese
jv,,jav,,,Jawa,Javanese
jv,jv,,,,Jawa,Javanese
jv,,,jav,,Basa Jawa,Javanese
jv,,,jav,,Jawa,Javanese
ka,,kat,,,áƒ¥áƒáƒ áƒ—áƒ£áƒšáƒ˜ áƒ”áƒœáƒ,Georgian
ka,,geo,,,áƒ¥áƒáƒ áƒ—áƒ£áƒšáƒ˜ áƒ”áƒœáƒ,Georgian
ka,,kat,,,áƒ¥áƒáƒ áƒ—áƒ£áƒšáƒ˜,Georgian
ka,,geo,,,áƒ¥áƒáƒ áƒ—áƒ£áƒšáƒ˜,Georgian
ka,ka,,,,áƒ¥áƒáƒ áƒ—áƒ£áƒšáƒ˜ áƒ”áƒœáƒ,Georgian
ka,,,kat,,áƒ¥áƒáƒ áƒ—áƒ£áƒšáƒ˜ áƒ”áƒœáƒ,Georgian
ka,ka,,,,áƒ¥áƒáƒ áƒ—áƒ£áƒšáƒ˜,Georgian
ka,,,kat,,áƒ¥áƒáƒ áƒ—áƒ£áƒšáƒ˜,Georgian
ka,,kat,,,áƒ¥áƒáƒ áƒ—áƒ£áƒšáƒ˜ áƒ”áƒœáƒ,Georgian
ka,,geo,,,áƒ¥áƒáƒ áƒ—áƒ£áƒšáƒ˜ áƒ”áƒœáƒ,Georgian
ka,ka,,,,áƒ¥áƒáƒ áƒ—áƒ£áƒšáƒ˜ áƒ”áƒœáƒ,Georgian
ka,,kat,,,áƒ¥áƒáƒ áƒ—áƒ£áƒšáƒ˜,Georgian
ka,,geo,,,áƒ¥áƒáƒ áƒ—áƒ£áƒšáƒ˜,Georgian
ka,ka,,,,áƒ¥áƒáƒ áƒ—áƒ£áƒšáƒ˜,Georgian
ka,,,kat,,áƒ¥áƒáƒ áƒ—áƒ£áƒšáƒ˜ áƒ”áƒœáƒ,Georgian
ka,,,kat,,áƒ¥áƒáƒ áƒ—áƒ£áƒšáƒ˜,Georgian
ka,,kat,,,áƒ¥áƒáƒ áƒ—áƒ£áƒšáƒ˜ áƒ”áƒœáƒ,Georgian
ka,,geo,,,áƒ¥áƒáƒ áƒ—áƒ£áƒšáƒ˜ áƒ”áƒœáƒ,Georgian
ka,ka,,,,áƒ¥áƒáƒ áƒ—áƒ£áƒšáƒ˜ áƒ”áƒœáƒ,Georgian
ka,,,kat,,áƒ¥áƒáƒ áƒ—áƒ£áƒšáƒ˜ áƒ”áƒœáƒ,Georgian
ka,,kat,,,áƒ¥áƒáƒ áƒ—áƒ£áƒšáƒ˜,Georgian
ka,,geo,,,áƒ¥áƒáƒ áƒ—áƒ£áƒšáƒ˜,Georgian
ka,ka,,,,áƒ¥áƒáƒ áƒ—áƒ£áƒšáƒ˜,Georgian
ka,,,kat,,áƒ¥áƒáƒ áƒ—áƒ£áƒšáƒ˜,Georgian
kaa,,kaa,,,ÒšĞ°Ñ€Ğ°Ò›Ğ°Ğ»Ğ¿Ğ°Ò› Ñ‚Ğ¸Ğ»Ğ¸ (Qaraqalpaq tili),Karakalpak
kaa,,kaa,,,Qaraqalpaq tili,Karakalpak
kaa,,,kaa,,ÒšĞ°Ñ€Ğ°Ò›Ğ°Ğ»Ğ¿Ğ°Ò› Ñ‚Ğ¸Ğ»Ğ¸ (Qaraqalpaq tili),Karakalpak
kaa,,,kaa,,Qaraqalpaq tili,Karakalpak
kaa,,kaa,,,ÒšĞ°Ñ€Ğ°Ò›Ğ°Ğ»Ğ¿Ğ°Ò› Ñ‚Ğ¸Ğ»Ğ¸ (Qaraqalpaq tili),Karakalpak
kaa,,kaa,,,Qaraqalpaq tili,Karakalpak
kaa,,,kaa,,ÒšĞ°Ñ€Ğ°Ò›Ğ°Ğ»Ğ¿Ğ°Ò› Ñ‚Ğ¸Ğ»Ğ¸ (Qaraqalpaq tili),Karakalpak
kaa,,,kaa,,Qaraqalpaq tili,Karakalpak
kab,,kab,,,Taqbaylit,Kabyle
kab,,kab,,,taqbaylit,Kabyle
kab,,,kab,,Taqbaylit,Kabyle
kab,,,kab,,taqbaylit,Kabyle
kab,,kab,,,Taqbaylit,Kabyle
kab,,kab,,,taqbaylit,Kabyle
kab,,,kab,,Taqbaylit,Kabyle
kab,,,kab,,taqbaylit,Kabyle
kab,,kab,,,Taqbaylit,Kabyle
kab,,,kab,,Taqbaylit,Kabyle
kab,,kab,,,taqbaylit,Kabyle
kab,,,kab,,taqbaylit,Kabyle
kae,,,kae,,,Ketagalan
kae,,,kae,,,Ketagalan
kae,,,kae,,,Ketagalan
kbd,,kbd,,,ĞšÑŠÑĞ±ÑÑ€Ğ´ĞµĞ¹ ĞĞ´Ñ‹Ğ³ÑĞ±Ğ·Ñ (QÄƒbÄƒrdey AdÉ™gÄƒbzÄƒ),Kabardian
kbd,,kbd,,,ĞšÑŠÑĞ±ÑÑ€Ğ´ĞµĞ¹,Kabardian
kbd,,kbd,,,ĞĞ´Ñ‹Ğ³ÑĞ±Ğ·Ñ,Kabardian
kbd,,,kbd,,ĞšÑŠÑĞ±ÑÑ€Ğ´ĞµĞ¹ ĞĞ´Ñ‹Ğ³ÑĞ±Ğ·Ñ (QÄƒbÄƒrdey AdÉ™gÄƒbzÄƒ),Kabardian
kbd,,,kbd,,ĞšÑŠÑĞ±ÑÑ€Ğ´ĞµĞ¹,Kabardian
kbd,,,kbd,,ĞĞ´Ñ‹Ğ³ÑĞ±Ğ·Ñ,Kabardian
kbd,,kbd,,,ĞšÑŠÑĞ±ÑÑ€Ğ´ĞµĞ¹ ĞĞ´Ñ‹Ğ³ÑĞ±Ğ·Ñ (QÄƒbÄƒrdey AdÉ™gÄƒbzÄƒ),Kabardian
kbd,,kbd,,,ĞšÑŠÑĞ±ÑÑ€Ğ´ĞµĞ¹,Kabardian
kbd,,kbd,,,ĞĞ´Ñ‹Ğ³ÑĞ±Ğ·Ñ,Kabardian
kbd,,,kbd,,ĞšÑŠÑĞ±ÑÑ€Ğ´ĞµĞ¹ ĞĞ´Ñ‹Ğ³ÑĞ±Ğ·Ñ (QÄƒbÄƒrdey AdÉ™gÄƒbzÄƒ),Kabardian
kbd,,,kbd,,ĞšÑŠÑĞ±ÑÑ€Ğ´ĞµĞ¹,Kabardian
kbd,,,kbd,,ĞĞ´Ñ‹Ğ³ÑĞ±Ğ·Ñ,Kabardian
kbg,,,kbg,,,Khamba
kbg,,,kbg,,,Khamba
kbp,,,kbp,,KabÉ©yÉ›,Kabiye
kbp,,,kbp,,KabÉ©yÉ›,Kabiye
kcg,,,kcg,,,Tyap
kcg,,,kcg,,,Tyap
kea,,,kea,,kabuverdianu,Cape Verdean Creole
kea,,,kea,,kabuverdianu,Cape Verdean Creole
kg,,kon,,,kikongo,Kongo
kg,kg,,,,kikongo,Kongo
kg,,,kon,,kikongo,Kongo
kg,,kon,,,kikongo,Kongo
kg,kg,,,,kikongo,Kongo
kg,,,kon,,kikongo,Kongo
kg,,kon,,,kikongo,Kongo
kg,kg,,,,kikongo,Kongo
kg,,,kon,,kikongo,Kongo
kha,,,kha,,,Khasi
kha,,kha,,,,Khasi
kha,,,kha,,,Khasi
kha,,kha,,,,Khasi
khg,,,khg,,,Khams Tibetan
khg,,,khg,,,Khams Tibetan
khw,,,khw,,Ú©Ú¾ÙˆÙˆØ§Ø±,Khowar
khw,,,khw,,Ú©Ú¾ÙˆÙˆØ§Ø±,Khowar
ki,,kik,,,GÄ©kÅ©yÅ©,Gikuyu
ki,,kik,,,GÄ©gÄ©kÅ©yÅ©,Gikuyu
ki,ki,,,,GÄ©kÅ©yÅ©,Gikuyu
ki,,,kik,,GÄ©kÅ©yÅ©,Gikuyu
ki,ki,,,,GÄ©gÄ©kÅ©yÅ©,Gikuyu
ki,,,kik,,GÄ©gÄ©kÅ©yÅ©,Gikuyu
ki,,kik,,,GÄ©kÅ©yÅ©,Gikuyu
ki,ki,,,,GÄ©kÅ©yÅ©,Gikuyu
ki,,kik,,,GÄ©gÄ©kÅ©yÅ©,Gikuyu
ki,ki,,,,GÄ©gÄ©kÅ©yÅ©,Gikuyu
ki,,,kik,,GÄ©kÅ©yÅ©,Gikuyu
ki,,,kik,,GÄ©gÄ©kÅ©yÅ©,Gikuyu
kiu,,,kiu,,Shar Ma,Kirmanjki
kiu,,,kiu,,Shar Ma,Kirmanjki
kj,,,kua,,"Oshikwanyama, Oshiwambo",Kwanyama
kj,,,kua,,Kwanyama,Kwanyama
kj,,kua,,,"Oshikwanyama, Oshiwambo",Kwanyama
kj,,kua,,,Kwanyama,Kwanyama
kj,kj,,,,"Oshikwanyama, Oshiwambo",Kwanyama
kj,kj,,,,Kwanyama,Kwanyama
kj,,,kua,,"Oshikwanyama, Oshiwambo",Kwanyama
kj,,kua,,,"Oshikwanyama, Oshiwambo",Kwanyama
kj,,,kua,,Kwanyama,Kwanyama
kj,,kua,,,Kwanyama,Kwanyama
kj,kj,,,,"Oshikwanyama, Oshiwambo",Kwanyama
kj,kj,,,,Kwanyama,Kwanyama
kjh,,,kjh,,Ğ¥Ğ°ĞºĞ°Ñ Ñ‚Ñ–Ğ»Ñ–,Khakas
kjh,,,kjh,,Ğ¥Ğ°ĞºĞ°Ñ Ñ‚Ñ–Ğ»Ñ–,Khakas
kjp,,,kjp,,,Eastern Pwo
kjp,,,kjp,,,Eastern Pwo
kk,,kaz,,,Ò›Ğ°Ğ·Ğ°Ò› Ñ‚Ñ–Ğ»Ñ–,Kazakh
kk,,kaz,,,ĞºĞ°Ğ·Ğ°Ò›ÑˆĞ°,Kazakh
kk,kk,,,,Ò›Ğ°Ğ·Ğ°Ò› Ñ‚Ñ–Ğ»Ñ–,Kazakh
kk,,,kaz,,Ò›Ğ°Ğ·Ğ°Ò› Ñ‚Ñ–Ğ»Ñ–,Kazakh
kk,kk,,,,ĞºĞ°Ğ·Ğ°Ò›ÑˆĞ°,Kazakh
kk,,,kaz,,ĞºĞ°Ğ·Ğ°Ò›ÑˆĞ°,Kazakh
kk,,kaz,,,Ò›Ğ°Ğ·Ğ°Ò› Ñ‚Ñ–Ğ»Ñ–,Kazakh
kk,kk,,,,Ò›Ğ°Ğ·Ğ°Ò› Ñ‚Ñ–Ğ»Ñ–,Kazakh
kk,,kaz,,,ĞºĞ°Ğ·Ğ°Ò›ÑˆĞ°,Kazakh
kk,kk,,,,ĞºĞ°Ğ·Ğ°Ò›ÑˆĞ°,Kazakh
kk,,,kaz,,Ò›Ğ°Ğ·Ğ°Ò› Ñ‚Ñ–Ğ»Ñ–,Kazakh
kk,,,kaz,,ĞºĞ°Ğ·Ğ°Ò›ÑˆĞ°,Kazakh
kl,,kal,,,Kalaallisut,Greenlandic
kl,,kal,,,Kalaallisut,Greenlandic
kl,kl,,,,Kalaallisut,Greenlandic
kl,kl,,,,Kalaallisut,Greenlandic
kl,,,kal,,Kalaallisut,Greenlandic
kl,,,kal,,Kalaallisut,Greenlandic
km,,khm,,,á—á¶áŸá¶ááŸ’á˜áŸ‚áš,Khmer
km,,khm,,,ááŸ’á˜áŸ‚áš,Khmer
km,,khm,,,á—á¶áŸá¶ááŸ’á˜áŸ‚áš,Khmer
km,km,,,,á—á¶áŸá¶ááŸ’á˜áŸ‚áš,Khmer
km,,,khm,,á—á¶áŸá¶ááŸ’á˜áŸ‚áš,Khmer
km,,khm,,,ááŸ’á˜áŸ‚áš,Khmer
km,km,,,,ááŸ’á˜áŸ‚áš,Khmer
km,,,khm,,ááŸ’á˜áŸ‚áš,Khmer
km,km,,,,á—á¶áŸá¶ááŸ’á˜áŸ‚áš,Khmer
km,,,khm,,á—á¶áŸá¶ááŸ’á˜áŸ‚áš,Khmer
km,km,,,,ááŸ’á˜áŸ‚áš,Khmer
km,,,khm,,ááŸ’á˜áŸ‚áš,Khmer
km,,khm,,,á—á¶áŸá¶ááŸ’á˜áŸ‚áš,Khmer
km,km,,,,á—á¶áŸá¶ááŸ’á˜áŸ‚áš,Khmer
km,,khm,,,ááŸ’á˜áŸ‚áš,Khmer
km,km,,,,ááŸ’á˜áŸ‚áš,Khmer
km,,,khm,,á—á¶áŸá¶ááŸ’á˜áŸ‚áš,Khmer
km,,,khm,,ááŸ’á˜áŸ‚áš,Khmer
kn,,kan,,,à²•à²¨à³à²¨à²¡,Kannada
kn,kn,,,,à²•à²¨à³à²¨à²¡,Kannada
kn,,,kan,,à²•à²¨à³à²¨à²¡,Kannada
kn,,kan,,,à²•à²¨à³à²¨à²¡,Kannada
kn,kn,,,,à²•à²¨à³à²¨à²¡,Kannada
kn,,,kan,,à²•à²¨à³à²¨à²¡,Kannada
ko,ko,,,,ì¡°ì„ ë§,Korean
ko,,kor,,,ì¡°ì„ ë§,Korean
ko,ko,,,,í•œêµ­ë§,Korean
ko,,kor,,,í•œêµ­ë§,Korean
ko,ko,,,,í•œêµ­ì–´,Korean
ko,,kor,,,í•œêµ­ì–´,Korean
ko,,,kor,,ì¡°ì„ ë§,Korean
ko,,,kor,,í•œêµ­ë§,Korean
ko,,,kor,,í•œêµ­ì–´,Korean
ko,ko,,,,ì¡°ì„ ë§,Korean
ko,,kor,,,ì¡°ì„ ë§,Korean
ko,ko,,,,í•œêµ­ë§,Korean
ko,,kor,,,í•œêµ­ë§,Korean
ko,ko,,,,í•œêµ­ì–´,Korean
ko,,kor,,,í•œêµ­ì–´,Korean
ko,,,kor,,ì¡°ì„ ë§,Korean
ko,,,kor,,í•œêµ­ë§,Korean
ko,,,kor,,í•œêµ­ì–´,Korean
koi,,,koi,,ĞºĞ¾Ğ¼Ğ¸-Ğ¿ĞµÑ€Ğ¼ÑÑ†ĞºÓ§Ğ¹ ĞºÑ‹Ğ²,Permyak
koi,,,koi,,ĞºĞ¾Ğ¼Ğ¸-Ğ¿ĞµÑ€Ğ¼ÑÑ†ĞºÓ§Ğ¹ ĞºÑ‹Ğ²,Permyak
koy,,,koy,,Denaakkâ€™e,Koyukon
koy,,,koy,,Denaakkâ€™e,Koyukon
kr,,,kau,,kanuri,Kanuri
kr,,kau,,,kanuri,Kanuri
kr,kr,,,,kanuri,Kanuri
kr,,,kau,,kanuri,Kanuri
kr,,kau,,,kanuri,Kanuri
kr,kr,,,,kanuri,Kanuri
krc,,krc,,,Ğ¢Ğ°ÑƒĞ»Ñƒ Ñ‚Ğ¸Ğ» (Tawlu til),Karachay-Balkar
krc,,krc,,,ĞšÑŠĞ°Ñ€Ğ°Ñ‡Ğ°Ğ¹-ĞœĞ°Ğ»ĞºÑŠĞ°Ñ€ Ñ‚Ğ¸Ğ» (QaraÃ§ay-Malqar til),Karachay-Balkar
krc,,krc,,,ĞšÑŠĞ°Ñ€Ğ°Ñ‡Ğ°Ğ¹-Ğ¼Ğ°Ğ»ĞºÑŠĞ°Ñ€ Ñ‚Ğ¸Ğ»,Karachay-Balkar
krc,,krc,,,qaraÃ§ay-malqar,Karachay-Balkar
krc,,,krc,,Ğ¢Ğ°ÑƒĞ»Ñƒ Ñ‚Ğ¸Ğ» (Tawlu til),Karachay-Balkar
krc,,,krc,,ĞšÑŠĞ°Ñ€Ğ°Ñ‡Ğ°Ğ¹-ĞœĞ°Ğ»ĞºÑŠĞ°Ñ€ Ñ‚Ğ¸Ğ» (QaraÃ§ay-Malqar til),Karachay-Balkar
krc,,,krc,,ĞšÑŠĞ°Ñ€Ğ°Ñ‡Ğ°Ğ¹-Ğ¼Ğ°Ğ»ĞºÑŠĞ°Ñ€ Ñ‚Ğ¸Ğ»,Karachay-Balkar
krc,,,krc,,qaraÃ§ay-malqar,Karachay-Balkar
krc,,krc,,,Ğ¢Ğ°ÑƒĞ»Ñƒ Ñ‚Ğ¸Ğ» (Tawlu til),Karachay-Balkar
krc,,krc,,,ĞšÑŠĞ°Ñ€Ğ°Ñ‡Ğ°Ğ¹-ĞœĞ°Ğ»ĞºÑŠĞ°Ñ€ Ñ‚Ğ¸Ğ» (QaraÃ§ay-Malqar til),Karachay-Balkar
krc,,krc,,,ĞšÑŠĞ°Ñ€Ğ°Ñ‡Ğ°Ğ¹-Ğ¼Ğ°Ğ»ĞºÑŠĞ°Ñ€ Ñ‚Ğ¸Ğ»,Karachay-Balkar
krc,,krc,,,qaraÃ§ay-malqar,Karachay-Balkar
krc,,,krc,,Ğ¢Ğ°ÑƒĞ»Ñƒ Ñ‚Ğ¸Ğ» (Tawlu til),Karachay-Balkar
krc,,,krc,,ĞšÑŠĞ°Ñ€Ğ°Ñ‡Ğ°Ğ¹-ĞœĞ°Ğ»ĞºÑŠĞ°Ñ€ Ñ‚Ğ¸Ğ» (QaraÃ§ay-Malqar til),Karachay-Balkar
krc,,,krc,,ĞšÑŠĞ°Ñ€Ğ°Ñ‡Ğ°Ğ¹-Ğ¼Ğ°Ğ»ĞºÑŠĞ°Ñ€ Ñ‚Ğ¸Ğ»,Karachay-Balkar
krc,,,krc,,qaraÃ§ay-malqar,Karachay-Balkar
kri,,,kri,,Krio,Krio
kri,,,kri,,Krio,Krio
kri,,,kri,,Krio,Krio
krj,,,krj,,KinarayÂ·a,Kinaray-a
krj,,,krj,,Binisaya,Kinaray-a
krj,,,krj,,KinarayÂ·a,Kinaray-a
krj,,,krj,,Binisaya,Kinaray-a
krl,,,krl,,karjalan kieli,Karelian
krl,,krl,,,karjalan kieli,Karelian
krl,,,krl,,karjalan kieli,Karelian
krl,,krl,,,karjalan kieli,Karelian
krx,,,krx,,,Karon
krx,,,krx,,,Karon
ks,ks,,,,ğ‘†‘ğ‘†³ğ‘†¯ğ‘†¶ğ‘†«ğ‘‡€,Kashmiri
ks,,kas,,,ğ‘†‘ğ‘†³ğ‘†¯ğ‘†¶ğ‘†«ğ‘‡€,Kashmiri
ks,ks,,,,Ú©Ù²Ø´ÙØ±,Kashmiri
ks,,kas,,,Ú©Ù²Ø´ÙØ±,Kashmiri
ks,ks,,,,à¤•à¥‰à¤¶à¥à¤°,Kashmiri
ks,,kas,,,à¤•à¥‰à¤¶à¥à¤°,Kashmiri
ks,,,kas,,ğ‘†‘ğ‘†³ğ‘†¯ğ‘†¶ğ‘†«ğ‘‡€,Kashmiri
ks,,,kas,,Ú©Ù²Ø´ÙØ±,Kashmiri
ks,,,kas,,à¤•à¥‰à¤¶à¥à¤°,Kashmiri
ks,ks,,,,ğ‘†‘ğ‘†³ğ‘†¯ğ‘†¶ğ‘†«ğ‘‡€,Kashmiri
ks,,kas,,,ğ‘†‘ğ‘†³ğ‘†¯ğ‘†¶ğ‘†«ğ‘‡€,Kashmiri
ks,ks,,,,Ú©Ù²Ø´ÙØ±,Kashmiri
ks,,kas,,,Ú©Ù²Ø´ÙØ±,Kashmiri
ks,ks,,,,à¤•à¥‰à¤¶à¥à¤°,Kashmiri
ks,,kas,,,à¤•à¥‰à¤¶à¥à¤°,Kashmiri
ks,,,kas,,ğ‘†‘ğ‘†³ğ‘†¯ğ‘†¶ğ‘†«ğ‘‡€,Kashmiri
ks,,,kas,,Ú©Ù²Ø´ÙØ±,Kashmiri
ks,,,kas,,à¤•à¥‰à¤¶à¥à¤°,Kashmiri
ksw,,,ksw,,,S'gaw Karen
ksw,,,ksw,,,S'gaw Karen
ku,,,kmr,,KurdÃ®,Kurmanji
ku,,,kmr,,KurmancÃ®,Kurmanji
ku,,,kmr,,ZimanÃª KurdÃ®,Kurmanji
ku,,,kmr,,KurdÃ®,Kurmanji
ku,,,kmr,,KurmancÃ®,Kurmanji
ku,,,kmr,,ZimanÃª KurdÃ®,Kurmanji
ku,ku,,,,KurdÃ®,Kurdish
ku,,kur,,,KurdÃ®,Kurdish
ku,ku,,,,Ú©ÙˆØ±Ø¯ÛŒ,Kurdish
ku,,kur,,,Ú©ÙˆØ±Ø¯ÛŒ,Kurdish
ku,ku,,,,Ø²Ù…Ø§Ù†ÛŒ Ú©ÙˆØ±Ø¯ÛŒ,Kurdish
ku,,kur,,,Ø²Ù…Ø§Ù†ÛŒ Ú©ÙˆØ±Ø¯ÛŒ,Kurdish
ku,ku,,,,ZimanÃª KurdÃ®,Kurdish
ku,,kur,,,ZimanÃª KurdÃ®,Kurdish
ku,,,kur,,KurdÃ®,Kurdish
ku,,,kur,,Ú©ÙˆØ±Ø¯ÛŒ,Kurdish
ku,,,kur,,Ø²Ù…Ø§Ù†ÛŒ Ú©ÙˆØ±Ø¯ÛŒ,Kurdish
ku,,,kur,,ZimanÃª KurdÃ®,Kurdish
ku,ku,,,,KurdÃ®,Kurdish
ku,,kur,,,KurdÃ®,Kurdish
ku,ku,,,,Ú©ÙˆØ±Ø¯ÛŒ,Kurdish
ku,,kur,,,Ú©ÙˆØ±Ø¯ÛŒ,Kurdish
ku,ku,,,,Ø²Ù…Ø§Ù†ÛŒ Ú©ÙˆØ±Ø¯ÛŒ,Kurdish
ku,,kur,,,Ø²Ù…Ø§Ù†ÛŒ Ú©ÙˆØ±Ø¯ÛŒ,Kurdish
ku,ku,,,,ZimanÃª KurdÃ®,Kurdish
ku,,kur,,,ZimanÃª KurdÃ®,Kurdish
ku,,,kur,,KurdÃ®,Kurdish
ku,,,kur,,Ú©ÙˆØ±Ø¯ÛŒ,Kurdish
ku,,,kur,,Ø²Ù…Ø§Ù†ÛŒ Ú©ÙˆØ±Ø¯ÛŒ,Kurdish
ku,,,kur,,ZimanÃª KurdÃ®,Kurdish
ku,ku,,,,KurdÃ®,Kurdish
ku,,kur,,,KurdÃ®,Kurdish
ku,,,kur,,KurdÃ®,Kurdish
ku,ku,,,,Ú©ÙˆØ±Ø¯ÛŒ,Kurdish
ku,,kur,,,Ú©ÙˆØ±Ø¯ÛŒ,Kurdish
ku,,,kur,,Ú©ÙˆØ±Ø¯ÛŒ,Kurdish
ku,ku,,,,Ø²Ù…Ø§Ù†ÛŒ Ú©ÙˆØ±Ø¯ÛŒ,Kurdish
ku,,kur,,,Ø²Ù…Ø§Ù†ÛŒ Ú©ÙˆØ±Ø¯ÛŒ,Kurdish
ku,,,kur,,Ø²Ù…Ø§Ù†ÛŒ Ú©ÙˆØ±Ø¯ÛŒ,Kurdish
ku,ku,,,,ZimanÃª KurdÃ®,Kurdish
ku,,kur,,,ZimanÃª KurdÃ®,Kurdish
ku,,,kur,,ZimanÃª KurdÃ®,Kurdish
kum,,kum,,,ĞºÑŠÑƒĞ¼ÑƒĞºÑŠ Ñ‚Ğ¸Ğ»,Kumyk
kum,,,kum,,ĞºÑŠÑƒĞ¼ÑƒĞºÑŠ Ñ‚Ğ¸Ğ»,Kumyk
kum,,kum,,,ĞšÑŠÑƒĞ¼ÑƒĞºÑŠ (Qumuq),Kumyk
kum,,,kum,,ĞšÑŠÑƒĞ¼ÑƒĞºÑŠ (Qumuq),Kumyk
kum,,kum,,,ĞºÑŠÑƒĞ¼ÑƒĞºÑŠ Ñ‚Ğ¸Ğ»,Kumyk
kum,,,kum,,ĞºÑŠÑƒĞ¼ÑƒĞºÑŠ Ñ‚Ğ¸Ğ»,Kumyk
kum,,kum,,,ĞšÑŠÑƒĞ¼ÑƒĞºÑŠ (Qumuq),Kumyk
kum,,,kum,,ĞšÑŠÑƒĞ¼ÑƒĞºÑŠ (Qumuq),Kumyk
kut,,,kut,,,Kutenai
kut,,kut,,,,Kutenai
kut,,kut,,,,Kutenai
kut,,,kut,,,Kutenai
kut,,,kut,,,Kutenai
kut,,kut,,,,Kutenai
kv,kv,,,,ĞšĞ¾Ğ¼Ğ¸ ĞºÑ‹Ğ²,Komi
kv,,kom,,,ĞšĞ¾Ğ¼Ğ¸ ĞºÑ‹Ğ²,Komi
kv,,,kom,,ĞšĞ¾Ğ¼Ğ¸ ĞºÑ‹Ğ²,Komi
kv,kv,,,,ĞšĞ¾Ğ¼Ğ¸ ĞºÑ‹Ğ²,Komi
kv,,kom,,,ĞšĞ¾Ğ¼Ğ¸ ĞºÑ‹Ğ²,Komi
kv,,,kom,,ĞšĞ¾Ğ¼Ğ¸ ĞºÑ‹Ğ²,Komi
kv,kv,,,,ĞšĞ¾Ğ¼Ğ¸ ĞºÑ‹Ğ²,Komi
kv,,kom,,,ĞšĞ¾Ğ¼Ğ¸ ĞºÑ‹Ğ²,Komi
kv,,,kom,,ĞšĞ¾Ğ¼Ğ¸ ĞºÑ‹Ğ²,Komi
kw,kw,,,,Kernowek,Cornish
kw,,cor,,,Kernowek,Cornish
kw,kw,,,,Kernewek,Cornish
kw,,cor,,,Kernewek,Cornish
kw,,,cor,,Kernowek,Cornish
kw,,,cor,,Kernewek,Cornish
kw,kw,,,,Kernowek,Cornish
kw,,cor,,,Kernowek,Cornish
kw,kw,,,,Kernewek,Cornish
kw,,cor,,,Kernewek,Cornish
kw,,,cor,,Kernowek,Cornish
kw,,,cor,,Kernewek,Cornish
ky,ky,,,,ĞºÑ‹Ñ€Ğ³Ñ‹Ğ·Ñ‡Ğ°,Kyrgyz
ky,,kir,,,ĞºÑ‹Ñ€Ğ³Ñ‹Ğ·Ñ‡Ğ°,Kyrgyz
ky,ky,,,,ĞšÑ‹Ñ€Ğ³Ñ‹Ğ· Ñ‚Ğ¸Ğ»Ğ¸,Kyrgyz
ky,,kir,,,ĞšÑ‹Ñ€Ğ³Ñ‹Ğ· Ñ‚Ğ¸Ğ»Ğ¸,Kyrgyz
ky,,,kir,,ĞºÑ‹Ñ€Ğ³Ñ‹Ğ·Ñ‡Ğ°,Kyrgyz
ky,,,kir,,ĞšÑ‹Ñ€Ğ³Ñ‹Ğ· Ñ‚Ğ¸Ğ»Ğ¸,Kyrgyz
ky,ky,,,,ĞºÑ‹Ñ€Ğ³Ñ‹Ğ·Ñ‡Ğ°,Kyrgyz
ky,,kir,,,ĞºÑ‹Ñ€Ğ³Ñ‹Ğ·Ñ‡Ğ°,Kyrgyz
ky,ky,,,,ĞšÑ‹Ñ€Ğ³Ñ‹Ğ· Ñ‚Ğ¸Ğ»Ğ¸,Kyrgyz
ky,,kir,,,ĞšÑ‹Ñ€Ğ³Ñ‹Ğ· Ñ‚Ğ¸Ğ»Ğ¸,Kyrgyz
ky,,,kir,,ĞºÑ‹Ñ€Ğ³Ñ‹Ğ·Ñ‡Ğ°,Kyrgyz
ky,,,kir,,ĞšÑ‹Ñ€Ğ³Ñ‹Ğ· Ñ‚Ğ¸Ğ»Ğ¸,Kyrgyz
la,la,,,,Lingua latina,Latin
la,,lat,,,Lingua latina,Latin
la,,,lat,,Lingua latina,Latin
la,la,,,,Lingua latina,Latin
la,,lat,,,Lingua latina,Latin
la,,,lat,,Lingua latina,Latin
la,la,,,,Lingua latina,Latin
la,,lat,,,Lingua latina,Latin
la,,,lat,,Lingua latina,Latin
la,la,,,,Lingua latina,Latin
la,,lat,,,Lingua latina,Latin
la,,,lat,,Lingua latina,Latin
lad,,,lad,,×œ××“×™× ×• (Ladino),Judaeo-Spanish
lad,,,lad,,×’ï¬×•×“×™××•Ö¾××™×¡×¤×× ×™×™×•×œ (Djudeo-espanyol),Judaeo-Spanish
lad,,,lad,,Lingua djudeo-espanyola,Judaeo-Spanish
lad,,lad,,,×œ××“×™× ×• (Ladino),Judaeo-Spanish
lad,,lad,,,×’ï¬×•×“×™××•Ö¾××™×¡×¤×× ×™×™×•×œ (Djudeo-espanyol),Judaeo-Spanish
lad,,lad,,,Lingua djudeo-espanyola,Judaeo-Spanish
lad,,lad,,,×œ××“×™× ×• (Ladino),Judaeo-Spanish
lad,,lad,,,×’ï¬×•×“×™××•Ö¾××™×¡×¤×× ×™×™×•×œ (Djudeo-espanyol),Judaeo-Spanish
lad,,lad,,,Lingua djudeo-espanyola,Judaeo-Spanish
lad,,,lad,,×œ××“×™× ×• (Ladino),Judaeo-Spanish
lad,,,lad,,×’ï¬×•×“×™××•Ö¾××™×¡×¤×× ×™×™×•×œ (Djudeo-espanyol),Judaeo-Spanish
lad,,,lad,,Lingua djudeo-espanyola,Judaeo-Spanish
lag,,,lag,,"KÉ¨laangi, Langi",Rangi
lag,,,lag,,"KÉ¨laangi, Langi",Rangi
lb,,,ltz,,LÃ«tzebuergesch,Luxembourgish
lb,,ltz,,,LÃ«tzebuergesch,Luxembourgish
lb,lb,,,,LÃ«tzebuergesch,Luxembourgish
lb,,ltz,,,LÃ«tzebuergesch,Luxembourgish
lb,lb,,,,LÃ«tzebuergesch,Luxembourgish
lb,,,ltz,,LÃ«tzebuergesch,Luxembourgish
lbe,,,lbe,,Ğ»Ğ°ĞºĞºÑƒ Ğ¼Ğ°Ğ· (Lakku maz),Lak
lbe,,,lbe,,Ğ›Ğ°ĞºĞºÑƒ Ğ¼Ğ°Ğ·,Lak
lbe,,,lbe,,Ğ»Ğ°ĞºĞºÑƒ (Lakku),Lak
lbe,,,lbe,,Ğ»Ğ°ĞºĞºÑƒ Ğ¼Ğ°Ğ· (Lakku maz),Lak
lbe,,,lbe,,Ğ›Ğ°ĞºĞºÑƒ Ğ¼Ğ°Ğ·,Lak
lbe,,,lbe,,Ğ»Ğ°ĞºĞºÑƒ (Lakku),Lak
lbe,,,lbe,,Ğ»Ğ°ĞºĞºÑƒ Ğ¼Ğ°Ğ· (Lakku maz),Lak
lbe,,,lbe,,Ğ›Ğ°ĞºĞºÑƒ Ğ¼Ğ°Ğ·,Lak
lbe,,,lbe,,Ğ»Ğ°ĞºĞºÑƒ (Lakku),Lak
lez,,,lez,,Ğ›ĞµĞ·Ğ³Ğ¸ Ñ‡IĞ°Ğ»,Lezgian
lez,,,lez,,Ğ»ĞµĞ·Ğ³Ğ¸,Lezgian
lez,,lez,,,Ğ›ĞµĞ·Ğ³Ğ¸ Ñ‡IĞ°Ğ»,Lezgian
lez,,lez,,,Ğ»ĞµĞ·Ğ³Ğ¸,Lezgian
lez,,lez,,,Ğ›ĞµĞ·Ğ³Ğ¸ Ñ‡IĞ°Ğ»,Lezgian
lez,,lez,,,Ğ»ĞµĞ·Ğ³Ğ¸,Lezgian
lez,,,lez,,Ğ›ĞµĞ·Ğ³Ğ¸ Ñ‡IĞ°Ğ»,Lezgian
lez,,,lez,,Ğ»ĞµĞ·Ğ³Ğ¸,Lezgian
lfn,,,lfn,,Lingua Franca Nova,Lingua Franca Nova
lg,,,lug,,Luganda,Luganda
lg,,lug,,,Luganda,Luganda
lg,lg,,,,Luganda,Luganda
lg,,lug,,,Luganda,Luganda
lg,lg,,,,Luganda,Luganda
lg,,,lug,,Luganda,Luganda
li,,,lim,,Limburgsj,Limburgish
li,,,lim,,Limburgs,Limburgish
li,,,lim,,Limburgisj,Limburgish
li,,,lim,,LimbÃ¶rgs,Limburgish
li,,,lim,,LÃ¨mburgs,Limburgish
li,,,lim,,LÃ¨mbÃ¶rgs,Limburgish
li,,,lim,,Plat,Limburgish
li,,lim,,,Limburgsj,Limburgish
li,li,,,,Limburgsj,Limburgish
li,,lim,,,Limburgs,Limburgish
li,li,,,,Limburgs,Limburgish
li,,lim,,,Limburgisj,Limburgish
li,li,,,,Limburgisj,Limburgish
li,,lim,,,LimbÃ¶rgs,Limburgish
li,li,,,,LimbÃ¶rgs,Limburgish
li,,lim,,,LÃ¨mburgs,Limburgish
li,li,,,,LÃ¨mburgs,Limburgish
li,,lim,,,LÃ¨mbÃ¶rgs,Limburgish
li,li,,,,LÃ¨mbÃ¶rgs,Limburgish
li,,lim,,,Plat,Limburgish
li,li,,,,Plat,Limburgish
li,,lim,,,Limburgsj,Limburgish
li,,lim,,,Limburgs,Limburgish
li,,lim,,,Limburgisj,Limburgish
li,,lim,,,LimbÃ¶rgs,Limburgish
li,,lim,,,LÃ¨mburgs,Limburgish
li,,lim,,,LÃ¨mbÃ¶rgs,Limburgish
li,,lim,,,Plat,Limburgish
li,li,,,,Limburgsj,Limburgish
li,,,lim,,Limburgsj,Limburgish
li,li,,,,Limburgs,Limburgish
li,,,lim,,Limburgs,Limburgish
li,li,,,,Limburgisj,Limburgish
li,,,lim,,Limburgisj,Limburgish
li,li,,,,LimbÃ¶rgs,Limburgish
li,,,lim,,LimbÃ¶rgs,Limburgish
li,li,,,,LÃ¨mburgs,Limburgish
li,,,lim,,LÃ¨mburgs,Limburgish
li,li,,,,LÃ¨mbÃ¶rgs,Limburgish
li,,,lim,,LÃ¨mbÃ¶rgs,Limburgish
li,li,,,,Plat,Limburgish
li,,,lim,,Plat,Limburgish
li,,lim,,,Limburgsj,Limburgish
li,li,,,,Limburgsj,Limburgish
li,,,lim,,Limburgsj,Limburgish
li,,lim,,,Limburgs,Limburgish
li,li,,,,Limburgs,Limburgish
li,,,lim,,Limburgs,Limburgish
li,,lim,,,Limburgisj,Limburgish
li,li,,,,Limburgisj,Limburgish
li,,,lim,,Limburgisj,Limburgish
li,,lim,,,LimbÃ¶rgs,Limburgish
li,li,,,,LimbÃ¶rgs,Limburgish
li,,,lim,,LimbÃ¶rgs,Limburgish
li,,lim,,,LÃ¨mburgs,Limburgish
li,li,,,,LÃ¨mburgs,Limburgish
li,,,lim,,LÃ¨mburgs,Limburgish
li,,lim,,,LÃ¨mbÃ¶rgs,Limburgish
li,li,,,,LÃ¨mbÃ¶rgs,Limburgish
li,,,lim,,LÃ¨mbÃ¶rgs,Limburgish
li,,lim,,,Plat,Limburgish
li,li,,,,Plat,Limburgish
li,,,lim,,Plat,Limburgish
lij,,,lij,,Lengoa ligure,Ligurian
lij,,,lij,,Lengoa ligure,Ligurian
liv,,,liv,,lÄ«vÃµ kÄ“Ä¼,Livonian
liv,,,liv,,lÄ«vÃµ kÄ“Ä¼,Livonian
lki,,,lki,,,Laki
lki,,,lki,,,Laki
lki,,,lki,,,Laki
lkt,,,lkt,,LakÈŸÃ³tiyapi,Lakota
lkt,,,lkt,,LakÈŸÃ³tiyapi,Lakota
lkt,,,lkt,,LakÈŸÃ³tiyapi,Lakota
lld,,,lld,,,Ladin
lld,,,lld,,,Ladin
lmo,,,lmo,,Lengua lombarda,Lombard
lmo,,,lmo,,Lengua lombarda,Lombard
ln,,,lin,,LingÃ¡la,Lingala
ln,,,lin,,Lingala,Lingala
ln,,lin,,,LingÃ¡la,Lingala
ln,ln,,,,LingÃ¡la,Lingala
ln,,lin,,,Lingala,Lingala
ln,ln,,,,Lingala,Lingala
ln,,lin,,,LingÃ¡la,Lingala
ln,,lin,,,Lingala,Lingala
ln,ln,,,,LingÃ¡la,Lingala
ln,,,lin,,LingÃ¡la,Lingala
ln,ln,,,,Lingala,Lingala
ln,,,lin,,Lingala,Lingala
lo,,,lao,,àºàº²àºªàº²àº¥àº²àº§,Lao
lo,,,lao,,àº¥àº²àº§,Lao
lo,,lao,,,àºàº²àºªàº²àº¥àº²àº§,Lao
lo,lo,,,,àºàº²àºªàº²àº¥àº²àº§,Lao
lo,,lao,,,àº¥àº²àº§,Lao
lo,lo,,,,àº¥àº²àº§,Lao
lo,,lao,,,àºàº²àºªàº²àº¥àº²àº§,Lao
lo,,lao,,,àº¥àº²àº§,Lao
lo,lo,,,,àºàº²àºªàº²àº¥àº²àº§,Lao
lo,,,lao,,àºàº²àºªàº²àº¥àº²àº§,Lao
lo,lo,,,,àº¥àº²àº§,Lao
lo,,,lao,,àº¥àº²àº§,Lao
loz,,loz,,,,Lozi
loz,,,loz,,,Lozi
loz,,loz,,,,Lozi
loz,,,loz,,,Lozi
lrc,,,lrc,,Ù„ÛŠØ±ÛŒ,Northern Luri
lrc,,,lrc,,Ù„ÛŠØ±ÛŒ,Northern Luri
lt,,lit,,,LietuviÅ³ kalba,Lithuanian
lt,,lit,,,LietuviÅ¡kai,Lithuanian
lt,,lit,,,LietuviÅ³ kalba,Lithuanian
lt,,lit,,,LietuviÅ¡kai,Lithuanian
lt,,,lit,,LietuviÅ³ kalba,Lithuanian
lt,,,lit,,LietuviÅ¡kai,Lithuanian
lt,lt,,,,LietuviÅ³ kalba,Lithuanian
lt,lt,,,,LietuviÅ¡kai,Lithuanian
lt,lt,,,,LietuviÅ³ kalba,Lithuanian
lt,,,lit,,LietuviÅ³ kalba,Lithuanian
lt,lt,,,,LietuviÅ¡kai,Lithuanian
lt,,,lit,,LietuviÅ¡kai,Lithuanian
ltg,,,ltg,,latgaÄ¼u volÅ«da,Latgalian
ltg,,,ltg,,LatgaliÅ¡u,Latgalian
ltg,,,ltg,,latgaÄ¼u volÅ«da,Latgalian
ltg,,,ltg,,LatgaliÅ¡u,Latgalian
lus,,,lus,,Mizo á¹­awng,Mizo
lus,,,lus,,mizo,Mizo
lus,,lus,,,Mizo á¹­awng,Mizo
lus,,lus,,,mizo,Mizo
lus,,lus,,,Mizo á¹­awng,Mizo
lus,,lus,,,mizo,Mizo
lus,,,lus,,Mizo á¹­awng,Mizo
lus,,,lus,,mizo,Mizo
luz,,,luz,,Ù„Ø±ÛŒ Ø¯ÛŠÙ…Ù†ÛŒ,Southern Luri
luz,,,luz,,Ù„Ø±ÛŒ Ø¯ÛŠÙ…Ù†ÛŒ,Southern Luri
lv,,lav,,,latvieÅ¡u valoda,Latvian
lv,,lav,,,latvieÅ¡u valoda,Latvian
lv,,,lav,,latvieÅ¡u valoda,Latvian
lv,,,lvs,,latvieÅ¡u valoda,Latvian
lv,lv,,,,latvieÅ¡u valoda,Latvian
lv,lv,,,,latvieÅ¡u valoda,Latvian
lv,,,lav,,latvieÅ¡u valoda,Latvian
lv,,,lvs,,latvieÅ¡u valoda,Latvian
lv,,lav,,,latvieÅ¡u valoda,Latvian
lv,lv,,,,latvieÅ¡u valoda,Latvian
lv,,,lav,,latvieÅ¡u valoda,Latvian
lv,,,lvs,,latvieÅ¡u valoda,Latvian
lzh,,,lzh,,æ–‡è¨€æ–‡,Classical Chinese
lzh,,,lzh,,æ–‡è¨€æ–‡,Classical Chinese
lzz,,,lzz,,áƒšáƒáƒ–áƒ£áƒ áƒ˜,Laz
lzz,,,lzz,,Lazuri,Laz
lzz,,,lzz,,áƒšáƒáƒ–áƒ£áƒ áƒ˜,Laz
lzz,,,lzz,,Lazuri,Laz
mad,,mad,,,ê¦§ê¦±ê¦´ê¦©ê¦ê¦¸ê¦«ê¦´,Madurese
mad,,mad,,,Ø¨ÙÙ‡Ø§Ø³Ù Ù…ÙØ¯ÙˆØ±Ø§,Madurese
mad,,mad,,,BhÃ¢sa MadhurÃ¢,Madurese
mad,,,mad,,ê¦§ê¦±ê¦´ê¦©ê¦ê¦¸ê¦«ê¦´,Madurese
mad,,,mad,,Ø¨ÙÙ‡Ø§Ø³Ù Ù…ÙØ¯ÙˆØ±Ø§,Madurese
mad,,,mad,,BhÃ¢sa MadhurÃ¢,Madurese
mai,,mai,,,à¤®à¥ˆà¤¥à¤¿à¤²à¥€,Maithili
mai,,mai,,,à¤®à¥ˆà¤¥à¤¿à¤²à¥€,Maithili
mai,,,mai,,à¤®à¥ˆà¤¥à¤¿à¤²à¥€,Maithili
mai,,,mai,,à¤®à¥ˆà¤¥à¤¿à¤²à¥€,Maithili
mdf,,mdf,,,ĞœĞ¾ĞºÑˆĞµĞ½ÑŒ ĞºÑĞ»ÑŒ,Moksha
mdf,,mdf,,,ĞœĞ¾ĞºÑˆĞµĞ½ÑŒ ĞºÑĞ»ÑŒ,Moksha
mdf,,,mdf,,ĞœĞ¾ĞºÑˆĞµĞ½ÑŒ ĞºÑĞ»ÑŒ,Moksha
mdf,,,mdf,,ĞœĞ¾ĞºÑˆĞµĞ½ÑŒ ĞºÑĞ»ÑŒ,Moksha
mfe,,,mfe,,,Mauritian Creole
mfe,,,mfe,,,Mauritian Creole
mfe,,,mfe,,,Mauritian Creole
mg,,mlg,,,Fiteny malagasy,Malagasy
mg,,mlg,,,Fiteny malagasy,Malagasy
mg,,,mlg,,Fiteny malagasy,Malagasy
mg,mg,,,,Fiteny malagasy,Malagasy
mg,mg,,,,Fiteny malagasy,Malagasy
mg,,,mlg,,Fiteny malagasy,Malagasy
mg,,mlg,,,Fiteny malagasy,Malagasy
mg,mg,,,,Fiteny malagasy,Malagasy
mg,,,mlg,,Fiteny malagasy,Malagasy
mh,,,mah,,Kajin MÌ§ajeÄ¼,Marshallese
mh,,mah,,,Kajin MÌ§ajeÄ¼,Marshallese
mh,mh,,,,Kajin MÌ§ajeÄ¼,Marshallese
mh,,,mah,,Kajin MÌ§ajeÄ¼,Marshallese
mh,,mah,,,Kajin MÌ§ajeÄ¼,Marshallese
mh,mh,,,,Kajin MÌ§ajeÄ¼,Marshallese
mhr,,,mhr,,ĞĞ»Ñ‹ĞºĞ¼Ğ°Ñ€Ğ¸Ğ¹ Ğ¹Ñ‹Ğ»Ğ¼Ğµ,Meadow Mari
mhr,,,mhr,,Ğ¾Ğ»Ñ‹Ğº Ğ¼Ğ°Ñ€Ğ¸Ğ¹ Ğ¹Ñ‹Ğ»Ğ¼Ğµ (Olyk Marij jylme),Meadow Mari
mhr,,,mhr,,Ğ¾Ğ»Ñ‹Ğº Ğ¼Ğ°Ñ€Ğ¸Ğ¹ (Olyk Marij),Meadow Mari
mhr,,,mhr,,ĞĞ»Ñ‹ĞºĞ¼Ğ°Ñ€Ğ¸Ğ¹ Ğ¹Ñ‹Ğ»Ğ¼Ğµ,Meadow Mari
mhr,,,mhr,,Ğ¾Ğ»Ñ‹Ğº Ğ¼Ğ°Ñ€Ğ¸Ğ¹ Ğ¹Ñ‹Ğ»Ğ¼Ğµ (Olyk Marij jylme),Meadow Mari
mhr,,,mhr,,Ğ¾Ğ»Ñ‹Ğº Ğ¼Ğ°Ñ€Ğ¸Ğ¹ (Olyk Marij),Meadow Mari
mi,,mao,,,Te reo,MÄori
mi,,mri,,,Te reo,MÄori
mi,,mao,,,MÄori,MÄori
mi,,mri,,,MÄori,MÄori
mi,,mao,,,Te reo MÄori,MÄori
mi,,mri,,,Te reo MÄori,MÄori
mi,,mao,,,Te reo,MÄori
mi,,mri,,,Te reo,MÄori
mi,,mao,,,MÄori,MÄori
mi,,mri,,,MÄori,MÄori
mi,,mao,,,Te reo MÄori,MÄori
mi,,mri,,,Te reo MÄori,MÄori
mi,,,mri,,Te reo,MÄori
mi,,,mri,,MÄori,MÄori
mi,,,mri,,Te reo MÄori,MÄori
mi,mi,,,,Te reo,MÄori
mi,mi,,,,MÄori,MÄori
mi,mi,,,,Te reo MÄori,MÄori
mi,mi,,,,Te reo,MÄori
mi,,,mri,,Te reo,MÄori
mi,mi,,,,MÄori,MÄori
mi,,,mri,,MÄori,MÄori
mi,mi,,,,Te reo MÄori,MÄori
mi,,,mri,,Te reo MÄori,MÄori
mic,,,mic,,,Mi'kmaq
mic,,mic,,,,Mi'kmaq
mic,,mic,,,,Mi'kmaq
mic,,,mic,,,Mi'kmaq
min,,min,,,bahasa Minangkabau,Minangkabau
min,,min,,,bahasa Minangkabau,Minangkabau
min,,,min,,bahasa Minangkabau,Minangkabau
min,,,min,,bahasa Minangkabau,Minangkabau
mk,,mac,,,Ğ¼Ğ°ĞºĞµĞ´Ğ¾Ğ½ÑĞºĞ¸ Ñ˜Ğ°Ğ·Ğ¸Ğº,Macedonian
mk,,mkd,,,Ğ¼Ğ°ĞºĞµĞ´Ğ¾Ğ½ÑĞºĞ¸ Ñ˜Ğ°Ğ·Ğ¸Ğº,Macedonian
mk,,mac,,,Ğ¼Ğ°ĞºĞµĞ´Ğ¾Ğ½ÑĞºĞ¸,Macedonian
mk,,mkd,,,Ğ¼Ğ°ĞºĞµĞ´Ğ¾Ğ½ÑĞºĞ¸,Macedonian
mk,,mac,,,Ğ¼Ğ°ĞºĞµĞ´Ğ¾Ğ½ÑĞºĞ¸ Ñ˜Ğ°Ğ·Ğ¸Ğº,Macedonian
mk,,mkd,,,Ğ¼Ğ°ĞºĞµĞ´Ğ¾Ğ½ÑĞºĞ¸ Ñ˜Ğ°Ğ·Ğ¸Ğº,Macedonian
mk,,mac,,,Ğ¼Ğ°ĞºĞµĞ´Ğ¾Ğ½ÑĞºĞ¸,Macedonian
mk,,mkd,,,Ğ¼Ğ°ĞºĞµĞ´Ğ¾Ğ½ÑĞºĞ¸,Macedonian
mk,,,mkd,,Ğ¼Ğ°ĞºĞµĞ´Ğ¾Ğ½ÑĞºĞ¸ Ñ˜Ğ°Ğ·Ğ¸Ğº,Macedonian
mk,,,mkd,,Ğ¼Ğ°ĞºĞµĞ´Ğ¾Ğ½ÑĞºĞ¸,Macedonian
mk,mk,,,,Ğ¼Ğ°ĞºĞµĞ´Ğ¾Ğ½ÑĞºĞ¸ Ñ˜Ğ°Ğ·Ğ¸Ğº,Macedonian
mk,mk,,,,Ğ¼Ğ°ĞºĞµĞ´Ğ¾Ğ½ÑĞºĞ¸,Macedonian
mk,mk,,,,Ğ¼Ğ°ĞºĞµĞ´Ğ¾Ğ½ÑĞºĞ¸ Ñ˜Ğ°Ğ·Ğ¸Ğº,Macedonian
mk,,,mkd,,Ğ¼Ğ°ĞºĞµĞ´Ğ¾Ğ½ÑĞºĞ¸ Ñ˜Ğ°Ğ·Ğ¸Ğº,Macedonian
mk,mk,,,,Ğ¼Ğ°ĞºĞµĞ´Ğ¾Ğ½ÑĞºĞ¸,Macedonian
mk,,,mkd,,Ğ¼Ğ°ĞºĞµĞ´Ğ¾Ğ½ÑĞºĞ¸,Macedonian
ml,,mal,,,à´®à´²à´¯à´¾à´³à´‚,Malayalam
ml,,mal,,,à´®à´²à´¯à´¾à´³à´‚,Malayalam
ml,,,mal,,à´®à´²à´¯à´¾à´³à´‚,Malayalam
ml,ml,,,,à´®à´²à´¯à´¾à´³à´‚,Malayalam
ml,ml,,,,à´®à´²à´¯à´¾à´³à´‚,Malayalam
ml,,,mal,,à´®à´²à´¯à´¾à´³à´‚,Malayalam
ml,,mal,,,à´®à´²à´¯à´¾à´³à´‚,Malayalam
ml,ml,,,,à´®à´²à´¯à´¾à´³à´‚,Malayalam
ml,,,mal,,à´®à´²à´¯à´¾à´³à´‚,Malayalam
mn,mn,,,,á ®á £á ¨á ­á ­á £á ¯ á ¬á ¡á ¯á ¡,Mongolian
mn,,mon,,,á ®á £á ¨á ­á ­á £á ¯ á ¬á ¡á ¯á ¡,Mongolian
mn,,,mon,,á ®á £á ¨á ­á ­á £á ¯ á ¬á ¡á ¯á ¡,Mongolian
mn,mn,,,,ĞœĞ¾Ğ½Ğ³Ğ¾Ğ» Ñ…ÑĞ»,Mongolian
mn,,mon,,,ĞœĞ¾Ğ½Ğ³Ğ¾Ğ» Ñ…ÑĞ»,Mongolian
mn,,,mon,,ĞœĞ¾Ğ½Ğ³Ğ¾Ğ» Ñ…ÑĞ»,Mongolian
mn,mn,,,,á ®á £á ¨á ­á ­á £á ¯ á ¬á ¡á ¯á ¡,Mongolian
mn,,mon,,,á ®á £á ¨á ­á ­á £á ¯ á ¬á ¡á ¯á ¡,Mongolian
mn,mn,,,,ĞœĞ¾Ğ½Ğ³Ğ¾Ğ» Ñ…ÑĞ»,Mongolian
mn,,mon,,,ĞœĞ¾Ğ½Ğ³Ğ¾Ğ» Ñ…ÑĞ»,Mongolian
mn,,,mon,,á ®á £á ¨á ­á ­á £á ¯ á ¬á ¡á ¯á ¡,Mongolian
mn,,,mon,,ĞœĞ¾Ğ½Ğ³Ğ¾Ğ» Ñ…ÑĞ»,Mongolian
mn,mn,,,,á ®á £á ¨á ­á ­á £á ¯ á ¬á ¡á ¯á ¡,Mongolian
mn,,mon,,,á ®á £á ¨á ­á ­á £á ¯ á ¬á ¡á ¯á ¡,Mongolian
mn,,,mon,,á ®á £á ¨á ­á ­á £á ¯ á ¬á ¡á ¯á ¡,Mongolian
mn,mn,,,,ĞœĞ¾Ğ½Ğ³Ğ¾Ğ» Ñ…ÑĞ»,Mongolian
mn,,mon,,,ĞœĞ¾Ğ½Ğ³Ğ¾Ğ» Ñ…ÑĞ»,Mongolian
mn,,,mon,,ĞœĞ¾Ğ½Ğ³Ğ¾Ğ» Ñ…ÑĞ»,Mongolian
mnc,,,mnc,,á ®á  á ¨á µá¡  á¡¤á¡³á °á¡ á ¨,Manchu
mnc,,mnc,,,á ®á  á ¨á µá¡  á¡¤á¡³á °á¡ á ¨,Manchu
mnc,,,mnc,,á ®á  á ¨á µá¡  á¡¤á¡³á °á¡ á ¨,Manchu
mnc,,mnc,,,á ®á  á ¨á µá¡  á¡¤á¡³á °á¡ á ¨,Manchu
mni,,mni,,,ê¯ƒê¯¤ê¯‡ê¯© ê¯‚ê¯£ê¯Ÿ,Meitei
mni,,,mni,,ê¯ƒê¯¤ê¯‡ê¯© ê¯‚ê¯£ê¯Ÿ,Meitei
mni,,mni,,,ê¯ƒê¯¤ê¯‡ê¯© ê¯‚ê¯£ê¯Ÿ,Meitei
mni,,,mni,,ê¯ƒê¯¤ê¯‡ê¯© ê¯‚ê¯£ê¯Ÿ,Meitei
mnw,,,mnw,,á€˜á€¬á€á€¬á€™á€”á€º,Mon
mnw,,,mnw,,á€˜á€¬á€á€¬á€™á€”á€º,Mon
moe,,,moe,,innu-aimun,Innu-aimun
moe,,,moe,,Innu Aimun,Innu-aimun
moe,,,moe,,innu-aimun,Innu-aimun
moe,,,moe,,Innu Aimun,Innu-aimun
mr,mr,,,,à¤®à¤°à¤¾à¤ à¥€ (MarÄá¹­hÄ«),Marathi
mr,mr,,,,à¤®à¤°à¤¾à¤ à¥€,Marathi
mr,,mar,,,à¤®à¤°à¤¾à¤ à¥€ (MarÄá¹­hÄ«),Marathi
mr,,,mar,,à¤®à¤°à¤¾à¤ à¥€ (MarÄá¹­hÄ«),Marathi
mr,,mar,,,à¤®à¤°à¤¾à¤ à¥€,Marathi
mr,,,mar,,à¤®à¤°à¤¾à¤ à¥€,Marathi
mr,mr,,,,à¤®à¤°à¤¾à¤ à¥€ (MarÄá¹­hÄ«),Marathi
mr,,mar,,,à¤®à¤°à¤¾à¤ à¥€ (MarÄá¹­hÄ«),Marathi
mr,mr,,,,à¤®à¤°à¤¾à¤ à¥€,Marathi
mr,,mar,,,à¤®à¤°à¤¾à¤ à¥€,Marathi
mr,,,mar,,à¤®à¤°à¤¾à¤ à¥€ (MarÄá¹­hÄ«),Marathi
mr,,,mar,,à¤®à¤°à¤¾à¤ à¥€,Marathi
mrh,,,mrh,,,Mara
mrh,,,mrh,,,Mara
mrj,,,mrj,,ĞœĞ°Ñ€Ñ‹ Ğ¹Ó¹Ğ»Ğ¼Ó¹,Hill Mari
mrj,,,mrj,,ĞœĞ°Ñ€Ñ‹ Ğ¹Ó¹Ğ»Ğ¼Ó¹,Hill Mari
ms,ms,,,,Bahasa Melayu,Malay
ms,,msa,,,Bahasa Melayu,Malay
ms,,may,,,Bahasa Melayu,Malay
ms,,,msa,,Bahasa Melayu,Malay
ms,ms,,,,Bahasa Melayu,Malay
ms,,msa,,,Bahasa Melayu,Malay
ms,,may,,,Bahasa Melayu,Malay
ms,,,msa,,Bahasa Melayu,Malay
ms,ms,,,,Bahasa Melayu,Malay
ms,,msa,,,Bahasa Melayu,Malay
ms,,may,,,Bahasa Melayu,Malay
ms,,,msa,,Bahasa Melayu,Malay
mt,mt,,,,Malti,Maltese
mt,,mlt,,,Malti,Maltese
mt,,,mlt,,Malti,Maltese
mt,mt,,,,Malti,Maltese
mt,,mlt,,,Malti,Maltese
mt,,,mlt,,Malti,Maltese
mt,mt,,,,Malti,Maltese
mt,,mlt,,,Malti,Maltese
mt,,,mlt,,Malti,Maltese
mui,,,mui,,bahasa Musi,Musi
mui,,,mui,,bahasa Musi,Musi
mus,,,mus,,Mvskoke,Muscogee
mus,,mus,,,Mvskoke,Muscogee
mus,,,mus,,Mvskoke,Muscogee
mus,,mus,,,Mvskoke,Muscogee
mwl,,mwl,,,MirandÃ©s,Mirandese
mwl,,,mwl,,MirandÃ©s,Mirandese
mwl,,mwl,,,lhÃ©ngua/lÃ©ngua mirandesa,Mirandese
mwl,,,mwl,,lhÃ©ngua/lÃ©ngua mirandesa,Mirandese
mwl,,mwl,,,MirandÃ©s,Mirandese
mwl,,mwl,,,lhÃ©ngua/lÃ©ngua mirandesa,Mirandese
mwl,,,mwl,,MirandÃ©s,Mirandese
mwl,,,mwl,,lhÃ©ngua/lÃ©ngua mirandesa,Mirandese
mwv,,,mwv,,bahasa Mentawai,Mentawai
mwv,,,mwv,,bahasa Mentawai,Mentawai
my,my,,,,á€™á€¼á€”á€ºá€™á€¬á€˜á€¬á€á€¬á€…á€€á€¬á€¸,Burmese
my,,mya,,,á€™á€¼á€”á€ºá€™á€¬á€˜á€¬á€á€¬á€…á€€á€¬á€¸,Burmese
my,,bur,,,á€™á€¼á€”á€ºá€™á€¬á€˜á€¬á€á€¬á€…á€€á€¬á€¸,Burmese
my,,,mya,,á€™á€¼á€”á€ºá€™á€¬á€˜á€¬á€á€¬á€…á€€á€¬á€¸,Burmese
my,my,,,,á€™á€¼á€”á€ºá€™á€¬á€˜á€¬á€á€¬á€…á€€á€¬á€¸,Burmese
my,,mya,,,á€™á€¼á€”á€ºá€™á€¬á€˜á€¬á€á€¬á€…á€€á€¬á€¸,Burmese
my,,bur,,,á€™á€¼á€”á€ºá€™á€¬á€˜á€¬á€á€¬á€…á€€á€¬á€¸,Burmese
my,,,mya,,á€™á€¼á€”á€ºá€™á€¬á€˜á€¬á€á€¬á€…á€€á€¬á€¸,Burmese
myv,,myv,,,Ğ­Ñ€Ğ·ÑĞ½ÑŒ ĞºĞµĞ»ÑŒ,Erzya
myv,,,myv,,Ğ­Ñ€Ğ·ÑĞ½ÑŒ ĞºĞµĞ»ÑŒ,Erzya
myv,,myv,,,Ğ­Ñ€Ğ·ÑĞ½ÑŒ ĞºĞµĞ»ÑŒ,Erzya
myv,,,myv,,Ğ­Ñ€Ğ·ÑĞ½ÑŒ ĞºĞµĞ»ÑŒ,Erzya
mzn,,,mzn,,Ù…Ø§Ø²Ø±ÙˆÙ†ÛŒ Ø²Ø¨ÙˆÙ†,Mazanderani
mzn,,,mzn,,Ù…Ø§Ø²Ø±ÙˆÙ†ÛŒ (Mazuroni),Mazanderani
mzn,,,mzn,,Ø·Ø¨Ø±ÛŒ (Tabari),Mazanderani
mzn,,,mzn,,Ù…Ø§Ø²Ø±ÙˆÙ†ÛŒ Ø²Ø¨ÙˆÙ†,Mazanderani
mzn,,,mzn,,Ù…Ø§Ø²Ø±ÙˆÙ†ÛŒ (Mazuroni),Mazanderani
mzn,,,mzn,,Ø·Ø¨Ø±ÛŒ (Tabari),Mazanderani
na,na,,,,Dorerin Naoero,Nauruan
na,,nau,,,Dorerin Naoero,Nauruan
na,,,nau,,Dorerin Naoero,Nauruan
na,na,,,,dorerin Naoero,Nauruan
na,,nau,,,dorerin Naoero,Nauruan
na,,,nau,,dorerin Naoero,Nauruan
na,na,,,,Dorerin Naoero,Nauruan
na,,nau,,,Dorerin Naoero,Nauruan
na,,,nau,,Dorerin Naoero,Nauruan
na,na,,,,dorerin Naoero,Nauruan
na,,nau,,,dorerin Naoero,Nauruan
na,,,nau,,dorerin Naoero,Nauruan
nah,,nah,,,nawatl,Nahuatl
nah,,nah,,,mexkatl,Nahuatl
nah,,nah,,,Nawatlahtolli,Nahuatl
nan,,,nan,,é—½å—è¯­,Southern Min
nan,,,nan,,é–©å—èª,Southern Min
nan,,,nan,,BÃ¢n-lÃ¢m-gÃº,Southern Min
nan,,,nan,,BÃ¢n-lÃ¢m-gÃ­,Southern Min
nan,,,nan,,é—½å—è¯­,Southern Min
nan,,,nan,,é–©å—èª,Southern Min
nan,,,nan,,BÃ¢n-lÃ¢m-gÃº,Southern Min
nan,,,nan,,BÃ¢n-lÃ¢m-gÃ­,Southern Min
nap,,nap,,,Lengua napulitana,Neapolitan
nap,,,nap,,Lengua napulitana,Neapolitan
nap,,nap,,,Lengua napulitana,Neapolitan
nap,,,nap,,Lengua napulitana,Neapolitan
nb,nb,,,,bokmÃ¥l,BokmÃ¥l
nb,,nob,,,bokmÃ¥l,BokmÃ¥l
nb,,,nob,,bokmÃ¥l,BokmÃ¥l
nb,nb,,,,bokmÃ¥l,BokmÃ¥l
nb,,nob,,,bokmÃ¥l,BokmÃ¥l
nb,,,nob,,bokmÃ¥l,BokmÃ¥l
nb,nb,,,,bokmÃ¥l,BokmÃ¥l
nb,,nob,,,bokmÃ¥l,BokmÃ¥l
nb,,,nob,,bokmÃ¥l,BokmÃ¥l
nb,nb,,,,bokmÃ¥l,BokmÃ¥l
nb,,nob,,,bokmÃ¥l,BokmÃ¥l
nb,,,nob,,bokmÃ¥l,BokmÃ¥l
nds,,nds,,,PlattdÃ¼Ã¼tsch,Low German
nds,,,nds,,PlattdÃ¼Ã¼tsch,Low German
nds,,nds,,,PlattdÃ¼tsk,Low German
nds,,,nds,,PlattdÃ¼tsk,Low German
nds,,nds,,,PlattdÃ¼tsch,Low German
nds,,,nds,,PlattdÃ¼tsch,Low German
nds,,nds,,,NiedersÃ¤chsisch,Low German
nds,,,nds,,NiedersÃ¤chsisch,Low German
nds,,nds,,,PlattdÃ¼Ã¼tsch,Low German
nds,,nds,,,PlattdÃ¼tsk,Low German
nds,,nds,,,PlattdÃ¼tsch,Low German
nds,,nds,,,NiedersÃ¤chsisch,Low German
nds,,nds,,,PlattdÃ¼Ã¼tsch,Low German
nds,,,nds,,PlattdÃ¼Ã¼tsch,Low German
nds,,nds,,,PlattdÃ¼tsk,Low German
nds,,,nds,,PlattdÃ¼tsk,Low German
nds,,nds,,,PlattdÃ¼tsch,Low German
nds,,,nds,,PlattdÃ¼tsch,Low German
nds,,nds,,,NiedersÃ¤chsisch,Low German
nds,,,nds,,NiedersÃ¤chsisch,Low German
nds,,,nds,,PlattdÃ¼Ã¼tsch,Low German
nds,,,nds,,PlattdÃ¼tsk,Low German
nds,,,nds,,PlattdÃ¼tsch,Low German
nds,,,nds,,NiedersÃ¤chsisch,Low German
ne,ne,,,,à¤¨à¥‡à¤ªà¤¾à¤²à¥€ à¤­à¤¾à¤·à¤¾,Nepali
ne,,nep,,,à¤¨à¥‡à¤ªà¤¾à¤²à¥€ à¤­à¤¾à¤·à¤¾,Nepali
ne,,,nep,,à¤¨à¥‡à¤ªà¤¾à¤²à¥€ à¤­à¤¾à¤·à¤¾,Nepali
ne,ne,,,,à¤¨à¥‡à¤ªà¤¾à¤²à¥€ à¤­à¤¾à¤·à¤¾,Nepali
ne,,nep,,,à¤¨à¥‡à¤ªà¤¾à¤²à¥€ à¤­à¤¾à¤·à¤¾,Nepali
ne,,,nep,,à¤¨à¥‡à¤ªà¤¾à¤²à¥€ à¤­à¤¾à¤·à¤¾,Nepali
ne,ne,,,,à¤¨à¥‡à¤ªà¤¾à¤²à¥€ à¤­à¤¾à¤·à¤¾,Nepali
ne,,nep,,,à¤¨à¥‡à¤ªà¤¾à¤²à¥€ à¤­à¤¾à¤·à¤¾,Nepali
ne,,,nep,,à¤¨à¥‡à¤ªà¤¾à¤²à¥€ à¤­à¤¾à¤·à¤¾,Nepali
new,,new,,,à¤¨à¥‡à¤µà¤¾à¤ƒ à¤­à¤¾à¤¯à¥ (Newah Bhaaye),Newar
new,,,new,,à¤¨à¥‡à¤µà¤¾à¤ƒ à¤­à¤¾à¤¯à¥ (Newah Bhaaye),Newar
new,,new,,,à¤¨à¥‡à¤µà¤¾à¤ƒ à¤­à¤¾à¤¯à¥,Newar
new,,,new,,à¤¨à¥‡à¤µà¤¾à¤ƒ à¤­à¤¾à¤¯à¥,Newar
new,,new,,,à¤¨à¥‡à¤µà¤¾à¤ƒ à¤­à¤¾à¤¯à¥ (Newah Bhaaye),Newar
new,,new,,,à¤¨à¥‡à¤µà¤¾à¤ƒ à¤­à¤¾à¤¯à¥,Newar
new,,,new,,à¤¨à¥‡à¤µà¤¾à¤ƒ à¤­à¤¾à¤¯à¥ (Newah Bhaaye),Newar
new,,,new,,à¤¨à¥‡à¤µà¤¾à¤ƒ à¤­à¤¾à¤¯à¥,Newar
ng,ng,,,,Ndonga,Ndonga
ng,,,ndo,,Ndonga,Ndonga
ng,,ndo,,,Ndonga,Ndonga
ng,ng,,,,Ndonga,Ndonga
ng,,,ndo,,Ndonga,Ndonga
ng,,ndo,,,Ndonga,Ndonga
nia,,nia,,,bahasa Batu,Nias
nia,,,nia,,bahasa Batu,Nias
nia,,nia,,,bahasa Batu,Nias
nia,,,nia,,bahasa Batu,Nias
niu,,,niu,,Vagahau NiuÄ“,Niuean
niu,,,niu,,ko e vagahau NiuÄ“,Niuean
niu,,niu,,,Vagahau NiuÄ“,Niuean
niu,,niu,,,ko e vagahau NiuÄ“,Niuean
niu,,,niu,,Vagahau NiuÄ“,Niuean
niu,,,niu,,ko e vagahau NiuÄ“,Niuean
niu,,niu,,,Vagahau NiuÄ“,Niuean
niu,,niu,,,ko e vagahau NiuÄ“,Niuean
nl,nl,,,,"Vlaams, Nederlands",Dutch
nl,,dut,,,"Vlaams, Nederlands",Dutch
nl,,nld,,,"Vlaams, Nederlands",Dutch
nl,,,nld,,"Vlaams, Nederlands",Dutch
nl,nl,,,,Hollands,Dutch
nl,,dut,,,Hollands,Dutch
nl,,nld,,,Hollands,Dutch
nl,,,nld,,Hollands,Dutch
nl,nl,,,,Nederlands,Dutch
nl,,dut,,,Nederlands,Dutch
nl,,nld,,,Nederlands,Dutch
nl,,,nld,,Nederlands,Dutch
nl,nl,,,,"Vlaams, Nederlands",Dutch
nl,,dut,,,"Vlaams, Nederlands",Dutch
nl,,nld,,,"Vlaams, Nederlands",Dutch
nl,,,nld,,"Vlaams, Nederlands",Dutch
nl,nl,,,,Hollands,Dutch
nl,,dut,,,Hollands,Dutch
nl,,nld,,,Hollands,Dutch
nl,,,nld,,Hollands,Dutch
nl,nl,,,,Nederlands,Dutch
nl,,dut,,,Nederlands,Dutch
nl,,nld,,,Nederlands,Dutch
nl,,,nld,,Nederlands,Dutch
nn,nn,,,,Nynorsk,Nynorsk
nn,,,nno,,Nynorsk,Nynorsk
nn,,nno,,,Nynorsk,Nynorsk
nn,nn,,,,Nynorsk,Nynorsk
nn,,,nno,,Nynorsk,Nynorsk
nn,,nno,,,Nynorsk,Nynorsk
nn,nn,,,,Nynorsk,Nynorsk
nn,,,nno,,Nynorsk,Nynorsk
nn,,nno,,,Nynorsk,Nynorsk
nn,nn,,,,Nynorsk,Nynorsk
nn,,,nno,,Nynorsk,Nynorsk
nn,,nno,,,Nynorsk,Nynorsk
no,,,nor,,norsk,Norwegian
no,no,,,,norsk,Norwegian
no,,nor,,,norsk,Norwegian
no,,,nor,,norsk,Norwegian
no,no,,,,norsk,Norwegian
no,,nor,,,norsk,Norwegian
no,,,nor,,norsk,Norwegian
no,no,,,,norsk,Norwegian
no,,nor,,,norsk,Norwegian
nod,,,nod,,á¨£á©¤á©´á¨¾á©®á©¬á©¥á¨¦,Northern Thai
nod,,,nod,,à¸„à¸³à¹€à¸¡à¸·à¸­à¸‡ (Kam Mueang),Northern Thai
nod,,,nod,,á¨£á©¤á©´á¨¾á©®á©¬á©¥á¨¦,Northern Thai
nod,,,nod,,à¸„à¸³à¹€à¸¡à¸·à¸­à¸‡ (Kam Mueang),Northern Thai
nod,,,nod,,á¨£á©¤á©´á¨¾á©®á©¬á©¥á¨¦,Northern Thai
nod,,,nod,,à¸„à¸³à¹€à¸¡à¸·à¸­à¸‡ (Kam Mueang),Northern Thai
nog,,,nog,,Ğ½Ğ¾Ğ³Ğ°Ğ¹ Ñ‚Ğ¸Ğ»Ğ¸,Nogai
nog,,nog,,,Ğ½Ğ¾Ğ³Ğ°Ğ¹ Ñ‚Ğ¸Ğ»Ğ¸,Nogai
nog,,nog,,,Ğ½Ğ¾Ğ³Ğ°Ğ¹ Ñ‚Ğ¸Ğ»Ğ¸,Nogai
nog,,,nog,,Ğ½Ğ¾Ğ³Ğ°Ğ¹ Ñ‚Ğ¸Ğ»Ğ¸,Nogai
non,,non,,,,Old Norse
non,,,non,,,Old Norse
non,,non,,,,Old Norse
non,,,non,,,Old Norse
non,,non,,,,Old Norse
non,,,non,,,Old Norse
nov,,,nov,,Novial,Novial
nov,,,nov,,Novial,Novial
nov,,,nov,,Novial,Novial
nqo,,,nqo,,,N'Ko
nqo,,nqo,,,,N'Ko
nqo,,,nqo,,,N'Ko
nqo,,nqo,,,,N'Ko
nr,,,nbl,,IsiNdebele,Southern Ndebele
nr,nr,,,,IsiNdebele,Southern Ndebele
nr,,nbl,,,IsiNdebele,Southern Ndebele
nr,,,nbl,,IsiNdebele,Southern Ndebele
nr,,nbl,,,IsiNdebele,Southern Ndebele
nr,nr,,,,IsiNdebele,Southern Ndebele
nrm,,,nrf,,Normaund,Norman
nsk,,,nsk,,,Naskapi
nsk,,,nsk,,,Naskapi
nso,,,nso,,Sesotho sa Leboa,Northern Sotho
nso,,nso,,,Sesotho sa Leboa,Northern Sotho
nso,,,nso,,Sepedi,Northern Sotho
nso,,nso,,,Sepedi,Northern Sotho
nso,,,nso,,Sesotho sa Leboa,Northern Sotho
nso,,,nso,,Sepedi,Northern Sotho
nso,,nso,,,Sesotho sa Leboa,Northern Sotho
nso,,nso,,,Sepedi,Northern Sotho
nui,,,nui,,,Kombe
nui,,,nui,,,Kombe
nv,nv,,,,DinÃ© bizaad,Navajo
nv,,,nav,,DinÃ© bizaad,Navajo
nv,,nav,,,DinÃ© bizaad,Navajo
nv,nv,,,,DinÃ©,Navajo
nv,,,nav,,DinÃ©,Navajo
nv,,nav,,,DinÃ©,Navajo
nv,nv,,,,DinÃ© bizaad,Navajo
nv,,,nav,,DinÃ© bizaad,Navajo
nv,,nav,,,DinÃ© bizaad,Navajo
nv,nv,,,,DinÃ©,Navajo
nv,,,nav,,DinÃ©,Navajo
nv,,nav,,,DinÃ©,Navajo
nv,nv,,,,DinÃ© bizaad,Navajo
nv,,,nav,,DinÃ© bizaad,Navajo
nv,nv,,,,DinÃ©,Navajo
nv,,,nav,,DinÃ©,Navajo
nv,,nav,,,DinÃ© bizaad,Navajo
nv,,nav,,,DinÃ©,Navajo
nxm,,,nxm,,,Numidian
nxm,,,nxm,,,Numidian
ny,ny,,,,Chilankhulo cha Chichewa,Chewa
ny,,,nya,,Chilankhulo cha Chichewa,Chewa
ny,,nya,,,Chilankhulo cha Chichewa,Chewa
ny,ny,,,,ChicheÅµa,Chewa
ny,,,nya,,ChicheÅµa,Chewa
ny,,nya,,,ChicheÅµa,Chewa
ny,ny,,,,Chilankhulo cha Chichewa,Chewa
ny,,,nya,,Chilankhulo cha Chichewa,Chewa
ny,ny,,,,ChicheÅµa,Chewa
ny,,,nya,,ChicheÅµa,Chewa
ny,,nya,,,Chilankhulo cha Chichewa,Chewa
ny,,nya,,,ChicheÅµa,Chewa
nys,,,nys,,,Noongar
nys,,,nys,,,Noongar
oc,oc,,,,Occitan,Occitan
oc,,,oci,,Occitan,Occitan
oc,,oci,,,Occitan,Occitan
oc,oc,,,,Occitan,Occitan
oc,,,oci,,Occitan,Occitan
oc,,oci,,,Occitan,Occitan
oj,oj,,,,,Ojibwe
oj,,,oji,,,Ojibwe
oj,,oji,,,,Ojibwe
oj,oj,,,,,Ojibwe
oj,,,oji,,,Ojibwe
oj,,oji,,,,Ojibwe
oj,oj,,,,,Ojibwe
oj,,,oji,,,Ojibwe
oj,,oji,,,,Ojibwe
oj,oj,,,,,Ojibwe
oj,,,oji,,,Ojibwe
oj,,oji,,,,Ojibwe
olo,,,olo,,Livvinkarjala,Livvi-Karelian
olo,,,olo,,Livvin kieli,Livvi-Karelian
olo,,,olo,,Livvinkarjala,Livvi-Karelian
olo,,,olo,,Livvin kieli,Livvi-Karelian
om,om,,,,Afaan Oromoo,Oromo
om,,,orm,,Afaan Oromoo,Oromo
om,,orm,,,Afaan Oromoo,Oromo
om,om,,,,Afaan Oromoo,Oromo
om,,,orm,,Afaan Oromoo,Oromo
om,,orm,,,Afaan Oromoo,Oromo
om,om,,,,Afaan Oromoo,Oromo
om,,,orm,,Afaan Oromoo,Oromo
om,,orm,,,Afaan Oromoo,Oromo
ood,,,ood,,Tohono Oâ€™otham,O'odham
ood,,,ood,,Tohono Oâ€™otham,O'odham
or,or,,,,à¬“à¬¡à¬¼à¬¿à¬† à¬­à¬¾à¬·à¬¾,Odia
or,,,ory,,à¬“à¬¡à¬¼à¬¿à¬† à¬­à¬¾à¬·à¬¾,Odia
or,,ori,,,à¬“à¬¡à¬¼à¬¿à¬† à¬­à¬¾à¬·à¬¾,Odia
or,or,,,,à¬“à¬¡à¬¼à¬¿à¬†,Odia
or,,,ory,,à¬“à¬¡à¬¼à¬¿à¬†,Odia
or,,ori,,,à¬“à¬¡à¬¼à¬¿à¬†,Odia
or,or,,,,à¬“à¬¡à¬¼à¬¿à¬† à¬­à¬¾à¬·à¬¾,Odia
or,,,ory,,à¬“à¬¡à¬¼à¬¿à¬† à¬­à¬¾à¬·à¬¾,Odia
or,or,,,,à¬“à¬¡à¬¼à¬¿à¬†,Odia
or,,,ory,,à¬“à¬¡à¬¼à¬¿à¬†,Odia
or,,ori,,,à¬“à¬¡à¬¼à¬¿à¬† à¬­à¬¾à¬·à¬¾,Odia
or,,ori,,,à¬“à¬¡à¬¼à¬¿à¬†,Odia
os,os,,,,Ğ˜Ñ€Ğ¾Ğ½ Ó•Ğ²Ğ·Ğ°Ğ³,Ossetian
os,,,oss,,Ğ˜Ñ€Ğ¾Ğ½ Ó•Ğ²Ğ·Ğ°Ğ³,Ossetian
os,,oss,,,Ğ˜Ñ€Ğ¾Ğ½ Ó•Ğ²Ğ·Ğ°Ğ³,Ossetian
os,os,,,,Ğ˜Ñ€Ğ¾Ğ½ Ó•Ğ²Ğ·Ğ°Ğ³,Ossetian
os,,,oss,,Ğ˜Ñ€Ğ¾Ğ½ Ó•Ğ²Ğ·Ğ°Ğ³,Ossetian
os,,oss,,,Ğ˜Ñ€Ğ¾Ğ½ Ó•Ğ²Ğ·Ğ°Ğ³,Ossetian
osa,,,osa,,WaÅ¾Ã¡Å¾e ie,Osage
osa,,,osa,,ğ“ğ’°ğ““ğ’°ğ““ğ’· ğ’»ğ’·,Osage
osa,,osa,,,WaÅ¾Ã¡Å¾e ie,Osage
osa,,osa,,,ğ“ğ’°ğ““ğ’°ğ““ğ’· ğ’»ğ’·,Osage
osa,,,osa,,WaÅ¾Ã¡Å¾e ie,Osage
osa,,,osa,,ğ“ğ’°ğ““ğ’°ğ““ğ’· ğ’»ğ’·,Osage
osa,,osa,,,WaÅ¾Ã¡Å¾e ie,Osage
osa,,osa,,,ğ“ğ’°ğ““ğ’°ğ““ğ’· ğ’»ğ’·,Osage
ota,,,ota,,Ù„Ø³Ø§Ù† Ø¹Ø«Ù…Ø§Ù†Ù‰,Ottoman Turkish
ota,,ota,,,Ù„Ø³Ø§Ù† Ø¹Ø«Ù…Ø§Ù†Ù‰,Ottoman Turkish
ota,,,ota,,Ù„Ø³Ø§Ù† Ø¹Ø«Ù…Ø§Ù†Ù‰,Ottoman Turkish
ota,,ota,,,Ù„Ø³Ø§Ù† Ø¹Ø«Ù…Ø§Ù†Ù‰,Ottoman Turkish
otk,,,otk,,,Old Turkic
otk,,,otk,,,Old Turkic
ovd,,,ovd,,,Elfdalian
ovd,,,ovd,,,Elfdalian
pa,pa,,,,Ù¾Ù†Ø¬Ø§Ø¨ÛŒ,Punjabi
pa,,,pnb,,Ù¾Ù†Ø¬Ø§Ø¨ÛŒ,Punjabi
pa,,,pan,,Ù¾Ù†Ø¬Ø§Ø¨ÛŒ,Punjabi
pa,,pan,,,Ù¾Ù†Ø¬Ø§Ø¨ÛŒ,Punjabi
pa,pa,,,,à¨ªà©°à¨œà¨¾à¨¬à©€,Punjabi
pa,,,pnb,,à¨ªà©°à¨œà¨¾à¨¬à©€,Punjabi
pa,,,pan,,à¨ªà©°à¨œà¨¾à¨¬à©€,Punjabi
pa,,pan,,,à¨ªà©°à¨œà¨¾à¨¬à©€,Punjabi
pa,pa,,,,Ù¾Ù†Ø¬Ø§Ø¨ÛŒ,Punjabi
pa,,,pnb,,Ù¾Ù†Ø¬Ø§Ø¨ÛŒ,Punjabi
pa,,,pan,,Ù¾Ù†Ø¬Ø§Ø¨ÛŒ,Punjabi
pa,pa,,,,à¨ªà©°à¨œà¨¾à¨¬à©€,Punjabi
pa,,,pnb,,à¨ªà©°à¨œà¨¾à¨¬à©€,Punjabi
pa,,,pan,,à¨ªà©°à¨œà¨¾à¨¬à©€,Punjabi
pa,,pan,,,Ù¾Ù†Ø¬Ø§Ø¨ÛŒ,Punjabi
pa,,pan,,,à¨ªà©°à¨œà¨¾à¨¬à©€,Punjabi
pag,,,pag,,Selitan pangasinan,Pangasinan
pag,,pag,,,Selitan pangasinan,Pangasinan
pag,,,pag,,Selitan pangasinan,Pangasinan
pag,,pag,,,Selitan pangasinan,Pangasinan
pam,,,pam,,KapampÃ¡ngan,Kapampangan
pap,,,pap,,Papiamentu,Papiamento
pap,,pap,,,Papiamentu,Papiamento
pap,,,pap,,Papiamentu,Papiamento
pap,,pap,,,Papiamentu,Papiamento
pap,,,pap,,Papiamentu,Papiamento
pap,,,pap,,Papiamentu,Papiamento
pap,,pap,,,Papiamentu,Papiamento
pap,,pap,,,Papiamentu,Papiamento
pcd,,,pcd,,picard,Picard
pcd,,,pcd,,picard,Picard
pdc,,,pdc,,Pennsilfaanisch Deitsch,Pennsylvania German
pdc,,,pdc,,Pennsylvania Dutch,Pennsylvania German
pdc,,,pdc,,Pennsilfaanisch Deitsch,Pennsylvania German
pdc,,,pdc,,Pennsylvania Dutch,Pennsylvania German
pdc,,,pdc,,Pennsilfaanisch Deitsch,Pennsylvania German
pdc,,,pdc,,Pennsylvania Dutch,Pennsylvania German
pdt,,,pdt,,Plautdietsch,Plautdietsch
pdt,,,pdt,,Plautdietsch,Plautdietsch
peo,,,peo,,,Old Persian
peo,,peo,,,,Old Persian
peo,,,peo,,,Old Persian
peo,,peo,,,,Old Persian
pfl,,,pfl,,PÃ¤lzisch,Palatinate German
pfl,,,pfl,,PÃ¤lzisch,Palatinate German
pi,pi,,,,à¤ªà¤¾à¤²à¤¿,Pali
pi,pi,,,,PÄá¸·i,Pali
pi,,pli,,,à¤ªà¤¾à¤²à¤¿,Pali
pi,,pli,,,PÄá¸·i,Pali
pi,,,pli,,à¤ªà¤¾à¤²à¤¿,Pali
pi,,,pli,,PÄá¸·i,Pali
pi,,,pli,,à¤ªà¤¾à¤²à¤¿,Pali
pi,pi,,,,à¤ªà¤¾à¤²à¤¿,Pali
pi,,pli,,,à¤ªà¤¾à¤²à¤¿,Pali
pi,,,pli,,PÄá¸·i,Pali
pi,pi,,,,PÄá¸·i,Pali
pi,,pli,,,PÄá¸·i,Pali
pih,,,pih,,Pitkern,Pitkern
pih,,,pih,,Pitkern,Pitkern
pih,,,pih,,Pitkern,Pitkern
pis,,,pis,,,Pijin
pis,,,pis,,,Pijin
pis,,,pis,,,Pijin
pjt,,,pjt,,,Pitjantjatjara
pjt,,,pjt,,,Pitjantjatjara
pko,,,pko,,,PÃ¶koot
pko,,,pko,,,PÃ¶koot
pl,pl,,,,polszczyzna,Polish
pl,pl,,,,jÄ™zyk polski,Polish
pl,,,pol,,polszczyzna,Polish
pl,,,pol,,jÄ™zyk polski,Polish
pl,,pol,,,polszczyzna,Polish
pl,,pol,,,jÄ™zyk polski,Polish
pl,,,pol,,polszczyzna,Polish
pl,,,pol,,jÄ™zyk polski,Polish
pl,pl,,,,polszczyzna,Polish
pl,,pol,,,polszczyzna,Polish
pl,pl,,,,jÄ™zyk polski,Polish
pl,,pol,,,jÄ™zyk polski,Polish
pms,,,pms,,PiemontÃ¨is,Piedmontese
pms,,,pms,,Lenga piemontÃ¨isa,Piedmontese
pms,,,pms,,PiemontÃ¨is,Piedmontese
pms,,,pms,,Lenga piemontÃ¨isa,Piedmontese
pmy,,,pmy,,bahasa Melayu Papua,Papuan Malay
pmy,,,pmy,,bahasa Melayu Papua,Papuan Malay
pnb,,,pnb,,Ù¾Ù†Ø¬Ø§Ø¨ÛŒ,Western Punjabi
pnb,,,pnb,,Ù¾Ù†Ø¬Ø§Ø¨ÛŒ,Western Punjabi
pnb,pa,,,,Ù¾Ù†Ø¬Ø§Ø¨ÛŒ,Punjabi
pnb,pa,,,,à¨ªà©°à¨œà¨¾à¨¬à©€,Punjabi
pnb,,pan,,,Ù¾Ù†Ø¬Ø§Ø¨ÛŒ,Punjabi
pnb,,pan,,,à¨ªà©°à¨œà¨¾à¨¬à©€,Punjabi
pnb,,,pnb,,Ù¾Ù†Ø¬Ø§Ø¨ÛŒ,Punjabi
pnb,,,pan,,Ù¾Ù†Ø¬Ø§Ø¨ÛŒ,Punjabi
pnb,,,pnb,,à¨ªà©°à¨œà¨¾à¨¬à©€,Punjabi
pnb,,,pan,,à¨ªà©°à¨œà¨¾à¨¬à©€,Punjabi
pnb,,,pnb,,Ù¾Ù†Ø¬Ø§Ø¨ÛŒ,Punjabi
pnb,,,pan,,Ù¾Ù†Ø¬Ø§Ø¨ÛŒ,Punjabi
pnb,,,pnb,,à¨ªà©°à¨œà¨¾à¨¬à©€,Punjabi
pnb,,,pan,,à¨ªà©°à¨œà¨¾à¨¬à©€,Punjabi
pnb,pa,,,,Ù¾Ù†Ø¬Ø§Ø¨ÛŒ,Punjabi
pnb,,pan,,,Ù¾Ù†Ø¬Ø§Ø¨ÛŒ,Punjabi
pnb,pa,,,,à¨ªà©°à¨œà¨¾à¨¬à©€,Punjabi
pnb,,pan,,,à¨ªà©°à¨œà¨¾à¨¬à©€,Punjabi
pnt,,,pnt,,ÏÏ‰Î¼Î±Î¯Î¹ÎºÎ±,Pontic Greek
pnt,,,pnt,,Î Î¿Î½Ï„Î¹Î±ÎºÏŒÎ½ Î»Î±Î»Î¯Î±Î½,Pontic Greek
pnt,,,pnt,,Ï€Î¿Î½Ï„Î¹Î±ÎºÎ¬,Pontic Greek
pnt,,,pnt,,ÏÏ‰Î¼Î±Î¯Î¹ÎºÎ±,Pontic Greek
pnt,,,pnt,,Î Î¿Î½Ï„Î¹Î±ÎºÏŒÎ½ Î»Î±Î»Î¯Î±Î½,Pontic Greek
pnt,,,pnt,,Ï€Î¿Î½Ï„Î¹Î±ÎºÎ¬,Pontic Greek
ppu,,,ppu,,Papora,Papora-Hoanya
ppu,,,ppu,,Papora,Papora-Hoanya
ppu,,,ppu,,Papora,Papora-Hoanya
prg,,,prg,,PrÅ«siskan,Old Prussian
prg,,,prg,,PrÅ«siskan,Old Prussian
prg,,,prg,,PrÅ«siskan,Old Prussian
prg,,,prg,,PrÅ«siskan,Old Prussian
ps,ps,,,,Ù¾ÚšØªÙˆ Ú˜Ø¨Ù‡,Pashto
ps,,pus,,,Ù¾ÚšØªÙˆ Ú˜Ø¨Ù‡,Pashto
ps,,,pus,,Ù¾ÚšØªÙˆ Ú˜Ø¨Ù‡,Pashto
ps,,,pus,,Ù¾ÚšØªÙˆ Ú˜Ø¨Ù‡,Pashto
ps,ps,,,,Ù¾ÚšØªÙˆ Ú˜Ø¨Ù‡,Pashto
ps,,pus,,,Ù¾ÚšØªÙˆ Ú˜Ø¨Ù‡,Pashto
ps,,,pus,,Ù¾ÚšØªÙˆ Ú˜Ø¨Ù‡,Pashto
ps,ps,,,,Ù¾ÚšØªÙˆ Ú˜Ø¨Ù‡,Pashto
ps,,pus,,,Ù¾ÚšØªÙˆ Ú˜Ø¨Ù‡,Pashto
pt,pt,,,,portuguÃªs,Portuguese
pt,pt,,,,portuguÃªs,Portuguese
pt,,,por,,portuguÃªs,Portuguese
pt,,,por,,portuguÃªs,Portuguese
pt,,por,,,portuguÃªs,Portuguese
pt,,por,,,portuguÃªs,Portuguese
pt,,,por,,portuguÃªs,Portuguese
pt,,,por,,portuguÃªs,Portuguese
pt,pt,,,,portuguÃªs,Portuguese
pt,,por,,,portuguÃªs,Portuguese
pt,pt,,,,portuguÃªs,Portuguese
pt,,por,,,portuguÃªs,Portuguese
pwn,,,pwn,,Pinayuanan,Paiwan
pwn,,,pwn,,Pinayuanan,Paiwan
pyu,,,pyu,,Pinuyumayan,Puyuma
pyu,,,pyu,,Pinuyumayan,Puyuma
qu,,,que,,Qhichwa simi,Quechua
qu,,que,,,Qhichwa simi,Quechua
qu,qu,,,,Qhichwa simi,Quechua
qu,qu,,,,Qhichwa simi,Quechua
qu,qu,,,,Qhichwa simi,Quechua
qu,,,que,,Qhichwa simi,Quechua
qu,,que,,,Qhichwa simi,Quechua
qu,,,que,,Qhichwa simi,Quechua
qu,,que,,,Qhichwa simi,Quechua
qu,qu,,,,Qhichwa simi,Quechua
qu,,,que,,Qhichwa simi,Quechua
qu,,que,,,Qhichwa simi,Quechua
quc,,,quc,,QatzijobÊ¼al,Kâ€™icheâ€™
quc,,,quc,,QatzijobÊ¼al,Kâ€™icheâ€™
qya,,,qya,,,Quenya
qya,,,qya,,,Quenya
qya,,,qya,,,Quenya
qya,,,qya,,,Quenya
rar,,,rar,,Te Reo Maori,Cook Islands Maori
rar,,,rar,,MÄori KÅ«ki 'Ä€irani,Cook Islands Maori
rar,,rar,,,Te Reo Maori,Cook Islands Maori
rar,,rar,,,MÄori KÅ«ki 'Ä€irani,Cook Islands Maori
rar,,rar,,,Te Reo Maori,Cook Islands Maori
rar,,rar,,,MÄori KÅ«ki 'Ä€irani,Cook Islands Maori
rar,,,rar,,Te Reo Maori,Cook Islands Maori
rar,,,rar,,MÄori KÅ«ki 'Ä€irani,Cook Islands Maori
rcf,,,rcf,,,RÃ©union Creole
rgn,,,rgn,,Rumagnol,Romagnol
rgn,,,rgn,,Rumagnol,Romagnol
rif,,,rif,,âµœâ´°âµ”âµ‰â´¼âµ‰âµœ,Tarifit
rif,,,rif,,ØªØ§Ø±ÙŠÙÙŠØª,Tarifit
rif,,,rif,,Tarifit,Tarifit
rif,,,rif,,âµœâ´°âµ”âµ‰â´¼âµ‰âµœ,Tarifit
rif,,,rif,,ØªØ§Ø±ÙŠÙÙŠØª,Tarifit
rif,,,rif,,Tarifit,Tarifit
rki,,,rki,,,Arakanese
rki,,,rki,,,Arakanese
rkt,,,rkt,,,Rangpuri
rkt,,,rkt,,,Rangpuri
rm,,,roh,,Rumantsch,Romansh
rm,,roh,,,Rumantsch,Romansh
rm,,,roh,,rumantsch,Romansh
rm,,roh,,,rumantsch,Romansh
rm,rm,,,,Rumantsch,Romansh
rm,rm,,,,rumantsch,Romansh
rm,rm,,,,Rumantsch,Romansh
rm,rm,,,,rumantsch,Romansh
rm,,,roh,,Rumantsch,Romansh
rm,,roh,,,Rumantsch,Romansh
rm,,,roh,,rumantsch,Romansh
rm,,roh,,,rumantsch,Romansh
rmc,,,rmc,,,Carpathian Romani
rmc,,,rmc,,,Carpathian Romani
rmf,,,rmf,,,Finnish Kalo
rmf,,,rmf,,,Finnish Kalo
rmf,,,rmf,,,Finnish Kalo
rmy,,,rom,,Romani chib,Romani
rmy,,rom,,,Romani chib,Romani
rmy,,,rom,,Romani chib,Romani
rmy,,rom,,,Romani chib,Romani
rmy,,,rom,,Romani chib,Romani
rmy,,rom,,,Romani chib,Romani
rn,,,run,,Ikirundi,Kirundi
rn,,run,,,Ikirundi,Kirundi
rn,rn,,,,Ikirundi,Kirundi
rn,rn,,,,Ikirundi,Kirundi
rn,,,run,,Ikirundi,Kirundi
rn,,run,,,Ikirundi,Kirundi
ro,,,ron,,romÃ¢neÈ™te,Romanian
ro,,ron,,,romÃ¢neÈ™te,Romanian
ro,,rum,,,romÃ¢neÈ™te,Romanian
ro,,,ron,,Limba romÃ¢nÄƒ,Romanian
ro,,ron,,,Limba romÃ¢nÄƒ,Romanian
ro,,rum,,,Limba romÃ¢nÄƒ,Romanian
ro,ro,,,,romÃ¢neÈ™te,Romanian
ro,ro,,,,Limba romÃ¢nÄƒ,Romanian
ro,ro,,,,romÃ¢neÈ™te,Romanian
ro,ro,,,,Limba romÃ¢nÄƒ,Romanian
ro,,,ron,,romÃ¢neÈ™te,Romanian
ro,,ron,,,romÃ¢neÈ™te,Romanian
ro,,rum,,,romÃ¢neÈ™te,Romanian
ro,,,ron,,Limba romÃ¢nÄƒ,Romanian
ro,,ron,,,Limba romÃ¢nÄƒ,Romanian
ro,,rum,,,Limba romÃ¢nÄƒ,Romanian
ru,,,rus,,Ñ€ÑƒÑÑĞºĞ¸Ğ¹ ÑĞ·Ñ‹Ğº,Russian
ru,,rus,,,Ñ€ÑƒÑÑĞºĞ¸Ğ¹ ÑĞ·Ñ‹Ğº,Russian
ru,,,rus,,Ñ€ÑƒÑÑĞºĞ¸Ğ¹,Russian
ru,,rus,,,Ñ€ÑƒÑÑĞºĞ¸Ğ¹,Russian
ru,ru,,,,Ñ€ÑƒÑÑĞºĞ¸Ğ¹ ÑĞ·Ñ‹Ğº,Russian
ru,ru,,,,Ñ€ÑƒÑÑĞºĞ¸Ğ¹,Russian
ru,ru,,,,Ñ€ÑƒÑÑĞºĞ¸Ğ¹ ÑĞ·Ñ‹Ğº,Russian
ru,,,rus,,Ñ€ÑƒÑÑĞºĞ¸Ğ¹ ÑĞ·Ñ‹Ğº,Russian
ru,,rus,,,Ñ€ÑƒÑÑĞºĞ¸Ğ¹ ÑĞ·Ñ‹Ğº,Russian
ru,ru,,,,Ñ€ÑƒÑÑĞºĞ¸Ğ¹,Russian
ru,,,rus,,Ñ€ÑƒÑÑĞºĞ¸Ğ¹,Russian
ru,,rus,,,Ñ€ÑƒÑÑĞºĞ¸Ğ¹,Russian
ru,ru,,,,Ñ€ÑƒÑÑĞºĞ¸Ğ¹ ÑĞ·Ñ‹Ğº,Russian
ru,ru,,,,Ñ€ÑƒÑÑĞºĞ¸Ğ¹,Russian
ru,,,rus,,Ñ€ÑƒÑÑĞºĞ¸Ğ¹ ÑĞ·Ñ‹Ğº,Russian
ru,,rus,,,Ñ€ÑƒÑÑĞºĞ¸Ğ¹ ÑĞ·Ñ‹Ğº,Russian
ru,,,rus,,Ñ€ÑƒÑÑĞºĞ¸Ğ¹,Russian
ru,,rus,,,Ñ€ÑƒÑÑĞºĞ¸Ğ¹,Russian
rue,,,rue,,Ñ€ÑƒÑĞ¸Ğ½ÑŒÑĞºÑ‹Ğ¹ ÑĞ·Ñ‹Ğº (Rusynska mova),Rusyn
rue,,,rue,,Ğ ÑƒÑĞ¸Ğ½ÑŒÑĞºÑ‹Ğ¹ ÑĞ·Ñ‹Ğº,Rusyn
rue,,,rue,,Ñ€ÑƒÑĞ¸Ğ½ÑŒÑĞºÑ‹Ğ¹ ÑĞ·Ñ‹Ğº (Rusynska mova),Rusyn
rue,,,rue,,Ğ ÑƒÑĞ¸Ğ½ÑŒÑĞºÑ‹Ğ¹ ÑĞ·Ñ‹Ğº,Rusyn
rup,,,rup,,Limba armÃ£neascÃ£,Aromanian
rup,,rup,,,Limba armÃ£neascÃ£,Aromanian
rup,,,rup,,ArmÃ£neashce,Aromanian
rup,,rup,,,ArmÃ£neashce,Aromanian
rup,,,rup,,Armani,Aromanian
rup,,rup,,,Armani,Aromanian
rup,,,rup,,Limba armÃ£neascÃ£,Aromanian
rup,,rup,,,Limba armÃ£neascÃ£,Aromanian
rup,,,rup,,ArmÃ£neashce,Aromanian
rup,,rup,,,ArmÃ£neashce,Aromanian
rup,,,rup,,Armani,Aromanian
rup,,rup,,,Armani,Aromanian
ruq,,,ruq,,,Megleno-Romanian
ruq,,,ruq,,,Megleno-Romanian
ruq,,,ruq,,,Megleno-Romanian
rw,,,kin,,Kinyarwanda,Kinyarwanda
rw,,kin,,,Kinyarwanda,Kinyarwanda
rw,,,kin,,Ikinyarwanda,Kinyarwanda
rw,,kin,,,Ikinyarwanda,Kinyarwanda
rw,rw,,,,Kinyarwanda,Kinyarwanda
rw,rw,,,,Ikinyarwanda,Kinyarwanda
rw,rw,,,,Kinyarwanda,Kinyarwanda
rw,rw,,,,Ikinyarwanda,Kinyarwanda
rw,,,kin,,Kinyarwanda,Kinyarwanda
rw,,,kin,,Ikinyarwanda,Kinyarwanda
rw,,kin,,,Kinyarwanda,Kinyarwanda
rw,,kin,,,Ikinyarwanda,Kinyarwanda
rwr,,,rwr,,,Marwari
rwr,,,rwr,,,Marwari
ryu,,,ryu,,,Okinawan
ryu,,,ryu,,,Okinawan
sa,,,san,,ğ‘–­ğ‘–½ğ‘–­ğ‘–¿ğ‘–ğ‘–´ğ‘–ğ‘–¦ğ‘–¿,Sanskrit
sa,,san,,,ğ‘–­ğ‘–½ğ‘–­ğ‘–¿ğ‘–ğ‘–´ğ‘–ğ‘–¦ğ‘–¿,Sanskrit
sa,,,san,,à¤¸à¤‚à¤¸à¥à¤•à¥ƒà¤¤à¤®à¥,Sanskrit
sa,,san,,,à¤¸à¤‚à¤¸à¥à¤•à¥ƒà¤¤à¤®à¥,Sanskrit
sa,sa,,,,ğ‘–­ğ‘–½ğ‘–­ğ‘–¿ğ‘–ğ‘–´ğ‘–ğ‘–¦ğ‘–¿,Sanskrit
sa,sa,,,,à¤¸à¤‚à¤¸à¥à¤•à¥ƒà¤¤à¤®à¥,Sanskrit
sa,sa,,,,ğ‘–­ğ‘–½ğ‘–­ğ‘–¿ğ‘–ğ‘–´ğ‘–ğ‘–¦ğ‘–¿,Sanskrit
sa,,,san,,ğ‘–­ğ‘–½ğ‘–­ğ‘–¿ğ‘–ğ‘–´ğ‘–ğ‘–¦ğ‘–¿,Sanskrit
sa,,san,,,ğ‘–­ğ‘–½ğ‘–­ğ‘–¿ğ‘–ğ‘–´ğ‘–ğ‘–¦ğ‘–¿,Sanskrit
sa,sa,,,,à¤¸à¤‚à¤¸à¥à¤•à¥ƒà¤¤à¤®à¥,Sanskrit
sa,,,san,,à¤¸à¤‚à¤¸à¥à¤•à¥ƒà¤¤à¤®à¥,Sanskrit
sa,,san,,,à¤¸à¤‚à¤¸à¥à¤•à¥ƒà¤¤à¤®à¥,Sanskrit
sah,,sah,,,ÑĞ°Ñ…Ğ°Ğ»Ñ‹Ñ‹ (saÈŸalyy),Sakha
sah,,sah,,,ÑĞ°Ñ…Ğ° Ñ‚Ñ‹Ğ»Ğ° (Saxa tÄ±la),Sakha
sah,,sah,,,Ğ¡Ğ°Ñ…Ğ° Ñ‚Ñ‹Ğ»Ğ°,Sakha
sah,,,sah,,ÑĞ°Ñ…Ğ°Ğ»Ñ‹Ñ‹ (saÈŸalyy),Sakha
sah,,,sah,,ÑĞ°Ñ…Ğ° Ñ‚Ñ‹Ğ»Ğ° (Saxa tÄ±la),Sakha
sah,,,sah,,Ğ¡Ğ°Ñ…Ğ° Ñ‚Ñ‹Ğ»Ğ°,Sakha
sah,,sah,,,ÑĞ°Ñ…Ğ°Ğ»Ñ‹Ñ‹ (saÈŸalyy),Sakha
sah,,,sah,,ÑĞ°Ñ…Ğ°Ğ»Ñ‹Ñ‹ (saÈŸalyy),Sakha
sah,,sah,,,ÑĞ°Ñ…Ğ° Ñ‚Ñ‹Ğ»Ğ° (Saxa tÄ±la),Sakha
sah,,,sah,,ÑĞ°Ñ…Ğ° Ñ‚Ñ‹Ğ»Ğ° (Saxa tÄ±la),Sakha
sah,,sah,,,Ğ¡Ğ°Ñ…Ğ° Ñ‚Ñ‹Ğ»Ğ°,Sakha
sah,,,sah,,Ğ¡Ğ°Ñ…Ğ° Ñ‚Ñ‹Ğ»Ğ°,Sakha
sat,,sat,,,á±¥á±Ÿá±±á±›á±Ÿá±²á±¤,Santali
sat,,sat,,,à¦¸à¦¾à¦à¦“à¦¤à¦¾à¦²à¦¿,Santali
sat,,sat,,,Santali,Santali
sat,,sat,,,Har Rar,Santali
sat,,,sat,,á±¥á±Ÿá±±á±›á±Ÿá±²á±¤,Santali
sat,,,sat,,à¦¸à¦¾à¦à¦“à¦¤à¦¾à¦²à¦¿,Santali
sat,,,sat,,Santali,Santali
sat,,,sat,,Har Rar,Santali
sat,,sat,,,á±¥á±Ÿá±±á±›á±Ÿá±²á±¤,Santali
sat,,,sat,,á±¥á±Ÿá±±á±›á±Ÿá±²á±¤,Santali
sat,,sat,,,à¦¸à¦¾à¦à¦“à¦¤à¦¾à¦²à¦¿,Santali
sat,,,sat,,à¦¸à¦¾à¦à¦“à¦¤à¦¾à¦²à¦¿,Santali
sat,,sat,,,Santali,Santali
sat,,,sat,,Santali,Santali
sat,,sat,,,Har Rar,Santali
sat,,,sat,,Har Rar,Santali
sc,,srd,,,Limba sarda,Sardinian
sc,sc,,,,Limba sarda,Sardinian
sc,,srd,,,Limba sarda,Sardinian
sc,sc,,,,Limba sarda,Sardinian
sc,,,srd,,Limba sarda,Sardinian
sc,,,srd,,Limba sarda,Sardinian
sc,,srd,,,Limba sarda,Sardinian
sc,sc,,,,Limba sarda,Sardinian
sc,,,srd,,Limba sarda,Sardinian
sc,,srd,,,Limba sarda,Sardinian
sc,sc,,,,Limba sarda,Sardinian
sc,,,srd,,Limba sarda,Sardinian
scn,,scn,,,Sicilianu,Sicilian
scn,,,scn,,Sicilianu,Sicilian
scn,,scn,,,Sicilianu,Sicilian
scn,,,scn,,Sicilianu,Sicilian
scn,,scn,,,Sicilianu,Sicilian
scn,,,scn,,Sicilianu,Sicilian
sco,,sco,,,Scots leid,Scots
sco,,sco,,,Scots,Scots
sco,,,sco,,Scots leid,Scots
sco,,,sco,,Scots,Scots
sco,,sco,,,Scots leid,Scots
sco,,,sco,,Scots leid,Scots
sco,,sco,,,Scots,Scots
sco,,,sco,,Scots,Scots
sco,,sco,,,Scots leid,Scots
sco,,,sco,,Scots leid,Scots
sco,,sco,,,Scots,Scots
sco,,,sco,,Scots,Scots
sd,,snd,,,Ø³Ù†ÚŒÙŠ Ù»ÙˆÙ„ÙŠ,Sindhi
sd,sd,,,,Ø³Ù†ÚŒÙŠ Ù»ÙˆÙ„ÙŠ,Sindhi
sd,,snd,,,Ø³Ù†ÚŒÙŠ (Sindhi),Sindhi
sd,sd,,,,Ø³Ù†ÚŒÙŠ (Sindhi),Sindhi
sd,,,snd,,Ø³Ù†ÚŒÙŠ Ù»ÙˆÙ„ÙŠ,Sindhi
sd,,,snd,,Ø³Ù†ÚŒÙŠ (Sindhi),Sindhi
sd,,snd,,,Ø³Ù†ÚŒÙŠ Ù»ÙˆÙ„ÙŠ,Sindhi
sd,sd,,,,Ø³Ù†ÚŒÙŠ Ù»ÙˆÙ„ÙŠ,Sindhi
sd,,,snd,,Ø³Ù†ÚŒÙŠ Ù»ÙˆÙ„ÙŠ,Sindhi
sd,,snd,,,Ø³Ù†ÚŒÙŠ (Sindhi),Sindhi
sd,sd,,,,Ø³Ù†ÚŒÙŠ (Sindhi),Sindhi
sd,,,snd,,Ø³Ù†ÚŒÙŠ (Sindhi),Sindhi
sdc,,,sdc,,Sassaresu,Sassarese
sdc,,,sdc,,Sassaresu,Sassarese
sdh,,,sdh,,,Southern Kurdish
sdh,,,sdh,,,Southern Kurdish
se,,sme,,,sÃ¡megiella,Northern Sami
se,se,,,,sÃ¡megiella,Northern Sami
se,,sme,,,davvisÃ¡megiella,Northern Sami
se,se,,,,davvisÃ¡megiella,Northern Sami
se,,,sme,,sÃ¡megiella,Northern Sami
se,,,sme,,davvisÃ¡megiella,Northern Sami
se,,sme,,,sÃ¡megiella,Northern Sami
se,se,,,,sÃ¡megiella,Northern Sami
se,,,sme,,sÃ¡megiella,Northern Sami
se,,sme,,,davvisÃ¡megiella,Northern Sami
se,se,,,,davvisÃ¡megiella,Northern Sami
se,,,sme,,davvisÃ¡megiella,Northern Sami
sei,,,sei,,Cmiique Iitom,Seri
sei,,,sei,,cmiique iitom,Seri
sei,,,sei,,Cmiique Iitom,Seri
sei,,,sei,,cmiique iitom,Seri
ses,,,ses,,,Koyraboro Senni
ses,,,ses,,,Koyraboro Senni
sg,,sag,,,SÃ¤ngÃ¶,Sango
sg,sg,,,,SÃ¤ngÃ¶,Sango
sg,,sag,,,Sango,Sango
sg,sg,,,,Sango,Sango
sg,,,sag,,SÃ¤ngÃ¶,Sango
sg,,,sag,,Sango,Sango
sg,,sag,,,SÃ¤ngÃ¶,Sango
sg,sg,,,,SÃ¤ngÃ¶,Sango
sg,,,sag,,SÃ¤ngÃ¶,Sango
sg,,sag,,,Sango,Sango
sg,sg,,,,Sango,Sango
sg,,,sag,,Sango,Sango
sg,,sag,,,SÃ¤ngÃ¶,Sango
sg,sg,,,,SÃ¤ngÃ¶,Sango
sg,,,sag,,SÃ¤ngÃ¶,Sango
sg,,sag,,,Sango,Sango
sg,sg,,,,Sango,Sango
sg,,,sag,,Sango,Sango
sg,,sag,,,SÃ¤ngÃ¶,Sango
sg,sg,,,,SÃ¤ngÃ¶,Sango
sg,,,sag,,SÃ¤ngÃ¶,Sango
sg,,sag,,,Sango,Sango
sg,sg,,,,Sango,Sango
sg,,,sag,,Sango,Sango
sh,sh,,,,Srpskohrvatski jezik,Serbo-Croatian
sh,,,hbs,,Srpskohrvatski jezik,Serbo-Croatian
sh,sh,,,,Srpskohrvatski jezik,Serbo-Croatian
sh,,,hbs,,Srpskohrvatski jezik,Serbo-Croatian
sh,sh,,,,Srpskohrvatski jezik,Serbo-Croatian
sh,,,hbs,,Srpskohrvatski jezik,Serbo-Croatian
sh,sh,,,,Srpskohrvatski jezik,Serbo-Croatian
sh,,,hbs,,Srpskohrvatski jezik,Serbo-Croatian
shi,,,shi,,âµœâ´°âµ›âµâµƒâµ‰âµœ,Tashelhit
shi,,,shi,,Taclá¸¥it,Tashelhit
shi,,,shi,,ØªØ´Ù„Ø­ÙŠØª,Tashelhit
shi,,,shi,,âµœâ´°âµ›âµâµƒâµ‰âµœ,Tashelhit
shi,,,shi,,Taclá¸¥it,Tashelhit
shi,,,shi,,ØªØ´Ù„Ø­ÙŠØª,Tashelhit
shn,,shn,,,á€œá€­áµá€ºá‚ˆá€á‚†,Shan
shn,,shn,,,á€œá€­áµá€ºá‚ˆá€á‚†,Shan
shn,,,shn,,á€œá€­áµá€ºá‚ˆá€á‚†,Shan
shn,,,shn,,á€œá€­áµá€ºá‚ˆá€á‚†,Shan
shn,,shn,,,á€œá€­áµá€ºá‚ˆá€á‚†,Shan
shn,,,shn,,á€œá€­áµá€ºá‚ˆá€á‚†,Shan
shy,,,shy,,Tacawit,Shawiya
shy,,,shy,,Tacawit,Shawiya
si,,sin,,,à·ƒà·’à¶‚à·„à¶½ à¶·à·à·‚à·à·€,Sinhala
si,si,,,,à·ƒà·’à¶‚à·„à¶½ à¶·à·à·‚à·à·€,Sinhala
si,,sin,,,à·ƒà·’à¶‚à·„à¶½,Sinhala
si,si,,,,à·ƒà·’à¶‚à·„à¶½,Sinhala
si,,,sin,,à·ƒà·’à¶‚à·„à¶½ à¶·à·à·‚à·à·€,Sinhala
si,,,sin,,à·ƒà·’à¶‚à·„à¶½,Sinhala
si,,sin,,,à·ƒà·’à¶‚à·„à¶½ à¶·à·à·‚à·à·€,Sinhala
si,si,,,,à·ƒà·’à¶‚à·„à¶½ à¶·à·à·‚à·à·€,Sinhala
si,,,sin,,à·ƒà·’à¶‚à·„à¶½ à¶·à·à·‚à·à·€,Sinhala
si,,sin,,,à·ƒà·’à¶‚à·„à¶½,Sinhala
si,si,,,,à·ƒà·’à¶‚à·„à¶½,Sinhala
si,,,sin,,à·ƒà·’à¶‚à·„à¶½,Sinhala
sid,,,sid,,,Sidamo
sid,,sid,,,,Sidamo
sid,,,sid,,,Sidamo
sid,,sid,,,,Sidamo
sjd,,,sjd,,ĞºÓ£Ğ»Ñ‚ÑĞ°Ì„Ğ¼ÑŒ ĞºÓ£Ğ»Ğ»,Kildin Sami
sjd,,,sjd,,ĞºÓ£Ğ»Ğ»Ñ‚ ÑĞ°Ì„Ğ¼ÑŒ ĞºÓ£Ğ»Ğ»,Kildin Sami
sjd,,,sjd,,ĞºÓ£Ğ»Ñ‚ÑĞ°Ì„Ğ¼ÑŒ ĞºÓ£Ğ»Ğ»,Kildin Sami
sjd,,,sjd,,ĞºÓ£Ğ»Ğ»Ñ‚ ÑĞ°Ì„Ğ¼ÑŒ ĞºÓ£Ğ»Ğ»,Kildin Sami
sje,,,sje,,bidumsÃ¡megiella,Pite Sami
sje,,,sje,,bidumsÃ¡megiella,Pite Sami
sjm,,,sjm,,,Mapun
sjm,,,sjm,,,Mapun
sjn,,,sjn,,Eglathrin,Sindarin
sjn,,,sjn,,Eglathrin,Sindarin
sjt,,,sjt,,ÑĞ°Ì„Ğ¼ÑŒĞºÓ£Ğ»Ğ»,Ter Sami
sjt,,,sjt,,saaÂ´mekiil,Ter Sami
sjt,,,sjt,,ÑĞ°Ì„Ğ¼ÑŒĞºÓ£Ğ»Ğ»,Ter Sami
sjt,,,sjt,,saaÂ´mekiil,Ter Sami
sju,,,sju,,ubmejesÃ¡miengiÃ¤lla,Ume Sami
sju,,,sju,,ubmejesÃ¡miengiÃ¤lla,Ume Sami
sk,,,slk,,slovenskÃ½ jazyk,Slovak
sk,,,slk,,slovenÄina,Slovak
sk,sk,,,,slovenskÃ½ jazyk,Slovak
sk,,slo,,,slovenskÃ½ jazyk,Slovak
sk,,slk,,,slovenskÃ½ jazyk,Slovak
sk,sk,,,,slovenÄina,Slovak
sk,,slo,,,slovenÄina,Slovak
sk,,slk,,,slovenÄina,Slovak
sk,,,slk,,slovenskÃ½ jazyk,Slovak
sk,,,slk,,slovenÄina,Slovak
sk,sk,,,,slovenskÃ½ jazyk,Slovak
sk,,slo,,,slovenskÃ½ jazyk,Slovak
sk,,slk,,,slovenskÃ½ jazyk,Slovak
sk,sk,,,,slovenÄina,Slovak
sk,,slo,,,slovenÄina,Slovak
sk,,slk,,,slovenÄina,Slovak
skr,,,skr,,Ø³Ø±Ø§Ø¦ÛŒÚ©ÛŒ,Saraiki
skr,,,skr,,Ø³Ø±Ø§Ø¦ÛŒÚ©ÛŒ,Saraiki
sl,,,slv,,SlovenÅ¡Äina,Slovene
sl,,,slv,,Slovenski jezik,Slovene
sl,sl,,,,SlovenÅ¡Äina,Slovene
sl,,slv,,,SlovenÅ¡Äina,Slovene
sl,sl,,,,Slovenski jezik,Slovene
sl,,slv,,,Slovenski jezik,Slovene
sl,,,slv,,SlovenÅ¡Äina,Slovene
sl,,,slv,,Slovenski jezik,Slovene
sl,sl,,,,SlovenÅ¡Äina,Slovene
sl,,slv,,,SlovenÅ¡Äina,Slovene
sl,sl,,,,Slovenski jezik,Slovene
sl,,slv,,,Slovenski jezik,Slovene
sli,,,sli,,SchlÃ¤sche Sproache,Silesian German
sli,,,sli,,SchlÃ¤sche Sproache,Silesian German
sm,,,smo,,Gagana Samoa,Samoan
sm,,,smo,,Gagana fa'a SÄmoa,Samoan
sm,sm,,,,Gagana Samoa,Samoan
sm,,smo,,,Gagana Samoa,Samoan
sm,sm,,,,Gagana fa'a SÄmoa,Samoan
sm,,smo,,,Gagana fa'a SÄmoa,Samoan
sm,,,smo,,Gagana Samoa,Samoan
sm,,,smo,,Gagana fa'a SÄmoa,Samoan
sm,sm,,,,Gagana Samoa,Samoan
sm,,smo,,,Gagana Samoa,Samoan
sm,sm,,,,Gagana fa'a SÄmoa,Samoan
sm,,smo,,,Gagana fa'a SÄmoa,Samoan
sma,,sma,,,Ã¥arjelsaemiengÃ¯ele,Southern Sami
sma,,sma,,,Ã¥arjelsaemien gÃ¯ele,Southern Sami
sma,,,sma,,Ã¥arjelsaemiengÃ¯ele,Southern Sami
sma,,,sma,,Ã¥arjelsaemien gÃ¯ele,Southern Sami
sma,,sma,,,Ã¥arjelsaemiengÃ¯ele,Southern Sami
sma,,,sma,,Ã¥arjelsaemiengÃ¯ele,Southern Sami
sma,,sma,,,Ã¥arjelsaemien gÃ¯ele,Southern Sami
sma,,,sma,,Ã¥arjelsaemien gÃ¯ele,Southern Sami
smj,,smj,,,julevusÃ¡megiella,Lule Sami
smj,,,smj,,julevusÃ¡megiella,Lule Sami
smj,,smj,,,julevusÃ¡megiella,Lule Sami
smj,,,smj,,julevusÃ¡megiella,Lule Sami
smn,,,smn,,anarÃ¢Å¡kielÃ¢,Inari Sami
smn,,smn,,,anarÃ¢Å¡kielÃ¢,Inari Sami
smn,,,smn,,anarÃ¢Å¡kielÃ¢,Inari Sami
smn,,smn,,,anarÃ¢Å¡kielÃ¢,Inari Sami
sms,,sms,,,nuÃµÊ¹rttsÃ¤Ã¤Ê¹mÇ©iÃµll,Skolt Sami
sms,,sms,,,sÃ¤Ã¤Ê¹mÇ©iÃµll,Skolt Sami
sms,,,sms,,nuÃµÊ¹rttsÃ¤Ã¤Ê¹mÇ©iÃµll,Skolt Sami
sms,,,sms,,sÃ¤Ã¤Ê¹mÇ©iÃµll,Skolt Sami
sms,,sms,,,nuÃµÊ¹rttsÃ¤Ã¤Ê¹mÇ©iÃµll,Skolt Sami
sms,,sms,,,sÃ¤Ã¤Ê¹mÇ©iÃµll,Skolt Sami
sms,,,sms,,nuÃµÊ¹rttsÃ¤Ã¤Ê¹mÇ©iÃµll,Skolt Sami
sms,,,sms,,sÃ¤Ã¤Ê¹mÇ©iÃµll,Skolt Sami
sn,,,sna,,ChiShona,Shona
sn,,,sna,,Chishona,Shona
sn,sn,,,,ChiShona,Shona
sn,,sna,,,ChiShona,Shona
sn,sn,,,,Chishona,Shona
sn,,sna,,,Chishona,Shona
sn,,,sna,,ChiShona,Shona
sn,,,sna,,Chishona,Shona
sn,sn,,,,ChiShona,Shona
sn,,sna,,,ChiShona,Shona
sn,sn,,,,Chishona,Shona
sn,,sna,,,Chishona,Shona
so,,,som,,Ø§Ù Ø³ÙˆÙ…Ø§Ù„Ù‰ (Af-Soomaali),Somali
so,,,som,,Af-Soomaali,Somali
so,so,,,,Ø§Ù Ø³ÙˆÙ…Ø§Ù„Ù‰ (Af-Soomaali),Somali
so,,som,,,Ø§Ù Ø³ÙˆÙ…Ø§Ù„Ù‰ (Af-Soomaali),Somali
so,so,,,,Af-Soomaali,Somali
so,,som,,,Af-Soomaali,Somali
so,,,som,,Ø§Ù Ø³ÙˆÙ…Ø§Ù„Ù‰ (Af-Soomaali),Somali
so,,,som,,Af-Soomaali,Somali
so,so,,,,Ø§Ù Ø³ÙˆÙ…Ø§Ù„Ù‰ (Af-Soomaali),Somali
so,,som,,,Ø§Ù Ø³ÙˆÙ…Ø§Ù„Ù‰ (Af-Soomaali),Somali
so,so,,,,Af-Soomaali,Somali
so,,som,,,Af-Soomaali,Somali
sou,,,sou,,,Southern Thai
sou,,,sou,,,Southern Thai
sq,,,sqi,,Gjuha shqipe,Albanian
sq,sq,,,,Gjuha shqipe,Albanian
sq,,alb,,,Gjuha shqipe,Albanian
sq,,sqi,,,Gjuha shqipe,Albanian
sq,,,sqi,,Gjuha shqipe,Albanian
sq,sq,,,,Gjuha shqipe,Albanian
sq,,alb,,,Gjuha shqipe,Albanian
sq,,sqi,,,Gjuha shqipe,Albanian
sq,,,sqi,,Gjuha shqipe,Albanian
sq,sq,,,,Gjuha shqipe,Albanian
sq,,alb,,,Gjuha shqipe,Albanian
sq,,sqi,,,Gjuha shqipe,Albanian
sr,,,srp,,ÑÑ€Ğ¿ÑĞºĞ¸ Ñ˜ĞµĞ·Ğ¸Ğº,Serbian
sr,,,srp,,srpski jezik,Serbian
sr,,,srp,,ÑÑ€Ğ¿ÑĞºĞ¸,Serbian
sr,sr,,,,ÑÑ€Ğ¿ÑĞºĞ¸ Ñ˜ĞµĞ·Ğ¸Ğº,Serbian
sr,,srp,,,ÑÑ€Ğ¿ÑĞºĞ¸ Ñ˜ĞµĞ·Ğ¸Ğº,Serbian
sr,sr,,,,srpski jezik,Serbian
sr,,srp,,,srpski jezik,Serbian
sr,sr,,,,ÑÑ€Ğ¿ÑĞºĞ¸,Serbian
sr,,srp,,,ÑÑ€Ğ¿ÑĞºĞ¸,Serbian
sr,,,srp,,ÑÑ€Ğ¿ÑĞºĞ¸ Ñ˜ĞµĞ·Ğ¸Ğº,Serbian
sr,,,srp,,srpski jezik,Serbian
sr,,,srp,,ÑÑ€Ğ¿ÑĞºĞ¸,Serbian
sr,sr,,,,ÑÑ€Ğ¿ÑĞºĞ¸ Ñ˜ĞµĞ·Ğ¸Ğº,Serbian
sr,,srp,,,ÑÑ€Ğ¿ÑĞºĞ¸ Ñ˜ĞµĞ·Ğ¸Ğº,Serbian
sr,sr,,,,srpski jezik,Serbian
sr,,srp,,,srpski jezik,Serbian
sr,sr,,,,ÑÑ€Ğ¿ÑĞºĞ¸,Serbian
sr,,srp,,,ÑÑ€Ğ¿ÑĞºĞ¸,Serbian
srn,,srn,,,Sranantongo,Sranan Tongo
srn,,,srn,,Sranantongo,Sranan Tongo
srn,,srn,,,Sranantongo,Sranan Tongo
srn,,,srn,,Sranantongo,Sranan Tongo
srn,,srn,,,Sranantongo,Sranan Tongo
srn,,,srn,,Sranantongo,Sranan Tongo
srn,,srn,,,Sranantongo,Sranan Tongo
srn,,,srn,,Sranantongo,Sranan Tongo
srq,,,srq,,mbia cheÃ«,SirionÃ³
srq,,,srq,,mbia cheÃ«,SirionÃ³
ss,,ssw,,,Siswati,Swazi
ss,,ssw,,,siSwati,Swazi
ss,ss,,,,Siswati,Swazi
ss,ss,,,,siSwati,Swazi
ss,,,ssw,,Siswati,Swazi
ss,,,ssw,,siSwati,Swazi
ss,ss,,,,Siswati,Swazi
ss,ss,,,,siSwati,Swazi
ss,,ssw,,,Siswati,Swazi
ss,,,ssw,,Siswati,Swazi
ss,,ssw,,,siSwati,Swazi
ss,,,ssw,,siSwati,Swazi
ssf,,,ssf,,Thaw a lalawa,Thao
ssf,,,ssf,,Thao,Thao
ssf,,,ssf,,Thaw a lalawa,Thao
ssf,,,ssf,,Thao,Thao
ssf,,,ssf,,Thaw a lalawa,Thao
ssf,,,ssf,,Thao,Thao
st,,sot,,,Sesotho,Sesotho
st,,sot,,,seSotho,Sesotho
st,st,,,,Sesotho,Sesotho
st,st,,,,seSotho,Sesotho
st,,,sot,,Sesotho,Sesotho
st,,,sot,,seSotho,Sesotho
st,st,,,,Sesotho,Sesotho
st,st,,,,seSotho,Sesotho
st,,sot,,,Sesotho,Sesotho
st,,,sot,,Sesotho,Sesotho
st,,sot,,,seSotho,Sesotho
st,,,sot,,seSotho,Sesotho
stq,,,stq,,Seeltersk,Saterland Frisian
stq,,,stq,,Seeltersk,Saterland Frisian
sty,,,sty,,,Siberian Tatar
sty,,,sty,,,Siberian Tatar
su,,sun,,,bahasa Sunda,Sundanese
su,su,,,,bahasa Sunda,Sundanese
su,,,sun,,bahasa Sunda,Sundanese
su,su,,,,bahasa Sunda,Sundanese
su,,sun,,,bahasa Sunda,Sundanese
su,,,sun,,bahasa Sunda,Sundanese
sv,sv,,,,svenska,Swedish
sv,,swe,,,svenska,Swedish
sv,,,swe,,svenska,Swedish
sv,sv,,,,svenska,Swedish
sv,,swe,,,svenska,Swedish
sv,,,swe,,svenska,Swedish
sw,sw,,,,Kiswahili,Swahili
sw,,swa,,,Kiswahili,Swahili
sw,,,swa,,Kiswahili,Swahili
sw,sw,,,,Kiswahili,Swahili
sw,,swa,,,Kiswahili,Swahili
sw,,,swa,,Kiswahili,Swahili
sw,sw,,,,Kiswahili,Swahili
sw,,swa,,,Kiswahili,Swahili
sw,,,swa,,Kiswahili,Swahili
sw,sw,,,,Kiswahili,Swahili
sw,,swa,,,Kiswahili,Swahili
sw,,,swa,,Kiswahili,Swahili
sxr,,,sxr,,,Saaroa
sxr,,,sxr,,,Saaroa
syc,,syc,,,Ü Ü«Ü¢Ü Ü£Ü˜ÜªÜÜÜ,Syriac
syc,,,syc,,Ü Ü«Ü¢Ü Ü£Ü˜ÜªÜÜÜ,Syriac
syc,,syc,,,Ü Ü«Ü¢Ü Ü£Ü˜ÜªÜÜÜ,Syriac
syc,,,syc,,Ü Ü«Ü¢Ü Ü£Ü˜ÜªÜÜÜ,Syriac
syc,,syc,,,Ü Ü«Ü¢Ü Ü£Ü˜ÜªÜÜÜ,Syriac
syc,,,syc,,Ü Ü«Ü¢Ü Ü£Ü˜ÜªÜÜÜ,Syriac
szl,,,szl,,Ğ¡ÑŒĞ»ÑĞ½ÑĞºĞ¾ Ğ“Ğ¾Ñ‚ĞºĞ°,Silesian
szl,,,szl,,ÅšlÅ¯nsko godka,Silesian
szl,,,szl,,Ğ¡ÑŒĞ»ÑĞ½ÑĞºĞ¾ Ğ“Ğ¾Ñ‚ĞºĞ°,Silesian
szl,,,szl,,ÅšlÅ¯nsko godka,Silesian
szy,,,szy,,Sakizaya,Sakizaya
szy,,,szy,,Sakizaya,Sakizaya
ta,ta,,,,à®¤à®®à®¿à®´à¯,Tamil
ta,,tam,,,à®¤à®®à®¿à®´à¯,Tamil
ta,,,tam,,à®¤à®®à®¿à®´à¯,Tamil
ta,ta,,,,à®¤à®®à®¿à®´à¯,Tamil
ta,,tam,,,à®¤à®®à®¿à®´à¯,Tamil
ta,,,tam,,à®¤à®®à®¿à®´à¯,Tamil
tay,,,tay,,Atayal,Atayal
tay,,,tay,,Atayal,Atayal
tce,,,tce,,,Southern Tutchone
tce,,,tce,,,Southern Tutchone
tcy,,,tcy,,à²¤à³à²³à³,Tulu
tcy,,,tcy,,à²¤à³à²³à³,Tulu
te,te,,,,à°¤à±†à°²à±à°—à± (Telugu),Telugu
te,,,tel,,à°¤à±†à°²à±à°—à± (Telugu),Telugu
te,te,,,,à°¤à±†à°²à±à°—à±,Telugu
te,,,tel,,à°¤à±†à°²à±à°—à±,Telugu
te,,tel,,,à°¤à±†à°²à±à°—à± (Telugu),Telugu
te,,tel,,,à°¤à±†à°²à±à°—à±,Telugu
te,,tel,,,à°¤à±†à°²à±à°—à± (Telugu),Telugu
te,,tel,,,à°¤à±†à°²à±à°—à±,Telugu
te,te,,,,à°¤à±†à°²à±à°—à± (Telugu),Telugu
te,,,tel,,à°¤à±†à°²à±à°—à± (Telugu),Telugu
te,te,,,,à°¤à±†à°²à±à°—à±,Telugu
te,,,tel,,à°¤à±†à°²à±à°—à±,Telugu
tet,,,tet,,Tetun,Tetum
tet,,,tet,,Lia-tetun,Tetum
tet,,tet,,,Tetun,Tetum
tet,,tet,,,Lia-tetun,Tetum
tet,,,tet,,Tetun,Tetum
tet,,,tet,,Lia-tetun,Tetum
tet,,tet,,,Tetun,Tetum
tet,,tet,,,Lia-tetun,Tetum
tg,tg,,,,Ğ·Ğ°Ğ±Ğ¾Ğ½Ğ¸ Ñ„Ğ¾Ñ€ÑĞ¸Ğ¸ Ñ‚Ğ¾Ò·Ğ¸ĞºÓ£,Tajik
tg,,,tgk,,Ğ·Ğ°Ğ±Ğ¾Ğ½Ğ¸ Ñ„Ğ¾Ñ€ÑĞ¸Ğ¸ Ñ‚Ğ¾Ò·Ğ¸ĞºÓ£,Tajik
tg,tg,,,,Ø²Ø¨Ø§Ù† ØªØ§Ø¬ÛŒÚ©ÛŒ,Tajik
tg,,,tgk,,Ø²Ø¨Ø§Ù† ØªØ§Ø¬ÛŒÚ©ÛŒ,Tajik
tg,tg,,,,ØªØ§Ø¬ÛŒÚ©ÛŒ,Tajik
tg,,,tgk,,ØªØ§Ø¬ÛŒÚ©ÛŒ,Tajik
tg,tg,,,,Ñ„Ğ¾Ñ€ÑĞ¸Ğ¸ Ñ‚Ğ¾Ò·Ğ¸ĞºÓ£,Tajik
tg,,,tgk,,Ñ„Ğ¾Ñ€ÑĞ¸Ğ¸ Ñ‚Ğ¾Ò·Ğ¸ĞºÓ£,Tajik
tg,tg,,,,Ñ‚Ğ¾Ò·Ğ¸ĞºÓ£,Tajik
tg,,,tgk,,Ñ‚Ğ¾Ò·Ğ¸ĞºÓ£,Tajik
tg,tg,,,,Ğ·Ğ°Ğ±Ğ¾Ğ½Ğ¸ Ñ‚Ğ¾Ò·Ğ¸ĞºÓ£,Tajik
tg,,,tgk,,Ğ·Ğ°Ğ±Ğ¾Ğ½Ğ¸ Ñ‚Ğ¾Ò·Ğ¸ĞºÓ£,Tajik
tg,tg,,,,zaboni toÃ§ikÄ«,Tajik
tg,,,tgk,,zaboni toÃ§ikÄ«,Tajik
tg,tg,,,,toÃ§ikÄ«,Tajik
tg,,,tgk,,toÃ§ikÄ«,Tajik
tg,,tgk,,,Ğ·Ğ°Ğ±Ğ¾Ğ½Ğ¸ Ñ„Ğ¾Ñ€ÑĞ¸Ğ¸ Ñ‚Ğ¾Ò·Ğ¸ĞºÓ£,Tajik
tg,,tgk,,,Ø²Ø¨Ø§Ù† ØªØ§Ø¬ÛŒÚ©ÛŒ,Tajik
tg,,tgk,,,ØªØ§Ø¬ÛŒÚ©ÛŒ,Tajik
tg,,tgk,,,Ñ„Ğ¾Ñ€ÑĞ¸Ğ¸ Ñ‚Ğ¾Ò·Ğ¸ĞºÓ£,Tajik
tg,,tgk,,,Ñ‚Ğ¾Ò·Ğ¸ĞºÓ£,Tajik
tg,,tgk,,,Ğ·Ğ°Ğ±Ğ¾Ğ½Ğ¸ Ñ‚Ğ¾Ò·Ğ¸ĞºÓ£,Tajik
tg,,tgk,,,zaboni toÃ§ikÄ«,Tajik
tg,,tgk,,,toÃ§ikÄ«,Tajik
tg,tg,,,,Ğ·Ğ°Ğ±Ğ¾Ğ½Ğ¸ Ñ„Ğ¾Ñ€ÑĞ¸Ğ¸ Ñ‚Ğ¾Ò·Ğ¸ĞºÓ£,Tajik
tg,,,tgk,,Ğ·Ğ°Ğ±Ğ¾Ğ½Ğ¸ Ñ„Ğ¾Ñ€ÑĞ¸Ğ¸ Ñ‚Ğ¾Ò·Ğ¸ĞºÓ£,Tajik
tg,,tgk,,,Ğ·Ğ°Ğ±Ğ¾Ğ½Ğ¸ Ñ„Ğ¾Ñ€ÑĞ¸Ğ¸ Ñ‚Ğ¾Ò·Ğ¸ĞºÓ£,Tajik
tg,tg,,,,Ø²Ø¨Ø§Ù† ØªØ§Ø¬ÛŒÚ©ÛŒ,Tajik
tg,,,tgk,,Ø²Ø¨Ø§Ù† ØªØ§Ø¬ÛŒÚ©ÛŒ,Tajik
tg,,tgk,,,Ø²Ø¨Ø§Ù† ØªØ§Ø¬ÛŒÚ©ÛŒ,Tajik
tg,tg,,,,ØªØ§Ø¬ÛŒÚ©ÛŒ,Tajik
tg,,,tgk,,ØªØ§Ø¬ÛŒÚ©ÛŒ,Tajik
tg,,tgk,,,ØªØ§Ø¬ÛŒÚ©ÛŒ,Tajik
tg,tg,,,,Ñ„Ğ¾Ñ€ÑĞ¸Ğ¸ Ñ‚Ğ¾Ò·Ğ¸ĞºÓ£,Tajik
tg,,,tgk,,Ñ„Ğ¾Ñ€ÑĞ¸Ğ¸ Ñ‚Ğ¾Ò·Ğ¸ĞºÓ£,Tajik
tg,,tgk,,,Ñ„Ğ¾Ñ€ÑĞ¸Ğ¸ Ñ‚Ğ¾Ò·Ğ¸ĞºÓ£,Tajik
tg,tg,,,,Ñ‚Ğ¾Ò·Ğ¸ĞºÓ£,Tajik
tg,,,tgk,,Ñ‚Ğ¾Ò·Ğ¸ĞºÓ£,Tajik
tg,,tgk,,,Ñ‚Ğ¾Ò·Ğ¸ĞºÓ£,Tajik
tg,tg,,,,Ğ·Ğ°Ğ±Ğ¾Ğ½Ğ¸ Ñ‚Ğ¾Ò·Ğ¸ĞºÓ£,Tajik
tg,,,tgk,,Ğ·Ğ°Ğ±Ğ¾Ğ½Ğ¸ Ñ‚Ğ¾Ò·Ğ¸ĞºÓ£,Tajik
tg,,tgk,,,Ğ·Ğ°Ğ±Ğ¾Ğ½Ğ¸ Ñ‚Ğ¾Ò·Ğ¸ĞºÓ£,Tajik
tg,tg,,,,zaboni toÃ§ikÄ«,Tajik
tg,,,tgk,,zaboni toÃ§ikÄ«,Tajik
tg,,tgk,,,zaboni toÃ§ikÄ«,Tajik
tg,tg,,,,toÃ§ikÄ«,Tajik
tg,,,tgk,,toÃ§ikÄ«,Tajik
tg,,tgk,,,toÃ§ikÄ«,Tajik
tg,,tgk,,,Ğ·Ğ°Ğ±Ğ¾Ğ½Ğ¸ Ñ„Ğ¾Ñ€ÑĞ¸Ğ¸ Ñ‚Ğ¾Ò·Ğ¸ĞºÓ£,Tajik
tg,,tgk,,,Ø²Ø¨Ø§Ù† ØªØ§Ø¬ÛŒÚ©ÛŒ,Tajik
tg,,tgk,,,ØªØ§Ø¬ÛŒÚ©ÛŒ,Tajik
tg,,tgk,,,Ñ„Ğ¾Ñ€ÑĞ¸Ğ¸ Ñ‚Ğ¾Ò·Ğ¸ĞºÓ£,Tajik
tg,,tgk,,,Ñ‚Ğ¾Ò·Ğ¸ĞºÓ£,Tajik
tg,,tgk,,,Ğ·Ğ°Ğ±Ğ¾Ğ½Ğ¸ Ñ‚Ğ¾Ò·Ğ¸ĞºÓ£,Tajik
tg,,tgk,,,zaboni toÃ§ikÄ«,Tajik
tg,,tgk,,,toÃ§ikÄ«,Tajik
tg,tg,,,,Ğ·Ğ°Ğ±Ğ¾Ğ½Ğ¸ Ñ„Ğ¾Ñ€ÑĞ¸Ğ¸ Ñ‚Ğ¾Ò·Ğ¸ĞºÓ£,Tajik
tg,,,tgk,,Ğ·Ğ°Ğ±Ğ¾Ğ½Ğ¸ Ñ„Ğ¾Ñ€ÑĞ¸Ğ¸ Ñ‚Ğ¾Ò·Ğ¸ĞºÓ£,Tajik
tg,tg,,,,Ø²Ø¨Ø§Ù† ØªØ§Ø¬ÛŒÚ©ÛŒ,Tajik
tg,,,tgk,,Ø²Ø¨Ø§Ù† ØªØ§Ø¬ÛŒÚ©ÛŒ,Tajik
tg,tg,,,,ØªØ§Ø¬ÛŒÚ©ÛŒ,Tajik
tg,,,tgk,,ØªØ§Ø¬ÛŒÚ©ÛŒ,Tajik
tg,tg,,,,Ñ„Ğ¾Ñ€ÑĞ¸Ğ¸ Ñ‚Ğ¾Ò·Ğ¸ĞºÓ£,Tajik
tg,,,tgk,,Ñ„Ğ¾Ñ€ÑĞ¸Ğ¸ Ñ‚Ğ¾Ò·Ğ¸ĞºÓ£,Tajik
tg,tg,,,,Ñ‚Ğ¾Ò·Ğ¸ĞºÓ£,Tajik
tg,,,tgk,,Ñ‚Ğ¾Ò·Ğ¸ĞºÓ£,Tajik
tg,tg,,,,Ğ·Ğ°Ğ±Ğ¾Ğ½Ğ¸ Ñ‚Ğ¾Ò·Ğ¸ĞºÓ£,Tajik
tg,,,tgk,,Ğ·Ğ°Ğ±Ğ¾Ğ½Ğ¸ Ñ‚Ğ¾Ò·Ğ¸ĞºÓ£,Tajik
tg,tg,,,,zaboni toÃ§ikÄ«,Tajik
tg,,,tgk,,zaboni toÃ§ikÄ«,Tajik
tg,tg,,,,toÃ§ikÄ«,Tajik
tg,,,tgk,,toÃ§ikÄ«,Tajik
th,th,,,,à¸ à¸²à¸©à¸²à¹„à¸—à¸¢,Thai
th,,,tha,,à¸ à¸²à¸©à¸²à¹„à¸—à¸¢,Thai
th,,tha,,,à¸ à¸²à¸©à¸²à¹„à¸—à¸¢,Thai
th,th,,,,à¸ à¸²à¸©à¸²à¹„à¸—à¸¢,Thai
th,,,tha,,à¸ à¸²à¸©à¸²à¹„à¸—à¸¢,Thai
th,,tha,,,à¸ à¸²à¸©à¸²à¹„à¸—à¸¢,Thai
th,,tha,,,à¸ à¸²à¸©à¸²à¹„à¸—à¸¢,Thai
th,th,,,,à¸ à¸²à¸©à¸²à¹„à¸—à¸¢,Thai
th,,,tha,,à¸ à¸²à¸©à¸²à¹„à¸—à¸¢,Thai
ti,ti,,,,á‰µáŒáˆ­áŠ›,Tigrinya
ti,,,tir,,á‰µáŒáˆ­áŠ›,Tigrinya
ti,,tir,,,á‰µáŒáˆ­áŠ›,Tigrinya
ti,ti,,,,á‰µáŒáˆ­áŠ›,Tigrinya
ti,,,tir,,á‰µáŒáˆ­áŠ›,Tigrinya
ti,,tir,,,á‰µáŒáˆ­áŠ›,Tigrinya
tk,tk,,,,Ñ‚Ò¯Ñ€ĞºĞ¼ĞµĞ½Ñ‡Ğµ,Turkmen
tk,tk,,,,TÃ¼rkmenÃ§e,Turkmen
tk,tk,,,,TÃ¼rkmen,Turkmen
tk,,,tuk,,Ñ‚Ò¯Ñ€ĞºĞ¼ĞµĞ½Ñ‡Ğµ,Turkmen
tk,,,tuk,,TÃ¼rkmenÃ§e,Turkmen
tk,,,tuk,,TÃ¼rkmen,Turkmen
tk,,tuk,,,Ñ‚Ò¯Ñ€ĞºĞ¼ĞµĞ½Ñ‡Ğµ,Turkmen
tk,,tuk,,,TÃ¼rkmenÃ§e,Turkmen
tk,,tuk,,,TÃ¼rkmen,Turkmen
tk,,tuk,,,Ñ‚Ò¯Ñ€ĞºĞ¼ĞµĞ½Ñ‡Ğµ,Turkmen
tk,,tuk,,,TÃ¼rkmenÃ§e,Turkmen
tk,,tuk,,,TÃ¼rkmen,Turkmen
tk,tk,,,,Ñ‚Ò¯Ñ€ĞºĞ¼ĞµĞ½Ñ‡Ğµ,Turkmen
tk,,,tuk,,Ñ‚Ò¯Ñ€ĞºĞ¼ĞµĞ½Ñ‡Ğµ,Turkmen
tk,tk,,,,TÃ¼rkmenÃ§e,Turkmen
tk,,,tuk,,TÃ¼rkmenÃ§e,Turkmen
tk,tk,,,,TÃ¼rkmen,Turkmen
tk,,,tuk,,TÃ¼rkmen,Turkmen
tl,tl,,,,Wikang Tagalog,Tagalog
tl,,,tgl,,Wikang Tagalog,Tagalog
tl,,tgl,,,Wikang Tagalog,Tagalog
tl,tl,,,,Wikang Tagalog,Tagalog
tl,,,tgl,,Wikang Tagalog,Tagalog
tl,,tgl,,,Wikang Tagalog,Tagalog
tlh,,tlh,,,,Klingon
tlh,,,tlh,,,Klingon
tlh,,tlh,,,,Klingon
tlh,,,tlh,,,Klingon
tlh,,tlh,,,,Klingon
tlh,,,tlh,,,Klingon
tli,,tli,,,LingÃ­t,Tlingit
tli,,,tli,,LingÃ­t,Tlingit
tli,,tli,,,LingÃ­t,Tlingit
tli,,,tli,,LingÃ­t,Tlingit
tly,,,tly,,TolÄ±ÅŸi,Talysh
tly,,,tly,,TolÄ±ÅŸi,Talysh
tn,tn,,,,seTswana,Tswana
tn,,,tsn,,seTswana,Tswana
tn,,tsn,,,seTswana,Tswana
tn,tn,,,,seTswana,Tswana
tn,,,tsn,,seTswana,Tswana
tn,,tsn,,,seTswana,Tswana
to,to,,,,Lea fakatonga,Tongan
to,,,ton,,Lea fakatonga,Tongan
to,to,,,,Faka Tonga,Tongan
to,,,ton,,Faka Tonga,Tongan
to,,ton,,,Lea fakatonga,Tongan
to,,ton,,,Faka Tonga,Tongan
tpi,,,tpi,,Tok Pisin,Tok Pisin
tpi,,,tpi,,Tok pisin,Tok Pisin
tpi,,tpi,,,Tok Pisin,Tok Pisin
tpi,,tpi,,,Tok pisin,Tok Pisin
tpi,,,tpi,,Tok Pisin,Tok Pisin
tpi,,tpi,,,Tok Pisin,Tok Pisin
tpi,,,tpi,,Tok pisin,Tok Pisin
tpi,,tpi,,,Tok pisin,Tok Pisin
tpi,,,tpi,,Tok Pisin,Tok Pisin
tpi,,,tpi,,Tok pisin,Tok Pisin
tpi,,tpi,,,Tok Pisin,Tok Pisin
tpi,,tpi,,,Tok pisin,Tok Pisin
tr,tr,,,,TÃ¼rkÃ§e,Turkish
tr,,,tur,,TÃ¼rkÃ§e,Turkish
tr,,tur,,,TÃ¼rkÃ§e,Turkish
tr,,tur,,,TÃ¼rkÃ§e,Turkish
tr,tr,,,,TÃ¼rkÃ§e,Turkish
tr,,,tur,,TÃ¼rkÃ§e,Turkish
tru,,,tru,,Surayt,Turoyo
tru,,,tru,,Surayt,Turoyo
trv,,,trv,,Kari Seediq,Seediq
trv,,,trv,,Kari Seediq,Seediq
ts,ts,,,,Xitsonga,Tsonga
ts,ts,,,,Tsonga,Tsonga
ts,,,tso,,Xitsonga,Tsonga
ts,,tso,,,Xitsonga,Tsonga
ts,,,tso,,Tsonga,Tsonga
ts,,tso,,,Tsonga,Tsonga
ts,ts,,,,Xitsonga,Tsonga
ts,ts,,,,Tsonga,Tsonga
ts,,,tso,,Xitsonga,Tsonga
ts,,tso,,,Xitsonga,Tsonga
ts,,,tso,,Tsonga,Tsonga
ts,,tso,,,Tsonga,Tsonga
tsg,,,tsg,,Bahasa SÅ«g,Tausug
tsg,,,tsg,,Bahasa SÅ«g,Tausug
tsk,,,tsk,,,Tseku
tsk,,,tsk,,,Tseku
tsk,,,tsk,,,Tseku
tsu,,,tsu,,,Tsou
tsu,,,tsu,,,Tsou
tt,tt,,,,Ñ‚Ğ°Ñ‚Ğ°Ñ€ Ñ‚ĞµĞ»Ğµ,Tatar
tt,,,tat,,Ñ‚Ğ°Ñ‚Ğ°Ñ€ Ñ‚ĞµĞ»Ğµ,Tatar
tt,,tat,,,Ñ‚Ğ°Ñ‚Ğ°Ñ€ Ñ‚ĞµĞ»Ğµ,Tatar
tt,tt,,,,Ñ‚Ğ°Ñ‚Ğ°Ñ€ Ñ‚ĞµĞ»Ğµ,Tatar
tt,,,tat,,Ñ‚Ğ°Ñ‚Ğ°Ñ€ Ñ‚ĞµĞ»Ğµ,Tatar
tt,,tat,,,Ñ‚Ğ°Ñ‚Ğ°Ñ€ Ñ‚ĞµĞ»Ğµ,Tatar
tt,tt,,,,Ñ‚Ğ°Ñ‚Ğ°Ñ€ Ñ‚ĞµĞ»Ğµ,Tatar
tt,,,tat,,Ñ‚Ğ°Ñ‚Ğ°Ñ€ Ñ‚ĞµĞ»Ğµ,Tatar
tt,,tat,,,Ñ‚Ğ°Ñ‚Ğ°Ñ€ Ñ‚ĞµĞ»Ğµ,Tatar
ttm,,,ttm,,,Northern Tutchone
ttm,,,ttm,,,Northern Tutchone
tum,,,tum,,ChiTumbuka,Tumbuka
tum,,tum,,,ChiTumbuka,Tumbuka
tum,,,tum,,Chitumbuka,Tumbuka
tum,,tum,,,Chitumbuka,Tumbuka
tum,,,tum,,ChiTumbuka,Tumbuka
tum,,tum,,,ChiTumbuka,Tumbuka
tum,,,tum,,Chitumbuka,Tumbuka
tum,,tum,,,Chitumbuka,Tumbuka
tvl,,tvl,,,,Tuvaluan
tvl,,,tvl,,,Tuvaluan
tvl,,tvl,,,,Tuvaluan
tvl,,,tvl,,,Tuvaluan
tvn,,,tvn,,,Tavoyan dialects
tvn,,,tvn,,,Tavoyan dialects
tvx,,,tvx,,,Taivoan
tvx,,,tvx,,,Taivoan
tw,tw,,,,twi,Twi
tw,,,twi,,twi,Twi
tw,,twi,,,twi,Twi
tw,tw,,,,twi,Twi
tw,,,twi,,twi,Twi
tw,,twi,,,twi,Twi
ty,ty,,,,reo tahiti,Tahitian
ty,,,tah,,reo tahiti,Tahitian
ty,,tah,,,reo tahiti,Tahitian
ty,ty,,,,reo tahiti,Tahitian
ty,,,tah,,reo tahiti,Tahitian
ty,,tah,,,reo tahiti,Tahitian
tyv,,,tyv,,Ğ¢Ñ‹Ğ²Ğ° Ğ´Ñ‹Ğ»,Tuvan
tyv,,tyv,,,Ğ¢Ñ‹Ğ²Ğ° Ğ´Ñ‹Ğ»,Tuvan
tyv,,,tyv,,Tyva dyl,Tuvan
tyv,,tyv,,,Tyva dyl,Tuvan
tyv,,,tyv,,Ğ¢Ñ‹Ğ²Ğ° Ğ´Ñ‹Ğ»,Tuvan
tyv,,tyv,,,Ğ¢Ñ‹Ğ²Ğ° Ğ´Ñ‹Ğ»,Tuvan
tyv,,,tyv,,Tyva dyl,Tuvan
tyv,,tyv,,,Tyva dyl,Tuvan
tzl,,,tzl,,Talossan,Talossan
tzm,,,tzm,,âµœâ´°âµâ´°âµ£âµ‰âµ–âµœ (Tamazight),Central Atlas Tamazight
tzm,,,tzm,,TmaziÉ£t,Central Atlas Tamazight
tzm,,,tzm,,tamazight,Central Atlas Tamazight
tzm,,,tzm,,âµœâ´°âµâ´°âµ£âµ‰âµ–âµœ (Tamazight),Central Atlas Tamazight
tzm,,,tzm,,TmaziÉ£t,Central Atlas Tamazight
tzm,,,tzm,,tamazight,Central Atlas Tamazight
udm,,,udm,,Ğ£Ğ´Ğ¼ÑƒÑ€Ñ‚ ĞºÑ‹Ğ»,Udmurt
udm,,udm,,,Ğ£Ğ´Ğ¼ÑƒÑ€Ñ‚ ĞºÑ‹Ğ»,Udmurt
udm,,,udm,,Ğ£Ğ´Ğ¼ÑƒÑ€Ñ‚ ĞºÑ‹Ğ»,Udmurt
udm,,udm,,,Ğ£Ğ´Ğ¼ÑƒÑ€Ñ‚ ĞºÑ‹Ğ»,Udmurt
ug,ug,,,,Ø¦Û‡ÙŠØºÛ‡Ø±Ú†Û•,Uyghur
ug,ug,,,,Ø¦Û‡ÙŠØºÛ‡Ø± ØªÙ‰Ù„Ù‰,Uyghur
ug,ug,,,,Ø¦Û‡ÙŠØºÛ‡Ø±,Uyghur
ug,,,uig,,Ø¦Û‡ÙŠØºÛ‡Ø±Ú†Û•,Uyghur
ug,,uig,,,Ø¦Û‡ÙŠØºÛ‡Ø±Ú†Û•,Uyghur
ug,,,uig,,Ø¦Û‡ÙŠØºÛ‡Ø± ØªÙ‰Ù„Ù‰,Uyghur
ug,,uig,,,Ø¦Û‡ÙŠØºÛ‡Ø± ØªÙ‰Ù„Ù‰,Uyghur
ug,,,uig,,Ø¦Û‡ÙŠØºÛ‡Ø±,Uyghur
ug,,uig,,,Ø¦Û‡ÙŠØºÛ‡Ø±,Uyghur
ug,ug,,,,Ø¦Û‡ÙŠØºÛ‡Ø±Ú†Û•,Uyghur
ug,ug,,,,Ø¦Û‡ÙŠØºÛ‡Ø± ØªÙ‰Ù„Ù‰,Uyghur
ug,ug,,,,Ø¦Û‡ÙŠØºÛ‡Ø±,Uyghur
ug,,,uig,,Ø¦Û‡ÙŠØºÛ‡Ø±Ú†Û•,Uyghur
ug,,uig,,,Ø¦Û‡ÙŠØºÛ‡Ø±Ú†Û•,Uyghur
ug,,,uig,,Ø¦Û‡ÙŠØºÛ‡Ø± ØªÙ‰Ù„Ù‰,Uyghur
ug,,uig,,,Ø¦Û‡ÙŠØºÛ‡Ø± ØªÙ‰Ù„Ù‰,Uyghur
ug,,,uig,,Ø¦Û‡ÙŠØºÛ‡Ø±,Uyghur
ug,,uig,,,Ø¦Û‡ÙŠØºÛ‡Ø±,Uyghur
uk,uk,,,,ÑƒĞºÑ€Ğ°Ñ—Ğ½ÑÑŒĞºĞ° Ğ¼Ğ¾Ğ²Ğ°,Ukrainian
uk,,,ukr,,ÑƒĞºÑ€Ğ°Ñ—Ğ½ÑÑŒĞºĞ° Ğ¼Ğ¾Ğ²Ğ°,Ukrainian
uk,,ukr,,,ÑƒĞºÑ€Ğ°Ñ—Ğ½ÑÑŒĞºĞ° Ğ¼Ğ¾Ğ²Ğ°,Ukrainian
uk,uk,,,,ÑƒĞºÑ€Ğ°Ñ—Ğ½ÑÑŒĞºĞ° Ğ¼Ğ¾Ğ²Ğ°,Ukrainian
uk,,,ukr,,ÑƒĞºÑ€Ğ°Ñ—Ğ½ÑÑŒĞºĞ° Ğ¼Ğ¾Ğ²Ğ°,Ukrainian
uk,,ukr,,,ÑƒĞºÑ€Ğ°Ñ—Ğ½ÑÑŒĞºĞ° Ğ¼Ğ¾Ğ²Ğ°,Ukrainian
umu,,,umu,,,Munsee
umu,,,umu,,,Munsee
und,,und,,,undetermined language,undetermined language
und,,,und,,undetermined language,undetermined language
ur,ur,,,,Ø§Ø±Ø¯Ùˆ,Urdu
ur,,,urd,,Ø§Ø±Ø¯Ùˆ,Urdu
ur,,urd,,,Ø§Ø±Ø¯Ùˆ,Urdu
ur,ur,,,,Ø§Ø±Ø¯Ùˆ,Urdu
ur,,,urd,,Ø§Ø±Ø¯Ùˆ,Urdu
ur,,urd,,,Ø§Ø±Ø¯Ùˆ,Urdu
ur,ur,,,,Ø§Ø±Ø¯Ùˆ,Urdu
ur,,,urd,,Ø§Ø±Ø¯Ùˆ,Urdu
ur,,urd,,,Ø§Ø±Ø¯Ùˆ,Urdu
uun,,,uun,,Pazeh,Pazeh
uun,,,uun,,Pazeh,Pazeh
uz,uz,,,,ĞĞ·Ğ±ĞµĞº Ñ‚Ğ¸Ğ»Ğ¸,Uzbek
uz,,,uzb,,ĞĞ·Ğ±ĞµĞº Ñ‚Ğ¸Ğ»Ğ¸,Uzbek
uz,uz,,,,Ø¦Û‡Ø²Ø¨ÛÙƒ ØªÛŒÙ„Ù‰,Uzbek
uz,,,uzb,,Ø¦Û‡Ø²Ø¨ÛÙƒ ØªÛŒÙ„Ù‰,Uzbek
uz,uz,,,,OÊ»zbek tili,Uzbek
uz,,,uzb,,OÊ»zbek tili,Uzbek
uz,,uzb,,,ĞĞ·Ğ±ĞµĞº Ñ‚Ğ¸Ğ»Ğ¸,Uzbek
uz,,uzb,,,Ø¦Û‡Ø²Ø¨ÛÙƒ ØªÛŒÙ„Ù‰,Uzbek
uz,,uzb,,,OÊ»zbek tili,Uzbek
uz,,,uzb,,ĞĞ·Ğ±ĞµĞº Ñ‚Ğ¸Ğ»Ğ¸,Uzbek
uz,,,uzb,,Ø¦Û‡Ø²Ø¨ÛÙƒ ØªÛŒÙ„Ù‰,Uzbek
uz,,,uzb,,OÊ»zbek tili,Uzbek
uz,uz,,,,ĞĞ·Ğ±ĞµĞº Ñ‚Ğ¸Ğ»Ğ¸,Uzbek
uz,uz,,,,Ø¦Û‡Ø²Ø¨ÛÙƒ ØªÛŒÙ„Ù‰,Uzbek
uz,uz,,,,OÊ»zbek tili,Uzbek
uz,,uzb,,,ĞĞ·Ğ±ĞµĞº Ñ‚Ğ¸Ğ»Ğ¸,Uzbek
uz,,uzb,,,Ø¦Û‡Ø²Ø¨ÛÙƒ ØªÛŒÙ„Ù‰,Uzbek
uz,,uzb,,,OÊ»zbek tili,Uzbek
uz,uz,,,,ĞĞ·Ğ±ĞµĞº Ñ‚Ğ¸Ğ»Ğ¸,Uzbek
uz,,,uzb,,ĞĞ·Ğ±ĞµĞº Ñ‚Ğ¸Ğ»Ğ¸,Uzbek
uz,,uzb,,,ĞĞ·Ğ±ĞµĞº Ñ‚Ğ¸Ğ»Ğ¸,Uzbek
uz,uz,,,,Ø¦Û‡Ø²Ø¨ÛÙƒ ØªÛŒÙ„Ù‰,Uzbek
uz,,,uzb,,Ø¦Û‡Ø²Ø¨ÛÙƒ ØªÛŒÙ„Ù‰,Uzbek
uz,,uzb,,,Ø¦Û‡Ø²Ø¨ÛÙƒ ØªÛŒÙ„Ù‰,Uzbek
uz,uz,,,,OÊ»zbek tili,Uzbek
uz,,,uzb,,OÊ»zbek tili,Uzbek
uz,,uzb,,,OÊ»zbek tili,Uzbek
uzs,,,uzs,,Ø§ÙˆØ²Ø¨ÛŒÚ© ØªÙˆØ±Ú©Ú†Ù‡,Southern Uzbek
uzs,,,uzs,,Ø§ÙˆØ²Ø¨ÛŒÚ© ØªÙˆØ±Ú©Ú†Ù‡,Southern Uzbek
ve,ve,,,,Tshivená¸“a (Tshivenda),Venda
ve,,,ven,,Tshivená¸“a (Tshivenda),Venda
ve,ve,,,,tshiVená¸“a,Venda
ve,,,ven,,tshiVená¸“a,Venda
ve,,ven,,,Tshivená¸“a (Tshivenda),Venda
ve,,ven,,,tshiVená¸“a,Venda
ve,,,ven,,Tshivená¸“a (Tshivenda),Venda
ve,,,ven,,tshiVená¸“a,Venda
ve,ve,,,,Tshivená¸“a (Tshivenda),Venda
ve,ve,,,,tshiVená¸“a,Venda
ve,,ven,,,Tshivená¸“a (Tshivenda),Venda
ve,,ven,,,tshiVená¸“a,Venda
vec,,,vec,,VÃ¨neto,Venetian
vec,,,vec,,ÅÃ©ngua vÃ¨neta,Venetian
vec,,,vec,,VÃ¨neto,Venetian
vec,,,vec,,ÅÃ©ngua vÃ¨neta,Venetian
vep,,,vep,,vepsÃ¤n kel',Veps
vep,,,vep,,vepsÃ¤n kel',Veps
vi,vi,,,,tiáº¿ng Viá»‡t,Vietnamese
vi,,,vie,,tiáº¿ng Viá»‡t,Vietnamese
vi,,vie,,,tiáº¿ng Viá»‡t,Vietnamese
vi,,,vie,,tiáº¿ng Viá»‡t,Vietnamese
vi,vi,,,,tiáº¿ng Viá»‡t,Vietnamese
vi,,vie,,,tiáº¿ng Viá»‡t,Vietnamese
vls,,,vls,,West-Vloams,West Flemish
vls,,,vls,,West-Vlams,West Flemish
vls,,,vls,,Vlaemsch,West Flemish
vmf,,,vmf,,MeefrÃ¤ngisch,Main-Franconian
vmf,,,vmf,,MainfrÃ¤nkisch,Main-Franconian
vmf,,,vmf,,MeefrÃ¤ngisch,Main-Franconian
vmf,,,vmf,,MainfrÃ¤nkisch,Main-Franconian
vo,vo,,,,VolapÃ¼k nulik,VolapÃ¼k
vo,,,vol,,VolapÃ¼k nulik,VolapÃ¼k
vo,,vol,,,VolapÃ¼k nulik,VolapÃ¼k
vo,vo,,,,VolapÃ¼k nulik,VolapÃ¼k
vo,,,vol,,VolapÃ¼k nulik,VolapÃ¼k
vo,,vol,,,VolapÃ¼k nulik,VolapÃ¼k
vot,,vot,,,vadÌ•dÌ•a tÅ¡eeli,Votic
vot,,,vot,,vadÌ•dÌ•a tÅ¡eeli,Votic
vot,,vot,,,vadÌ•dÌ•a tÅ¡eeli,Votic
vot,,,vot,,vadÌ•dÌ•a tÅ¡eeli,Votic
wa,wa,,,,walon,Walloon
wa,,,wln,,walon,Walloon
wa,,wln,,,walon,Walloon
wa,,,wln,,walon,Walloon
wa,wa,,,,walon,Walloon
wa,,wln,,,walon,Walloon
wal,,,wal,,,Wolaytta
wal,,wal,,,,Wolaytta
wal,,,wal,,,Wolaytta
wal,,wal,,,,Wolaytta
war,,,war,,Waray-Waray,Waray
war,,,war,,Waray-waray,Waray
war,,,war,,Waray,Waray
war,,,war,,Binisaya,Waray
war,,war,,,Waray-Waray,Waray
war,,war,,,Waray-waray,Waray
war,,war,,,Waray,Waray
war,,war,,,Binisaya,Waray
war,,,war,,Waray-Waray,Waray
war,,,war,,Waray-waray,Waray
war,,,war,,Waray,Waray
war,,,war,,Binisaya,Waray
war,,war,,,Waray-Waray,Waray
war,,war,,,Waray-waray,Waray
war,,war,,,Waray,Waray
war,,war,,,Binisaya,Waray
wbl,,,wbl,,,Wakhi
wbl,,,wbl,,,Wakhi
wls,,,wls,,Lea faka'uvea,Wallisian
wls,,,wls,,Lea faka'uvea,Wallisian
wo,wo,,,,Wolof,Wolof
wo,,,wol,,Wolof,Wolof
wo,,wol,,,Wolof,Wolof
wo,,,wol,,Wolof,Wolof
wo,wo,,,,Wolof,Wolof
wo,,wol,,,Wolof,Wolof
wuu,,,wuu,,å´è¯­ (wÃºyÇ”),Wu Chinese
wuu,,,wuu,,å´è¯­,Wu Chinese
wuu,,,wuu,,WÃºyÇ”,Wu Chinese
wuu,,,wuu,,å´è¯­ (wÃºyÇ”),Wu Chinese
wuu,,,wuu,,å´è¯­,Wu Chinese
wuu,,,wuu,,WÃºyÇ”,Wu Chinese
wym,,,wym,,WymysiÃ¶eryÅ›,Vilamovian
wym,,,wym,,WymysiÃ¶eryÅ›,Vilamovian
xal,,,xal,,á¡á  á ¯á¡…á¡á  á¡ á¡˜á¡„á ¯á¡„á ¨,Kalmyk Oirat
xal,,,xal,,Ğ¥Ğ°Ğ»ÑŒĞ¼Ğ³ ĞºĞµĞ»Ğ½,Kalmyk Oirat
xal,,,xal,,Ñ…Ğ°Ğ»ÑŒĞ¼Ğ³ ĞºĞµĞ»Ğ½,Kalmyk Oirat
xal,,,xal,,Ñ…Ğ°Ğ»ÑŒĞ¼Ğ³,Kalmyk Oirat
xal,,xal,,,á¡á  á ¯á¡…á¡á  á¡ á¡˜á¡„á ¯á¡„á ¨,Kalmyk Oirat
xal,,xal,,,Ğ¥Ğ°Ğ»ÑŒĞ¼Ğ³ ĞºĞµĞ»Ğ½,Kalmyk Oirat
xal,,xal,,,Ñ…Ğ°Ğ»ÑŒĞ¼Ğ³ ĞºĞµĞ»Ğ½,Kalmyk Oirat
xal,,xal,,,Ñ…Ğ°Ğ»ÑŒĞ¼Ğ³,Kalmyk Oirat
xh,xh,,,,isiXhosa,Xhosa
xh,,,xho,,isiXhosa,Xhosa
xh,,xho,,,isiXhosa,Xhosa
xh,,,xho,,isiXhosa,Xhosa
xh,,xho,,,isiXhosa,Xhosa
xh,xh,,,,isiXhosa,Xhosa
xmf,,,xmf,,áƒ›áƒáƒ áƒ’áƒáƒšáƒ£áƒ áƒ˜ áƒœáƒ˜áƒœáƒ,Mingrelian
xmf,,,xmf,,áƒ›áƒáƒ áƒ’áƒáƒšáƒ£áƒ áƒ˜ áƒœáƒ˜áƒœáƒ,Mingrelian
xnb,,,xnb,,,Kanakanavu
xnb,,,xnb,,,Kanakanavu
xpu,,,xpu,,ğ¤ƒğ¤ğ¤“ğ¤‰ğ¤Œ ğ¤ğ¤ğ¤‰ğ¤Œ,Punic
xsy,,,xsy,,,Saisiyat
xsy,,,xsy,,,Saisiyat
yai,,,yai,,,Yaghnobi
yai,,,yai,,,Yaghnobi
yap,,yap,,,Waab,Yapese
yap,,yap,,,Wa'ab,Yapese
yap,,yap,,,Thin nu Waâ€™ab,Yapese
yap,,,yap,,Waab,Yapese
yap,,,yap,,Wa'ab,Yapese
yap,,,yap,,Thin nu Waâ€™ab,Yapese
yap,,yap,,,Waab,Yapese
yap,,yap,,,Wa'ab,Yapese
yap,,yap,,,Thin nu Waâ€™ab,Yapese
yap,,,yap,,Waab,Yapese
yap,,,yap,,Wa'ab,Yapese
yap,,,yap,,Thin nu Waâ€™ab,Yapese
yav,,,yav,,,Yangben
yav,,,yav,,,Yangben
ydg,,,ydg,,,Yidgha
ydg,,,ydg,,,Yidgha
yi,yi,,,,×™×™×“×™×©,Yiddish
yi,,yid,,,×™×™×“×™×©,Yiddish
yi,,,yid,,×™×™×“×™×©,Yiddish
yi,,yid,,,×™×™×“×™×©,Yiddish
yi,,,yid,,×™×™×“×™×©,Yiddish
yi,yi,,,,×™×™×“×™×©,Yiddish
yi,yi,,,,×™×™×“×™×©,Yiddish
yi,,,yid,,×™×™×“×™×©,Yiddish
yi,,yid,,,×™×™×“×™×©,Yiddish
yo,yo,,,,ÃˆdÃ¨ YorÃ¹bÃ¡,Yoruba
yo,,,yor,,ÃˆdÃ¨ YorÃ¹bÃ¡,Yoruba
yo,,yor,,,ÃˆdÃ¨ YorÃ¹bÃ¡,Yoruba
yo,yo,,,,YorÃ¹bÃ¡,Yoruba
yo,,,yor,,YorÃ¹bÃ¡,Yoruba
yo,,yor,,,YorÃ¹bÃ¡,Yoruba
yo,yo,,,,ÃˆdÃ¨ YorÃ¹bÃ¡,Yoruba
yo,yo,,,,YorÃ¹bÃ¡,Yoruba
yo,,,yor,,ÃˆdÃ¨ YorÃ¹bÃ¡,Yoruba
yo,,,yor,,YorÃ¹bÃ¡,Yoruba
yo,,yor,,,ÃˆdÃ¨ YorÃ¹bÃ¡,Yoruba
yo,,yor,,,YorÃ¹bÃ¡,Yoruba
yo,,,yor,,ÃˆdÃ¨ YorÃ¹bÃ¡,Yoruba
yo,,,yor,,YorÃ¹bÃ¡,Yoruba
yo,yo,,,,ÃˆdÃ¨ YorÃ¹bÃ¡,Yoruba
yo,yo,,,,YorÃ¹bÃ¡,Yoruba
yo,,yor,,,ÃˆdÃ¨ YorÃ¹bÃ¡,Yoruba
yo,,yor,,,YorÃ¹bÃ¡,Yoruba
yrk,,,yrk,,,Nenets
yrk,,,yrk,,,Nenets
yrl,,,yrl,,Ã±e'engatÃº,Nheengatu
yrl,,,yrl,,Ã±e'engatÃº,Nheengatu
za,za,,,,Vahcuengh,Zhuang
za,,zha,,,Vahcuengh,Zhuang
za,,,zha,,Vahcuengh,Zhuang
za,,,zha,,Vahcuengh,Zhuang
za,,zha,,,Vahcuengh,Zhuang
za,za,,,,Vahcuengh,Zhuang
za,za,,,,Vahcuengh,Zhuang
za,,,zha,,Vahcuengh,Zhuang
za,,zha,,,Vahcuengh,Zhuang
zea,,,zea,,ZeÃªuws,Zeelandic
zea,,,zea,,ZeÃªuws,Zeelandic
zgh,,zgh,,,âµœâ´°âµâ´°âµ£âµ‰âµ–âµœ âµœâ´°âµâ´°âµ¡â´°âµ¢âµœ,Standard Moroccan Berber
zgh,,,zgh,,âµœâ´°âµâ´°âµ£âµ‰âµ–âµœ âµœâ´°âµâ´°âµ¡â´°âµ¢âµœ,Standard Moroccan Berber
zgh,,,zgh,,âµœâ´°âµâ´°âµ£âµ‰âµ–âµœ âµœâ´°âµâ´°âµ¡â´°âµ¢âµœ,Standard Moroccan Berber
zgh,,zgh,,,âµœâ´°âµâ´°âµ£âµ‰âµ–âµœ âµœâ´°âµâ´°âµ¡â´°âµ¢âµœ,Standard Moroccan Berber
zh,zh,,,,æ¼¢èª,Chinese
zh,,,zho,,æ¼¢èª,Chinese
zh,,chi,,,æ¼¢èª,Chinese
zh,,zho,,,æ¼¢èª,Chinese
zh,zh,,,,æ¼¢èª,Chinese
zh,,,zho,,æ¼¢èª,Chinese
zh,,chi,,,æ¼¢èª,Chinese
zh,,zho,,,æ¼¢èª,Chinese
zh,zh,,,,æ±‰è¯­,Chinese
zh,,,zho,,æ±‰è¯­,Chinese
zh,,chi,,,æ±‰è¯­,Chinese
zh,,zho,,,æ±‰è¯­,Chinese
zh,zh,,,,æ±‰è¯­,Chinese
zh,,,zho,,æ±‰è¯­,Chinese
zh,,chi,,,æ±‰è¯­,Chinese
zh,,zho,,,æ±‰è¯­,Chinese
zh,zh,,,,æ±‰è¯­,Chinese
zh,,,zho,,æ±‰è¯­,Chinese
zh,,chi,,,æ±‰è¯­,Chinese
zh,,zho,,,æ±‰è¯­,Chinese
zh,,chi,,,æ¼¢èª,Chinese
zh,,zho,,,æ¼¢èª,Chinese
zh,,chi,,,æ¼¢èª,Chinese
zh,,zho,,,æ¼¢èª,Chinese
zh,,chi,,,æ±‰è¯­,Chinese
zh,,zho,,,æ±‰è¯­,Chinese
zh,,chi,,,æ±‰è¯­,Chinese
zh,,zho,,,æ±‰è¯­,Chinese
zh,,chi,,,æ±‰è¯­,Chinese
zh,,zho,,,æ±‰è¯­,Chinese
zh,,,zho,,æ¼¢èª,Chinese
zh,,,zho,,æ¼¢èª,Chinese
zh,,,zho,,æ±‰è¯­,Chinese
zh,,,zho,,æ±‰è¯­,Chinese
zh,,,zho,,æ±‰è¯­,Chinese
zh,zh,,,,æ¼¢èª,Chinese
zh,zh,,,,æ¼¢èª,Chinese
zh,zh,,,,æ±‰è¯­,Chinese
zh,zh,,,,æ±‰è¯­,Chinese
zh,zh,,,,æ±‰è¯­,Chinese
zh,zh,,,,æ¼¢èª,Chinese
zh,,,zho,,æ¼¢èª,Chinese
zh,,chi,,,æ¼¢èª,Chinese
zh,,zho,,,æ¼¢èª,Chinese
zh,zh,,,,æ¼¢èª,Chinese
zh,,,zho,,æ¼¢èª,Chinese
zh,,chi,,,æ¼¢èª,Chinese
zh,,zho,,,æ¼¢èª,Chinese
zh,zh,,,,æ±‰è¯­,Chinese
zh,,,zho,,æ±‰è¯­,Chinese
zh,,chi,,,æ±‰è¯­,Chinese
zh,,zho,,,æ±‰è¯­,Chinese
zh,zh,,,,æ±‰è¯­,Chinese
zh,,,zho,,æ±‰è¯­,Chinese
zh,,chi,,,æ±‰è¯­,Chinese
zh,,zho,,,æ±‰è¯­,Chinese
zh,zh,,,,æ±‰è¯­,Chinese
zh,,,zho,,æ±‰è¯­,Chinese
zh,,chi,,,æ±‰è¯­,Chinese
zh,,zho,,,æ±‰è¯­,Chinese
zh-cn,,,,cosc,,Putonghua
zh-min-nan,,,nan,,é—½å—è¯­,Southern Min
zh-min-nan,,,nan,,é–©å—èª,Southern Min
zh-min-nan,,,nan,,BÃ¢n-lÃ¢m-gÃº,Southern Min
zh-min-nan,,,nan,,BÃ¢n-lÃ¢m-gÃ­,Southern Min
zh-min-nan,,,nan,,é—½å—è¯­,Southern Min
zh-min-nan,,,nan,,é–©å—èª,Southern Min
zh-min-nan,,,nan,,BÃ¢n-lÃ¢m-gÃº,Southern Min
zh-min-nan,,,nan,,BÃ¢n-lÃ¢m-gÃ­,Southern Min
zh-tw,,,,goyu,,Standard Taiwanese Mandarin
zh-yue,,,yue,,ç²µèª (Yuht YÃºh),Yue Chinese
zh-yue,,,yue,,ç²¤è¯­,Yue Chinese
zh-yue,,,yue,,ç²µèª,Yue Chinese
zh-yue,,,yue,,ç²µèª (Yuht YÃºh),Yue Chinese
zh-yue,,,yue,,ç²¤è¯­,Yue Chinese
zh-yue,,,yue,,ç²µèª,Yue Chinese
zh-yue,,,yue,,ç²µèª (Yuht YÃºh),Yue Chinese
zh-yue,,,yue,,ç²¤è¯­,Yue Chinese
zh-yue,,,yue,,ç²µèª,Yue Chinese
zh-yue,,,yue,,ç²µæ–‡,Cantonese
zh-yue,,,,guzh,ç²µæ–‡,Cantonese
zh-yue,,,,yyef,ç²µæ–‡,Cantonese
zh-yue,,,yue,,ç²µèª,Cantonese
zh-yue,,,,guzh,ç²µèª,Cantonese
zh-yue,,,,yyef,ç²µèª,Cantonese
zu,zu,,,,isiZulu,Zulu
zu,,,zul,,isiZulu,Zulu
zu,,zul,,,isiZulu,Zulu
zu,zu,,,,isiZulu,Zulu
zu,,zul,,,isiZulu,Zulu
zu,,,zul,,isiZulu,Zulu
zu,,zul,,,isiZulu,Zulu
zu,,,zul,,isiZulu,Zulu
zu,zu,,,,isiZulu,Zulu
zun,,zun,,,Shiwiâ€™ma,Zuni
zun,,,zun,,Shiwiâ€™ma,Zuni
zun,,zun,,,Shiwiâ€™ma,Zuni
zun,,,zun,,Shiwiâ€™ma,Zuni
